{"type":"Topology","objects":{"data":{"geometries":[{"properties":{"cd_mun_ibge":"2700102"},"type":"MultiPolygon","arcs":[[[-147,0,-98,-46,-125,-22]]],"id":0},{"properties":{"cd_mun_ibge":"2700201"},"type":"MultiPolygon","arcs":[[[-11,-68,-264,-261,-95,-6]]],"id":1},{"properties":{"cd_mun_ibge":"2700300"},"type":"MultiPolygon","arcs":[[[-65,-21,-42,-18,-71,-242,-28]]],"id":2},{"properties":{"cd_mun_ibge":"2700409"},"type":"MultiPolygon","arcs":[[[-166,-7,-93,-168,-9,-15,-111,-198]]],"id":3},{"properties":{"cd_mun_ibge":"2700508"},"type":"MultiPolygon","arcs":[[[-150,-74,-32,-226,-152,1]]],"id":4},{"properties":{"cd_mun_ibge":"2700607"},"type":"MultiPolygon","arcs":[[[-203,-232,-89,2]]],"id":5},{"properties":{"cd_mun_ibge":"2700706"},"type":"MultiPolygon","arcs":[[[-47,-120,-83,-52,-281,-5]]],"id":6},{"properties":{"cd_mun_ibge":"2700805"},"type":"MultiPolygon","arcs":[[[-40,-139,-262,-268]]],"id":7},{"properties":{"cd_mun_ibge":"2700904"},"type":"MultiPolygon","arcs":[[[-280,3,-143,-48,4]]],"id":8},{"properties":{"cd_mun_ibge":"2701001"},"type":"MultiPolygon","arcs":[[[-236,-12,5,-94,6,-165]]],"id":9},{"properties":{"cd_mun_ibge":"2701100"},"type":"MultiPolygon","arcs":[[[-108,-14,-286]]],"id":10},{"properties":{"cd_mun_ibge":"2701209"},"type":"MultiPolygon","arcs":[[[-25,7,-104,-26,-38,-79]]],"id":11},{"properties":{"cd_mun_ibge":"2701308"},"type":"MultiPolygon","arcs":[[[8,-167,-295,-16]]],"id":12},{"properties":{"cd_mun_ibge":"2701357"},"type":"MultiPolygon","arcs":[[[-115,9,-49,-61]]],"id":13},{"properties":{"cd_mun_ibge":"2701407"},"type":"MultiPolygon","arcs":[[[-63,-69,10,11,-235,-55,-269]]],"id":14},{"properties":{"cd_mun_ibge":"2701506"},"type":"MultiPolygon","arcs":[[[-276,-35,-29,-190,-127]]],"id":15},{"properties":{"cd_mun_ibge":"2701605"},"type":"MultiPolygon","arcs":[[[12,-132,-87,-45,-100]]],"id":16},{"properties":{"cd_mun_ibge":"2701704"},"type":"MultiPolygon","arcs":[[[-294,13,-107,14,15]]],"id":17},{"properties":{"cd_mun_ibge":"2701803"},"type":"MultiPolygon","arcs":[[[-211,-129,-118,-223,-257]]],"id":18},{"properties":{"cd_mun_ibge":"2701902"},"type":"MultiPolygon","arcs":[[[-213,-293,-196,16]]],"id":19},{"properties":{"cd_mun_ibge":"2702009"},"type":"MultiPolygon","arcs":[[[-266,-72,17,-41]]],"id":20},{"properties":{"cd_mun_ibge":"2702108"},"type":"MultiPolygon","arcs":[[[-60,-36,18,-113]]],"id":21},{"properties":{"cd_mun_ibge":"2702207"},"type":"MultiPolygon","arcs":[[[-207,-76,-90]]],"id":22},{"properties":{"cd_mun_ibge":"2702306"},"type":"MultiPolygon","arcs":[[[-57,19,-30,-157,-271]]],"id":23},{"properties":{"cd_mun_ibge":"2702355"},"type":"MultiPolygon","arcs":[[[20,-64,-33,-53,-81,-43]]],"id":24},{"properties":{"cd_mun_ibge":"2702405"},"type":"MultiPolygon","arcs":[[[-145,21,-124,22]]],"id":25},{"properties":{"cd_mun_ibge":"2702504"},"type":"MultiPolygon","arcs":[[[-78,-130,-209,23,24]]],"id":26},{"properties":{"cd_mun_ibge":"2702553"},"type":"MultiPolygon","arcs":[[[-39,25,-103,26,-136]]],"id":27},{"properties":{"cd_mun_ibge":"2702603"},"type":"MultiPolygon","arcs":[[[-34,-66,27,-241,-191,28]]],"id":28},{"properties":{"cd_mun_ibge":"2702702"},"type":"MultiPolygon","arcs":[[[-158,29,30,-162]]],"id":29},{"properties":{"cd_mun_ibge":"2702801"},"type":"MultiPolygon","arcs":[[[31,-77,-201,-102,-109,-58,-227]]],"id":30},{"properties":{"cd_mun_ibge":"2702900"},"type":"MultiPolygon","arcs":[[[-283,-54,32,-67,33,34,-275]]],"id":31},{"properties":{"cd_mun_ibge":"2703007"},"type":"MultiPolygon","arcs":[[[35,-59,-284,-220,36]]],"id":32},{"properties":{"cd_mun_ibge":"2703106"},"type":"MultiPolygon","arcs":[[[-80,37,38,-140,39,-267,40,41,42]]],"id":33},{"properties":{"cd_mun_ibge":"2703205"},"type":"MultiPolygon","arcs":[[[-246,-160,43,-192]]],"id":34},{"properties":{"cd_mun_ibge":"2703304"},"type":"MultiPolygon","arcs":[[[-97,44,-175,-254,-172,-126,45]]],"id":35},{"properties":{"cd_mun_ibge":"2703403"},"type":"MultiPolygon","arcs":[[[-121,46,47,-135,-106]]],"id":36},{"properties":{"cd_mun_ibge":"2703502"},"type":"MultiPolygon","arcs":[[[-62,48,49,-85,-181]]],"id":37},{"properties":{"cd_mun_ibge":"2703601"},"type":"MultiPolygon","arcs":[[[-84,50,-186,-183]]],"id":38},{"properties":{"cd_mun_ibge":"2703700"},"type":"MultiPolygon","arcs":[[[-283,-282,51,-82,52,53,282]]],"id":39},{"properties":{"cd_mun_ibge":"2703759"},"type":"MultiPolygon","arcs":[[[-270,54,-234,-205,55,56]]],"id":40},{"properties":{"cd_mun_ibge":"2703809"},"type":"MultiPolygon","arcs":[[[-153,-228,57,-285,58,59,-112,-101]]],"id":41},{"properties":{"cd_mun_ibge":"2703908"},"type":"MultiPolygon","arcs":[[[60,61,-180,-116]]],"id":42},{"properties":{"cd_mun_ibge":"2704005"},"type":"MultiPolygon","arcs":[[[-244,-70,62,-274]]],"id":43},{"properties":{"cd_mun_ibge":"2704104"},"type":"MultiPolygon","arcs":[[[63,64,65,66]]],"id":44},{"properties":{"cd_mun_ibge":"2704203"},"type":"MultiPolygon","arcs":[[[67,68,69,-243,70,71,-265]]],"id":45},{"properties":{"cd_mun_ibge":"2704302"},"type":"MultiPolygon","arcs":[[[72]],[[73,-149,74,-91,75,-206,-251,-202,76]]],"id":46},{"properties":{"cd_mun_ibge":"2704401"},"type":"MultiPolygon","arcs":[[[-119,-131,77,78,79,80,81,82]]],"id":47},{"properties":{"cd_mun_ibge":"2704500"},"type":"MultiPolygon","arcs":[[[83,-182,84,85]]],"id":48},{"properties":{"cd_mun_ibge":"2704609"},"type":"MultiPolygon","arcs":[[[86,-134,87,-176]]],"id":49},{"properties":{"cd_mun_ibge":"2704708"},"type":"MultiPolygon","arcs":[[[88,-231,-164,-248,89,90,91]]],"id":50},{"properties":{"cd_mun_ibge":"2704807"},"type":"MultiPolygon","arcs":[[[-260,-96,-169,92,93,94]]],"id":51},{"properties":{"cd_mun_ibge":"2704906"},"type":"MultiPolygon","arcs":[[[-138,-155,-290,-170,95,-259]]],"id":52},{"properties":{"cd_mun_ibge":"2705002"},"type":"MultiPolygon","arcs":[[[96,97,98,99]]],"id":53},{"properties":{"cd_mun_ibge":"2705101"},"type":"MultiPolygon","arcs":[[[-154,100,-117,-178,-184]]],"id":54},{"properties":{"cd_mun_ibge":"2705200"},"type":"MultiPolygon","arcs":[[[101,-200,-110]]],"id":55},{"properties":{"cd_mun_ibge":"2705309"},"type":"MultiPolygon","arcs":[[[102,103,104]]],"id":56},{"properties":{"cd_mun_ibge":"2705408"},"type":"MultiPolygon","arcs":[[[-225,-122,105,-141]]],"id":57},{"properties":{"cd_mun_ibge":"2705507"},"type":"MultiPolygon","arcs":[[[106,107,108,109,-199,110]]],"id":58},{"properties":{"cd_mun_ibge":"2705606"},"type":"MultiPolygon","arcs":[[[111,112,113,114,115,-179,116]]],"id":59},{"properties":{"cd_mun_ibge":"2705705"},"type":"MultiPolygon","arcs":[[[-224,117,-128,118,119,120,121]]],"id":60},{"properties":{"cd_mun_ibge":"2705804"},"type":"MultiPolygon","arcs":[[[122,123,124,125,-171]]],"id":61},{"properties":{"cd_mun_ibge":"2705903"},"type":"MultiPolygon","arcs":[[[-189,-216,-277,126]]],"id":62},{"properties":{"cd_mun_ibge":"2706000"},"type":"MultiPolygon","arcs":[[[127,128,-210,129,130]]],"id":63},{"properties":{"cd_mun_ibge":"2706109"},"type":"MultiPolygon","arcs":[[[131,132,133]]],"id":64},{"properties":{"cd_mun_ibge":"2706208"},"type":"MultiPolygon","arcs":[[[134,-142]]],"id":65},{"properties":{"cd_mun_ibge":"2706307"},"type":"MultiPolygon","arcs":[[[135,136,-194,-156,137,-258,138,139]]],"id":66},{"properties":{"cd_mun_ibge":"2706406"},"type":"MultiPolygon","arcs":[[[-173,-221,140,141,142,143]]],"id":67},{"properties":{"cd_mun_ibge":"2706422"},"type":"MultiPolygon","arcs":[[[144,145,146]]],"id":68},{"properties":{"cd_mun_ibge":"2706448"},"type":"MultiPolygon","arcs":[[[147,148,149]]],"id":69},{"properties":{"cd_mun_ibge":"2706505"},"type":"MultiPolygon","arcs":[[[150,151,-229,152,153,-238]]],"id":70},{"properties":{"cd_mun_ibge":"2706604"},"type":"MultiPolygon","arcs":[[[154,155,-193,-291]]],"id":71},{"properties":{"cd_mun_ibge":"2706703"},"type":"MultiPolygon","arcs":[[[-245,-272,156,157,-161,158,159]]],"id":72},{"properties":{"cd_mun_ibge":"2706802"},"type":"MultiPolygon","arcs":[[[160,161,162]]],"id":73},{"properties":{"cd_mun_ibge":"2706901"},"type":"MultiPolygon","arcs":[[[-197,-249,163,-230,164,165]]],"id":74},{"properties":{"cd_mun_ibge":"2707008"},"type":"MultiPolygon","arcs":[[[166,167,168,169,-289]]],"id":75},{"properties":{"cd_mun_ibge":"2707107"},"type":"MultiPolygon","arcs":[[[170,171,-253,-222,172,173]]],"id":76},{"properties":{"cd_mun_ibge":"2707206"},"type":"MultiPolygon","arcs":[[[-255,174,175,176,-212]]],"id":77},{"properties":{"cd_mun_ibge":"2707305"},"type":"MultiPolygon","arcs":[[[-185,177,178,179,180,181,182]]],"id":78},{"properties":{"cd_mun_ibge":"2707404"},"type":"MultiPolygon","arcs":[[[-239,183,184,185,186]]],"id":79},{"properties":{"cd_mun_ibge":"2707503"},"type":"MultiPolygon","arcs":[[[187,-217,188,189,190,-240,191]]],"id":80},{"properties":{"cd_mun_ibge":"2707602"},"type":"MultiPolygon","arcs":[[[192,193,194,195,-292]]],"id":81},{"properties":{"cd_mun_ibge":"2707701"},"type":"MultiPolygon","arcs":[[[196,197,198,199,200,201,-250]]],"id":82},{"properties":{"cd_mun_ibge":"2707800"},"type":"MultiPolygon","arcs":[[[-233,202,203,204]]],"id":83},{"properties":{"cd_mun_ibge":"2707909"},"type":"MultiPolygon","arcs":[[[205,206,-247]]],"id":84},{"properties":{"cd_mun_ibge":"2708006"},"type":"MultiPolygon","arcs":[[[207,208,209,210,-256,211]]],"id":85},{"properties":{"cd_mun_ibge":"2708105"},"type":"MultiPolygon","arcs":[[[212,213,-218,-287]]],"id":86},{"properties":{"cd_mun_ibge":"2708204"},"type":"MultiPolygon","arcs":[[[214,-278,215,216]]],"id":87},{"properties":{"cd_mun_ibge":"2708303"},"type":"MultiPolygon","arcs":[[[217,218,219,-288]]],"id":88},{"properties":{"cd_mun_ibge":"2708402"},"type":"MultiPolygon","arcs":[[[220,221,-252,222,223,224]]],"id":89},{"properties":{"cd_mun_ibge":"2708501"},"type":"MultiPolygon","arcs":[[[225,226,227,228]]],"id":90},{"properties":{"cd_mun_ibge":"2708600"},"type":"MultiPolygon","arcs":[[[229,230,231,232,233,234,235]]],"id":91},{"properties":{"cd_mun_ibge":"2708709"},"type":"MultiPolygon","arcs":[[[236,237,238]]],"id":92},{"properties":{"cd_mun_ibge":"2708808"},"type":"MultiPolygon","arcs":[[[239,240,241,242,243,-273,244,245]]],"id":93},{"properties":{"cd_mun_ibge":"2708907"},"type":"MultiPolygon","arcs":[[[246,247,248,249,250]]],"id":94},{"properties":{"cd_mun_ibge":"2708956"},"type":"MultiPolygon","arcs":[[[251,252,253,254,255,256]]],"id":95},{"properties":{"cd_mun_ibge":"2709004"},"type":"MultiPolygon","arcs":[[[257,258,259,260,-263,261]]],"id":96},{"properties":{"cd_mun_ibge":"2709103"},"type":"MultiPolygon","arcs":[[[262,263,264,265,266,267]]],"id":97},{"properties":{"cd_mun_ibge":"2709152"},"type":"MultiPolygon","arcs":[[[268,269,270,271,272,273]]],"id":98},{"properties":{"cd_mun_ibge":"2709202"},"type":"MultiPolygon","arcs":[[[274,275,276,277,278,279,280,281,282]]],"id":99},{"properties":{"cd_mun_ibge":"2709301"},"type":"MultiPolygon","arcs":[[[283,284,285,286,287]]],"id":100},{"properties":{"cd_mun_ibge":"2709400"},"type":"MultiPolygon","arcs":[[[288,289,290,291,292,293,294]]],"id":101}],"type":"GeometryCollection"}},"bbox":[-38.23759,-10.500147356561657,-35.15195032832633,-8.8131267],"transform":{"scale":[3.085670528378952e-05,1.6870375269369263e-05],"translate":[-38.23759,-10.500147356561657]},"arcs":[[[7307,79672],[1088,497],[238,1383],[794,1752]],[[89611,67699],[-698,-1762],[-194,-2009],[-429,-1081],[-367,-162]],[[77206,42196],[-1603,-4005]],[[35772,34758],[-965,1198],[-555,-347],[-1958,235],[-674,2745],[-756,1097],[-366,3]],[[33010,46827],[3181,-4040],[152,-1061],[471,-235],[329,-951],[339,462],[1323,67]],[[64309,45667],[447,3224],[-498,3193]],[[66304,53348],[348,-717]],[[40768,67623],[881,-1376],[505,303]],[[67467,60892],[-1694,1034]],[[86445,98241],[211,660],[773,626]],[[61409,45143],[462,2027],[312,-1091],[1256,-688],[870,276]],[[64309,45667],[197,-142]],[[23008,91235],[276,-436],[624,12],[216,-1495],[299,259],[771,-721],[1416,-321],[660,-803],[18,-473]],[[66007,75955],[3478,-2734],[806,229],[115,-716],[727,-469]],[[71979,65371],[-2772,-3354],[-1006,-16],[-734,-1109]],[[67467,60892],[1539,9009],[-1494,921]],[[60981,75977],[228,216],[-163,803],[487,-345],[943,2054],[121,-375],[471,273]],[[53632,47464],[-836,1790],[-31,921]],[[78136,96603],[143,800],[462,-205],[379,769],[279,-221],[376,-434],[-226,-2317],[1120,-1162],[2502,1216],[623,852]],[[71496,26638],[-462,-1442],[-1446,-1236],[-1444,-3846],[-541,264],[-1099,-2523],[-2403,-3860]],[[50281,51256],[-29,-988],[-807,-665],[-1380,-2611]],[[7692,68998],[4147,-4179]],[[11130,56941],[-745,-559],[-2339,1281],[-453,730],[173,934],[-420,1218],[-1845,1199],[-321,1031],[-1011,325],[-297,-393],[-772,266],[-422,-335],[-737,1069],[-877,398],[333,2000],[-1397,3268],[1118,1950],[763,335],[699,1625],[52,816]],[[38137,70674],[104,-574],[102,617],[289,-519],[688,10],[679,-2187],[769,-398]],[[40768,67623],[-471,-888],[-970,212],[-506,-2792]],[[45470,58757],[139,538],[-435,835],[-59,2563],[556,883],[-166,1109],[224,1063]],[[46692,72300],[1136,531],[2010,-1277]],[[50130,41250],[2117,-1938],[-6,-906],[782,508],[330,-1656]],[[50253,31693],[447,1676],[-473,496],[-125,996],[-400,-26],[-485,773],[-269,-252],[-234,943],[-591,305]],[[60482,15998],[3619,-2003]],[[64101,13995],[-1108,-2405],[-245,-2367]],[[82676,66956],[-132,-25]],[[43222,51726],[950,-1144],[306,-1092],[1560,-1282],[87,-735],[1287,-1797]],[[48306,36911],[-183,-307]],[[48123,36604],[-257,-1079],[-959,-1499],[-259,-1894]],[[78136,96603],[-259,-6750]],[[72893,94611],[747,52],[189,606],[1141,492],[416,1383],[338,-66],[155,482],[300,-521],[748,302],[478,-821],[731,83]],[[45387,57398],[184,263],[-331,892],[230,204]],[[45470,58757],[1351,1321],[2720,105]],[[55235,57451],[-151,-116]],[[53896,55380],[-441,-521],[-438,424],[-18,-494],[-696,-245],[-46,-1337],[433,-992],[-628,-655],[233,-230],[279,425],[191,-1580]],[[52765,50175],[-460,-90],[-504,1140],[-541,-426],[-979,457]],[[50281,51256],[189,1975],[-589,177],[104,1186],[-665,-555],[-1176,651],[-386,1157],[-701,460],[-879,-820],[-608,718]],[[51562,14392],[-361,-626],[-911,-195],[-1121,373]],[[17991,78309],[1963,-827],[447,-2048],[-333,-727],[378,-969],[-69,-1005],[667,-813]],[[15192,71805],[-2092,4003]],[[35164,52562],[-1246,-4563],[-736,-187],[-172,-985]],[[33010,46827],[-695,-1533]],[[89021,92338],[-370,415],[97,2637],[-495,555],[-774,-3],[-323,2199],[273,1386]],[[87429,99527],[271,-426],[646,637],[511,-639],[442,128],[389,772],[463,-1650],[1445,281],[364,-835],[1596,-617]],[[97102,85086],[-921,-3388],[-477,-576],[-88,-1374],[-255,-45]],[[40316,46162],[-2142,2294],[442,3707]],[[43757,53404],[-557,-1027],[22,-651]],[[43222,51726],[-1255,-66],[-861,-3875]],[[63412,33519],[3325,2691],[-112,569],[-1881,469],[654,2069],[311,-415],[412,435],[-349,1800],[781,322]],[[73718,33142],[-2222,-6504]],[[71496,26638],[-815,523],[170,745],[-167,1040],[-566,506],[-270,1399],[-1364,2727],[-5073,-82]],[[81424,81498],[-2704,-2044],[-741,727],[-386,-293],[-724,839],[-742,-3]],[[77036,85751],[841,4102]],[[77877,89853],[3848,-1945]],[[86148,94190],[895,348],[676,-1327],[192,-1194],[1110,321]],[[89021,92338],[522,157],[672,-606]],[[59521,42501],[2847,-6151]],[[47412,45676],[653,1316]],[[48065,46992],[2065,-5742]],[[50130,41250],[-1421,-3752],[410,-850],[-813,263]],[[48306,36911],[-63,666],[-556,793],[281,1822],[-418,1366],[871,2075],[-1009,2043]],[[59932,50296],[414,-887],[152,-1864],[901,-891],[10,-1511]],[[61409,45143],[-157,-617],[-453,-223],[264,-299],[-201,-682],[-654,148],[-687,-969]],[[59521,42501],[-1556,227],[-505,-296],[-162,-1192],[-1830,69],[-883,-2127]],[[54585,39181],[146,1812],[-543,409],[407,1825],[-648,1267],[-347,2077],[436,360],[-404,533]],[[53632,47464],[1509,2154]],[[80305,47755],[-25,-27],[81,131],[-15,-53],[-41,-51]],[[82544,66931],[451,-1635]],[[86824,60023],[-922,-1405],[-191,-1158],[-412,-63],[-392,-960],[-747,-688],[-1173,-2418],[-653,-2033],[30,-1867],[-432,26],[-462,-1118],[-196,121],[213,113],[-135,475],[-692,-123],[-1334,-2158]],[[79283,48580],[714,2507],[-790,2262]],[[79982,65829],[2562,1102]],[[36719,61621],[2102,2534]],[[38821,64155],[618,210],[49,-1264],[1279,-2994],[2066,-2172],[1837,-1411],[717,874]],[[45387,57398],[183,-1193]],[[45570,56205],[-345,-1266],[-231,219],[-1237,-1754]],[[43757,53404],[-3693,-1816],[-1448,575]],[[38616,52163],[-3191,1149]],[[97102,85086],[-332,-503],[-290,241],[-857,2072],[-529,337]],[[93049,92277],[-184,1839],[405,1629],[574,611],[-288,822]],[[93556,97178],[2372,-856],[803,-716],[2465,-95],[672,-826],[131,-757],[-479,-1147],[-328,-2057],[-1426,-2618],[-664,-3020]],[[21044,71920],[1636,1854],[409,17],[2879,4240]],[[31082,79882],[517,-378],[501,-1193],[579,-2836]],[[77206,42196],[-1631,-1399],[-1180,1447],[-1596,335],[-431,873]],[[76805,51798],[103,-1692],[1629,8],[383,-1370],[363,-164]],[[79283,48580],[283,-976],[-450,-680],[210,-157]],[[79326,46767],[-519,-281],[-1601,-4290]],[[65355,60217],[-191,-1792],[270,-2886],[870,-2191]],[[66304,53348],[-1568,396],[-320,-1770],[-158,110]],[[64258,52084],[-1260,1194],[-739,-681],[-1129,348],[230,504],[-200,366]],[[61498,58619],[-1382,429],[-135,-333]],[[17991,78309],[-1589,-279],[-394,-768],[-1566,172],[-1342,-1626]],[[13100,75808],[-3673,7496]],[[9427,83304],[1354,3233],[491,323],[285,-330],[45,1478],[859,906],[453,1289],[446,2724],[-269,357],[431,1050],[-139,1348],[970,650],[298,904],[794,691],[183,102],[444,-1761],[313,-213],[409,-1686],[501,-819],[165,-1351],[872,-1766],[-904,-566],[67,-424],[346,206],[160,-569],[780,684],[102,-503],[469,-12],[90,-551],[891,944],[426,1113],[1207,-170],[448,652],[594,-2]],[[23008,91235],[-1721,-5698],[-1836,-3035],[-716,-1740],[-121,-1288],[-623,-1165]],[[86125,79568],[-1592,3888],[-1935,-535],[-364,1204],[-161,-115],[-279,1775],[889,1005],[162,705]],[[77819,73241],[1031,-118],[1151,-2518],[-16,-4659]],[[46692,72300],[1,-4508],[-964,-2044]],[[45729,65748],[-2427,-404],[-1148,1206]],[[42154,66550],[208,438],[-241,1020],[546,1026],[-186,748],[841,2370],[844,353],[-162,35],[276,491],[793,-570],[229,-623],[1390,462]],[[31936,54408],[219,-1126],[301,-247],[-534,-1625],[-1636,-189]],[[71979,65371],[661,813],[-604,1341],[376,212],[-7,1463],[262,528],[-1519,-922],[-379,1070],[798,736],[-367,39],[-790,1608],[237,-365],[486,371]],[[71133,72265],[1304,902],[3690,7557]],[[76127,80724],[1751,-5771],[-59,-1712]],[[77819,73241],[-70,-2654],[273,-792],[-1534,-5572]],[[74820,66660],[-2841,-1289]],[[82845,87495],[-1120,413]],[[81725,87908],[35,1954],[353,1822],[1588,2075],[275,969],[-182,1173]],[[83794,95901],[643,58],[2008,2282]],[[86445,98241],[-364,-809],[157,-523],[-296,-1565],[206,-1154]],[[86148,94190],[-270,-2685],[163,-280],[-262,-909],[563,-241],[9,-848],[601,-716],[-324,-197]],[[86768,86029],[-3923,1466]],[[28016,57815],[-233,1298],[3274,2752],[193,-483],[96,429]],[[36223,57023],[-798,-3711]],[[35425,53312],[-261,-750]],[[35164,52562],[-250,608],[-3210,1828],[232,-590]],[[31936,54408],[-1709,2738],[-282,-1012]],[[12813,54577],[-1683,2364]],[[11130,56941],[189,1111],[-243,559],[48,3732],[715,2476]],[[11839,64819],[729,936],[1024,3308],[1333,635],[267,2107]],[[15192,71805],[1412,-2704]],[[45238,28993],[697,520],[346,-448],[331,226],[420,-530],[-40,-420],[2386,-1391]],[[36223,57023],[-2187,-1372],[-1320,2487],[-1370,3673]],[[31346,61811],[104,456]],[[36016,63005],[218,-1202],[485,-182]],[[36719,61621],[26,-1761],[-360,-458],[222,-624],[-384,-1755]],[[25968,78031],[466,1365],[100,1493],[-270,1917],[215,1531],[836,2086],[-27,834]],[[27288,87257],[1197,-1529],[899,-2183],[522,-252],[1176,-3411]],[[31082,79882],[-1134,-2640],[-3980,789]],[[30286,51221],[475,-2995],[1554,-2932]],[[49541,60183],[-400,974],[151,1326],[-235,3304],[370,690],[-259,1789],[670,3288]],[[49838,71554],[951,-1199],[834,-68],[642,-1035]],[[57583,62078],[291,-248],[-539,-1687]],[[56689,59154],[-991,-78],[-463,-1625]],[[55235,57451],[-1195,2659],[-1473,233],[-764,-1102],[-1570,968],[-692,-26]],[[28552,51124],[-62,-353],[238,-97],[1558,547]],[[30286,51221],[-1506,-3130],[3535,-2797]],[[32315,45294],[-2046,-3171],[-212,-861],[441,-1573]],[[30498,39689],[-851,643],[-772,1692],[-1524,708],[-614,1048],[-1961,901],[-3390,566],[-2655,3472]],[[7692,68998],[-5060,5101]],[[2632,74099],[404,1889],[1673,2696],[920,-63],[1678,1051]],[[7307,79672],[326,-871],[610,-427],[-127,-578],[455,-466],[54,-1210],[-543,-1037],[926,-450],[-739,-2509],[225,-895],[-252,-1873],[-550,-358]],[[87923,62685],[-1099,-2662]],[[86824,60023],[-828,1049],[-1089,10],[-264,1287],[-1290,1083],[-358,1844]],[[82995,65296],[1803,-669],[2317,357],[808,-2299]],[[92409,71994],[-362,-1037],[-721,-702],[135,-357],[-602,-247],[-225,-810],[-610,-314],[-413,-828]],[[89611,67699],[-1358,2593]],[[84925,80910],[1200,-1342]],[[86125,79568],[813,-1985],[2566,41]],[[59897,63707],[-2314,-1629]],[[57583,62078],[-840,2769]],[[57835,27254],[103,-1109],[457,-862],[554,459],[105,-1029],[509,58],[53,-1226],[816,-308],[351,-843],[18,-1949],[800,-1122],[-551,-1689],[11,-772],[-614,-509],[35,-355]],[[60482,15998],[-870,-912],[708,-2791],[-544,-1013]],[[56737,4563],[-488,-472],[-891,14],[-998,722],[105,2598],[-481,3482],[-928,1546],[-719,2063],[-775,-124]],[[51562,14392],[80,707],[-530,-10],[1512,2721],[2983,1390],[981,6196]],[[56737,4563],[-626,1637],[584,778],[-657,216],[24,613],[521,226],[-100,685],[1117,1189],[1402,245],[600,1541],[174,-411]],[[59776,11282],[2535,-2193],[437,134]],[[62748,9223],[246,-650],[-1072,-2168],[-2040,-6405],[-446,781],[-879,3380],[-1049,1273],[-771,-871]],[[76790,51852],[-653,-1335],[-1814,513],[-424,-509],[-335,419],[-353,-180],[-271,-1108],[218,-614],[-1431,1567],[147,-792],[-573,-1276],[124,-1192]],[[70086,48999],[-966,2078],[-361,-695],[-497,-72],[-795,1570],[-686,213],[-129,538]],[[66652,52631],[764,-383],[614,334],[549,980],[1592,-127],[1791,1328],[369,-560],[1492,3429]],[[65673,62070],[100,-144]],[[65773,61926],[-418,-1709]],[[65355,60217],[-1122,-2048],[-1652,-213],[-1083,663]],[[61498,58619],[-501,2483],[519,282]],[[12813,54577],[231,1676],[1398,672],[131,1005],[-271,1088],[628,963],[360,2671],[1483,3255],[-169,3194]],[[16604,69101],[2304,-4411]],[[18323,57172],[1142,-3915],[-724,-3179],[-10,-1359]],[[18731,48719],[-449,1495],[-1188,1361],[-1195,304],[-1268,-829],[-1041,2728],[-482,-118],[-295,917]],[[21060,71384],[-16,536]],[[21044,71920],[6127,-2707],[-498,2551],[6006,3711]],[[32679,75475],[-166,-789],[1168,1463],[1246,-1349],[-297,-1602]],[[88662,83866],[-1894,2163]],[[86768,86029],[-140,2285]],[[86628,88314],[778,-424],[2809,3999]],[[90215,91889],[682,721],[354,1013],[1410,-2834],[388,1488]],[[93049,92277],[711,-3536],[1334,-1508]],[[95094,87233],[-1057,-200],[-59,-704],[-27,-1788],[366,-2609],[848,-1103],[-369,-620]],[[89504,77624],[-242,879],[854,-554],[717,453],[-648,732],[-446,-103],[-818,1664],[-882,220],[-180,994],[154,795],[649,1162]],[[88662,83866],[618,722],[467,-224],[958,572],[567,-602],[1790,-520],[-57,-585],[249,186],[-177,-606],[550,-564],[-303,171],[352,-640],[-189,-328],[382,116],[296,-498],[-164,-372],[795,-485]],[[94796,80209],[661,63],[-96,-569]],[[95361,79703],[-252,-1923],[-548,-654],[-626,-1878]],[[49169,13944],[-923,2177],[-1286,5],[-417,888],[-808,114],[-779,1941]],[[47560,22290],[1818,4660]],[[49378,26950],[227,2661],[648,2082]],[[50253,31693],[1332,-1174]],[[51501,28105],[-672,-1344],[-238,-4422],[-2209,-1282],[450,-965],[337,-6148]],[[61500,71927],[-1648,-366],[192,-1111],[-604,-1840],[-771,-1249],[355,-101],[-412,28],[-1869,-2441]],[[56743,64847],[-2079,3695],[21,-609],[-1085,29],[-309,-430],[-1026,1720]],[[52265,69252],[358,476],[284,-1049],[1218,555],[-142,2345],[2609,1789],[136,1316],[798,56],[827,1610],[444,-211],[114,-825],[417,528],[492,-264],[514,499],[330,-351],[317,251]],[[60981,75977],[497,-1307],[116,-1898],[387,-149],[-49,-573]],[[76170,54018],[-2347,3614]],[[73823,57632],[864,2786],[133,6242]],[[74820,66660],[1668,-2437]],[[76488,64223],[3497,1723]],[[79985,65946],[-3,-117]],[[79982,65829],[-878,-8414]],[[71643,40835],[687,-10],[1802,-2003],[1045,383],[426,-1014]],[[75603,38191],[-73,-1116],[-937,-1486],[-875,-2447]],[[73718,33142],[-636,1817],[-542,-310],[-484,471],[-229,-751],[-639,3673]],[[78532,54542],[675,-1193]],[[79207,53349],[-1035,-2349],[-624,-77],[-743,875]],[[34630,73198],[152,-619],[711,452],[1109,1741],[974,-1040],[678,-1513],[-117,-1545]],[[38137,70674],[-986,-1165],[-474,-2687],[-976,-2088],[315,-1729]],[[36016,63005],[-2328,294],[-516,-772],[-1722,-260]],[[31450,62267],[-2158,2029],[-190,-243]],[[25700,67724],[1327,-245],[503,599],[759,-337],[2465,527],[2422,2275],[349,1074],[1105,1581]],[[66007,75955],[-2831,2063],[-108,585]],[[63068,78603],[562,467],[380,-301],[168,1846],[-310,2238],[984,-65],[454,1011],[18,778],[619,383],[229,1307],[1426,124],[989,879]],[[44956,19069],[-634,1857],[-1368,526],[-1142,3767]],[[44168,26470],[1719,-1245],[269,-1022],[1404,-1913]],[[47560,22290],[-1383,-1304],[-1221,-1917]],[[68724,85663],[-867,-422],[730,2029]],[[68587,87270],[547,1715],[-728,1047],[-15,1492],[1324,713],[728,1703],[1217,437],[681,-298],[552,532]],[[72893,94611],[1130,-2525],[-263,-763],[299,-1715],[-295,-473],[225,-2053]],[[28552,51124],[-3629,-726],[-352,1512],[-1798,2634],[-172,879],[-948,1036],[201,1688],[-263,824],[-337,-521],[-1144,1038],[-833,-1408],[-525,32],[-429,-940]],[[18323,57172],[-42,2127],[450,838],[-306,1449],[476,3090]],[[25646,60687],[2370,-2872]],[[28016,57815],[1929,-1681]],[[29945,56134],[-1393,-5010]],[[88253,70292],[-189,-558],[227,-1328],[-149,-527],[-591,480],[-821,-671],[-4054,-732]],[[82676,66956],[-222,6539],[-1030,8003]],[[81424,81498],[1601,1478],[288,-500],[447,121],[99,-844],[369,175],[697,-1018]],[[84925,80910],[652,-1916],[-28,-1177],[254,-245],[-296,-1497],[359,-1662],[2411,-3732],[-24,-389]],[[70086,48999],[401,-911],[765,-213],[173,-530]],[[71425,47345],[1497,-115],[-60,-2092],[-494,-1686]],[[72368,43452],[-725,-2617]],[[71643,40835],[-412,-252],[-43,-2541]],[[71188,38042],[-809,-1452],[-1939,2679],[-82,543],[-539,-1680],[-368,-165],[-898,3492]],[[66553,41459],[-2047,4066]],[[64506,45525],[5631,1855],[156,695],[-351,523],[144,401]],[[93935,75248],[-1526,-3254]],[[92409,71994],[-1232,2351],[-1342,1271],[-331,2008]],[[89504,77624],[1557,-194],[1614,-938],[603,-1159],[657,-85]],[[51501,28105],[-119,754],[165,-218],[153,505],[-274,298],[159,1075]],[[51585,30519],[605,410],[-366,1365],[808,252],[-37,2311],[365,568],[-26,1770],[419,63]],[[53353,37258],[213,-577],[697,417],[702,-445],[-450,1830],[70,698]],[[54585,39181],[0,1]],[[54585,39182],[1198,-1174],[397,208],[258,-693],[-37,-2048],[343,-1532],[533,-671],[-275,-1274]],[[57757,27710],[-1169,-2314]],[[56588,25396],[-495,335],[-136,1413],[-4337,462],[-119,499]],[[78532,54542],[-361,92],[-1366,-2836]],[[76805,51798],[-15,54]],[[76790,51852],[-620,2166]],[[76170,54018],[1325,2398],[617,-118],[992,1117]],[[79104,57415],[-572,-2873]],[[25646,60687],[-6745,3989]],[[18901,64676],[7,14]],[[18908,64690],[1216,3144],[936,3550]],[[21060,71384],[2232,-852],[1125,-2060],[1283,-748]],[[25700,67724],[3402,-3671]],[[29102,64053],[-3172,-1707],[-284,-1659]],[[56689,59154],[646,989]],[[57335,60143],[565,-1171],[2081,-257]],[[59981,58715],[371,-1099],[-261,-794],[141,-1839],[928,-1168]],[[61160,53815],[-1352,-630],[114,-1534],[252,-391],[-433,-770]],[[58036,53006],[-1347,6148]],[[58036,53006],[459,-630],[497,322],[532,-487],[-234,-979],[451,-742]],[[59741,50490],[191,-194]],[[59932,50296],[-3951,-2410],[-526,248],[-314,1484]],[[55141,49618],[-250,2098],[-995,3664]],[[53896,55380],[613,1573],[575,382]],[[55084,57335],[1382,-4208],[851,-128],[182,-736],[537,743]],[[62368,36350],[1142,-319],[-98,-2512]],[[63412,33519],[-1,-23]],[[63411,33496],[-332,-3865],[-467,-1133],[30,-712],[-4807,-532]],[[57835,27254],[-78,456]],[[57757,27710],[-1056,596],[461,1519],[-160,2173]],[[57002,31998],[319,-635],[662,630],[1718,5097],[2667,-740]],[[41152,47728],[2696,-3319],[-541,-1663],[70,-719],[-249,13],[-338,-1529],[-580,-697],[32,-803],[-499,-985],[790,-1825],[2546,-2483],[1054,-1612],[515,26]],[[46648,32132],[-407,-1509],[-1003,-1630]],[[45238,28993],[-645,-980],[-85,-1020],[-340,-523]],[[44168,26470],[-2356,-1251]],[[41812,25219],[-298,1242],[87,2086],[-415,1803],[-961,934],[-1190,-901],[-950,300],[-762,1827],[-1551,2248]],[[35772,34758],[269,1286],[242,121],[-9,993],[363,472],[52,1030],[2116,2409]],[[38805,41069],[270,1172],[1115,1574],[-79,1847],[205,500]],[[40316,46162],[539,1631],[251,-8]],[[41106,47785],[46,-57]],[[73989,87082],[297,-316],[633,258],[1168,-2122],[350,789],[599,60]],[[77036,85751],[-909,-5027]],[[76127,80724],[-5523,-4594],[-220,548],[-719,323],[-751,-405],[-554,388],[-2353,-1029]],[[66007,75955],[559,1071],[2358,2585],[-722,1961],[522,4091]],[[68724,85663],[830,-240],[-55,-844],[709,743],[651,125],[134,-383],[728,606],[-143,1056],[364,-567],[2047,923]],[[65673,62070],[-2928,1627],[-663,-353],[-178,-719],[-766,-277],[378,-964]],[[61516,61384],[-1619,2323]],[[59897,63707],[492,3014],[246,-563],[144,69],[-128,1271],[849,4429]],[[61500,71927],[432,123]],[[61932,72050],[22,-669],[807,-373],[54,-603],[2027,1250],[1165,4300]],[[66007,75955],[1505,-5133]],[[67512,70822],[-1839,-8752]]]}