{"type":"Topology","objects":{"data":{"geometries":[{"properties":{"cd_mun_ibge":"1600055"},"type":"MultiPolygon","arcs":[[[-25,-6,-10,-4]]],"id":0},{"properties":{"cd_mun_ibge":"1600105"},"type":"MultiPolygon","arcs":[[[-5,0,-18,-8,-41,-35]],[[1]],[[2]]],"id":1},{"properties":{"cd_mun_ibge":"1600154"},"type":"MultiPolygon","arcs":[[[-14,-26,3,-9,-30,-21]]],"id":2},{"properties":{"cd_mun_ibge":"1600204"},"type":"MultiPolygon","arcs":[[[4,-34,5,-24,6]]],"id":3},{"properties":{"cd_mun_ibge":"1600212"},"type":"MultiPolygon","arcs":[[[-11,-42,7,-17]]],"id":4},{"properties":{"cd_mun_ibge":"1600238"},"type":"MultiPolygon","arcs":[[[8,9,-33,-43,10,-16,-31]]],"id":5},{"properties":{"cd_mun_ibge":"1600253"},"type":"MultiPolygon","arcs":[[[11,-20]]],"id":6},{"properties":{"cd_mun_ibge":"1600279"},"type":"MultiPolygon","arcs":[[[-44,12,-27,13,-23]]],"id":7},{"properties":{"cd_mun_ibge":"1600303"},"type":"MultiPolygon","arcs":[[[14,-37,-32,15,16,17,18,19]]],"id":8},{"properties":{"cd_mun_ibge":"1600402"},"type":"MultiPolygon","arcs":[[[20,-29,-39,21,-45,22]]],"id":9},{"properties":{"cd_mun_ibge":"1600501"},"type":"MultiPolygon","arcs":[[[23,24,25,26,27]]],"id":10},{"properties":{"cd_mun_ibge":"1600535"},"type":"MultiPolygon","arcs":[[[-36,28,29,30,31]]],"id":11},{"properties":{"cd_mun_ibge":"1600550"},"type":"MultiPolygon","arcs":[[[-40,32,33,34]]],"id":12},{"properties":{"cd_mun_ibge":"1600600"},"type":"MultiPolygon","arcs":[[[35,36,37,38]]],"id":13},{"properties":{"cd_mun_ibge":"1600709"},"type":"MultiPolygon","arcs":[[[39,40,41,42]]],"id":14},{"properties":{"cd_mun_ibge":"1600808"},"type":"MultiPolygon","arcs":[[[43,44,45]]],"id":15}],"type":"GeometryCollection"}},"bbox":[-54.8762502,-1.2361764,-49.87654199860769,4.5043414],"transform":{"scale":[4.999758198974299e-05,5.740575205752058e-05],"translate":[-54.8762502,-1.2361764]},"arcs":[[[83850,58877],[42,-179],[776,-348],[786,-704],[422,-1453],[494,-589],[647,-451],[365,-791],[648,-800],[603,-410],[887,-258],[1517,264],[699,-131],[2478,90],[2671,-929],[2167,-1154],[472,-1588],[-53,-390],[528,-2256],[-142,-1924],[-413,-773],[53,-963]],[[89104,58297],[317,15],[440,-698],[432,-196],[-13,-661],[327,-443],[132,26],[256,-265],[196,-478],[-250,-459],[-751,-690],[-1171,-391],[-539,298],[-388,930],[-374,475],[-70,389],[-543,319],[340,1544],[716,104],[220,221],[723,-40]],[[87692,59551],[522,36],[266,-287],[231,-26],[380,-421],[-14,-416],[-714,-56],[-259,-225],[-298,36],[-185,-142],[-280,89],[-401,643],[-473,228],[663,564],[562,-23]],[[40168,56805],[1121,-771],[325,-61],[293,-454],[-123,-437],[599,-1009],[325,-133],[79,159],[818,-537],[204,163],[112,-212],[379,-181],[-61,-261],[162,14],[184,-353],[230,87],[617,-495],[324,-522],[310,135],[360,-342],[-72,-334],[180,-31],[-152,-264],[187,2],[231,-465],[473,-224],[-161,-332],[375,6],[20,-327],[239,-39],[-40,-230],[192,-240],[-251,-51],[-220,-302],[480,-409],[-311,-163],[232,-766],[140,-2],[-141,-452],[199,77],[56,-346],[288,-79],[-278,-287],[106,-267],[-102,81],[-163,-303],[191,61],[414,-469],[-311,-574],[-300,-113],[-11,-447],[-285,-316],[657,-101],[222,93],[75,-134],[-149,-224],[884,-399],[49,-121],[-131,11],[175,-186],[313,-122],[160,122],[-143,-331],[615,-131],[-224,-275],[236,-247],[-122,-173],[108,-267],[512,37],[80,-134],[388,-55],[0,-273],[287,-190],[-28,-183],[432,-551],[895,-168],[348,227],[305,-42],[-227,-637],[251,-62],[98,-374],[575,168],[71,-314],[334,168],[712,-368],[594,342],[564,-174],[501,31],[113,-248],[-120,-476],[-312,-116],[-160,-279],[-14,-521],[193,-182],[-373,-284],[657,-417],[256,79],[120,219],[858,-473],[365,174],[507,1287],[1484,486],[356,342],[248,-11]],[[83850,58877],[-504,-152],[-489,209],[-142,-422],[-197,-85],[-736,897],[-259,111],[-305,17],[60,-110],[-372,-64],[60,-204],[-434,-275],[-217,46],[199,254],[-343,-118],[98,254],[-297,72],[-29,-133],[-706,-165],[-176,313],[-294,-177],[-209,220],[-276,-122],[-27,156],[-411,-261],[-38,-209],[-742,364],[-194,-67],[-534,274],[-504,12],[-165,-262],[-485,0],[-282,-232],[-543,26],[-797,-552],[-526,82],[-404,-519],[-954,-505],[-277,-15],[-746,-633],[-619,-209],[-391,54],[-327,390],[-717,357],[-371,-187],[-214,-405],[-584,-67],[-421,229],[-899,1299],[-620,-1147],[256,-495],[-1107,-482],[-5,-411],[-286,-269],[323,-608],[-84,-732]],[[57715,44471],[-481,163],[150,739],[-300,134],[-228,580],[-180,82],[188,150],[-222,463],[406,422],[-289,175],[437,384],[-194,99],[-1,206],[-185,-6],[75,678],[-157,240],[408,1048],[-56,261],[-160,-42],[-312,472],[121,225],[-206,76],[-69,314],[148,453],[-159,489],[169,381],[-61,327],[-159,35],[152,214],[-124,169],[90,557],[-101,172],[-91,-59],[220,306],[107,-48],[67,191],[195,43],[2,269],[352,369],[-159,734],[208,210],[-128,97],[218,209],[135,505],[-174,143],[-48,739],[-332,383],[-113,741],[-107,3],[32,752],[-138,322],[126,389],[-593,730],[573,1171],[-79,1390],[454,95],[69,163]],[[74512,89712],[571,-121],[526,64],[306,-448],[-210,-2549],[8,-1856],[180,-1261],[-185,-1378],[-365,-520],[455,-1749],[1074,-2378],[-231,-1388],[602,-844],[-138,-595],[447,-703],[301,-1289],[666,-956],[-74,-783],[184,-339],[730,-503],[63,-557],[414,-270],[44,-926],[460,-430],[9,-319],[225,-86],[8,-852],[476,-1111],[-69,-259],[655,-248],[477,-786],[33,-774],[443,-975],[34,-574],[445,-563],[-37,-757],[757,-927],[54,-825]],[[89069,42217],[600,78],[574,-426],[1088,125],[599,787],[-518,923],[180,459],[381,332],[1274,293],[1644,-103],[172,-327],[-20,-526],[-446,-861],[190,-389],[337,-74],[1061,222]],[[61863,38850],[-274,32],[-77,-360],[-286,11]],[[61226,38533],[-15,478],[-381,240],[-102,376],[-368,-215],[-112,215],[-416,25],[0,267],[-152,-192],[-188,25],[-276,436],[-211,-113],[142,-265],[-335,-147],[-304,312],[-542,-116],[-164,79],[183,238],[-128,135],[92,900],[-287,126],[-26,160],[302,200],[-286,58],[112,282],[-326,39],[-88,157],[124,410],[383,255],[-305,83],[41,459],[-136,182],[412,536],[23,232],[-177,81]],[[79668,38838],[-624,-908],[264,-706],[-637,-215],[-176,-1033],[709,-444],[588,-96]],[[89332,32393],[-534,-405],[-315,-508],[-478,-1558],[-556,-809],[-398,-1092],[-645,-1144],[-803,-982],[-970,-725]],[[48417,7071],[-1228,-494],[-487,41],[-12,344],[498,479],[-93,415],[489,1084],[-374,1035],[77,644],[-260,718],[-299,213],[-917,-95],[-544,-284],[-540,174],[-555,710],[9,332],[-563,500],[89,335],[-233,312],[470,620],[-388,636],[334,822],[-139,624],[-1028,480],[-284,251],[-121,429],[-1513,895],[-309,627],[-505,129],[-544,-212],[-575,220],[-766,1728],[-125,1166],[-754,625],[77,616],[-363,168],[-457,917],[-843,661],[-242,635],[230,531],[-341,423],[-448,238],[-43,451],[-777,969],[308,371],[-156,745],[252,600],[-293,236],[203,350],[-62,151],[287,334],[-129,378],[92,482],[595,748],[284,871],[-357,233],[-395,-19],[-271,571],[-544,321],[-113,364],[-334,87],[-149,215],[-1208,683],[-549,594],[-2184,1225],[13,918],[-354,301],[-28,357],[152,243],[-670,760],[-74,874],[303,414],[645,-64],[245,187],[76,364],[-427,409],[-182,696],[-245,-184],[-699,125],[-1030,-481],[-276,12],[-146,280],[460,572],[-144,214],[-524,195],[-118,380],[585,275],[-104,322],[-418,165],[-225,-227],[-490,363],[-1115,-382],[-242,231],[391,251],[61,496],[-128,266],[-218,-64],[-256,-557],[-198,9],[-141,231],[-279,-137],[-200,105],[-40,218],[353,378],[-428,237],[-137,-61],[173,-399],[-319,-167],[-20,-165],[-455,144],[-147,241],[-112,-217],[-131,17],[-588,464],[-375,-169],[305,-206],[9,-178],[-866,1],[121,252],[-827,-67],[178,574],[-330,138],[-55,205],[-431,31],[-99,-255],[-316,-118],[191,587],[-507,-21],[-36,208],[-224,78],[-181,-211],[-200,118],[-227,-57],[-120,237],[79,268],[-190,259],[-371,-49],[60,-296],[-308,110],[-319,-221],[-264,131],[-206,-106],[29,-161],[-170,46],[38,662],[-284,422],[-315,12],[-60,121],[311,566],[-331,-160],[-196,171],[105,281],[-208,169],[74,118],[-252,80],[-26,211],[-505,59],[-266,245],[-177,-577],[-237,420],[-509,284],[-35,185],[-286,3],[-98,134],[-287,-64],[-62,486],[-512,12],[215,263],[-563,97],[9,203],[-707,-7],[-140,234],[-521,167],[-194,-323],[-330,255],[-415,12],[-1678,-212],[-569,383],[-682,127],[4,120],[-203,-118],[-417,120],[-479,-68],[-356,-210],[-551,-51],[-586,175],[-885,1],[-193,384],[150,138],[-75,148],[333,309],[-384,331],[2,431],[-209,292],[-161,836],[343,525],[-354,136],[63,310],[-439,192],[-257,324],[-181,644],[134,236],[-154,426],[183,123],[-31,541],[495,492],[-34,122],[306,117],[96,373],[-966,1116],[170,412],[-86,137],[259,259],[-266,504],[-1171,1066],[-203,415],[105,161],[312,-142],[331,108],[-36,-151],[230,-70],[259,12],[40,169],[392,-5],[-97,226],[504,69],[39,173],[-163,45],[43,212],[164,46],[183,-212],[416,148],[185,-151],[688,-17],[93,-260],[148,-5],[-377,-255],[350,-364],[-667,-135],[184,-170],[-154,-198],[198,-320],[323,-45],[-30,-178],[588,86],[-91,-275],[149,-39],[-30,-185],[387,-99],[552,-1],[42,294],[240,-24],[274,-267],[604,135],[410,-81],[226,-608],[238,-185],[-706,-174],[516,-312],[477,-1],[43,-307],[412,-126],[-7,-255],[564,-153],[508,187],[256,-282],[668,491],[262,7],[201,-417],[-168,-151],[22,-332],[446,-105],[79,-268],[312,95],[1042,-274],[256,210],[935,91],[408,326],[112,-473],[292,8],[15,-226],[298,-173],[-93,-127],[251,-103],[386,121],[359,-218],[262,490],[193,-57],[27,651],[344,406],[968,-255],[575,512],[258,-83],[244,220],[373,-72],[14,263],[202,115],[-174,173],[88,630],[311,103],[263,-105],[-37,-186],[492,11],[62,628],[350,-76],[323,150],[68,217],[732,262],[-22,211],[553,144],[46,156],[273,97],[325,-108],[263,79],[-19,-146],[-278,-100],[631,-155],[-485,-552],[-33,-162],[238,-139],[262,189],[344,-125],[85,112],[55,-318],[575,178],[177,-138],[-161,-183],[470,-173],[94,126],[415,-175],[147,158],[252,-15],[246,-304],[276,129],[372,-236],[221,183],[552,-185],[624,84],[297,-175],[378,132],[98,413],[289,-11],[-20,273],[211,-210],[256,22],[178,300],[575,140],[30,160],[261,121],[-37,319],[378,85],[115,-276],[323,103],[329,-625],[829,-224],[-25,-353],[612,-63],[104,-127],[-200,-285],[-448,-60],[45,-215],[-344,-236],[-59,-389]],[[36348,55443],[132,-572],[505,-680],[55,-446],[587,-511],[-347,-627],[156,-373],[315,-153],[349,-753],[-353,-743],[-106,-714],[346,-918],[497,-344],[1115,33],[483,-276],[177,-350],[-119,-1372],[-421,-915],[-490,-544],[-311,-915],[39,-600],[-499,-91],[-229,-451],[-152,-584],[172,-1225],[77,-157],[456,-117],[860,-551],[55,-642],[348,-476],[-73,-500],[221,-501],[408,-269],[443,95],[-1,-462],[-253,-569],[271,-383],[685,180],[817,-527],[-183,-449],[87,-106]],[[84633,25170],[-617,-515],[-1726,-1014],[-3183,-781],[-503,-234],[-660,-440],[-353,-592],[-409,-247],[-967,-1141],[-1054,-371]],[[76563,28909],[382,89],[-78,456],[375,45],[249,684],[531,114],[698,-113],[288,275],[-1231,615],[-210,335],[216,904],[-166,474],[433,875],[1215,555],[175,277],[-223,486],[311,257],[269,-232],[-5,431]],[[79792,35436],[1372,493],[456,300],[394,-341],[1427,-51],[753,460],[166,454],[208,92],[75,-87],[86,109],[72,-233],[157,91],[259,-188],[53,542],[245,-87],[128,-267],[-101,-107],[127,-53],[310,193],[-35,232],[418,-294],[470,45],[621,654],[44,275],[459,-1],[262,-149],[290,246],[179,-77],[95,369],[354,219],[372,-445],[288,-21],[-25,-173],[260,50],[213,252],[500,-263],[196,300],[444,9],[2422,1849],[-138,147],[264,652],[622,110],[209,500],[538,145],[390,309],[494,1034]],[[96185,42730],[903,-3],[2409,413]],[[99497,43140],[81,-849],[290,-392],[-134,-2708],[-752,-504],[-587,-612],[-646,-175],[-269,-576],[300,-337],[-18,-213],[-638,-280],[-1542,-1598],[-1120,-302],[-255,82],[-1085,-197],[-217,-226],[104,-590],[-2273,-455],[-1404,-815]],[[89332,32393],[-746,765],[198,404],[-316,301],[-72,386],[-560,19],[1,123],[-406,119],[125,185],[-352,7],[-71,123],[-226,-141],[-27,160],[-80,-100],[-576,209],[-147,-177],[92,-269],[-232,-178],[-29,148],[-411,154],[-316,-76],[-98,-716],[136,-119],[-26,-154],[-182,-46],[15,-959],[-332,-182],[-152,-262],[99,-132],[-184,-130],[-381,649],[-543,-390],[-253,602],[-237,56],[-73,-139],[-381,103],[-105,270],[-398,212],[114,84],[-214,344],[-636,456],[-370,527],[-455,64],[-816,-1405],[-377,200],[-285,-219],[-422,-36],[498,-592],[271,-1214],[237,-83],[156,207],[409,54],[433,-203],[-49,-170],[520,-99],[407,-505],[430,401],[221,-24],[150,-615],[203,-1],[-114,-140],[220,-484],[290,35],[40,-280],[236,-15],[-17,-229],[186,92],[-31,-216],[268,-1],[-210,-319],[288,-62],[74,104],[96,-90],[-138,-93],[176,56],[-9,-132],[-624,-398],[605,-56],[106,-177],[-133,-212],[125,-24],[-129,-310],[-371,56],[-114,-114],[93,-109],[-237,-160],[155,8],[93,-385],[1198,-1564]],[[42467,35885],[205,-162],[414,208],[1217,105],[-10,-706],[590,-304],[269,-261],[78,-332],[714,-8],[206,-263],[446,-70],[271,-410],[583,-367],[115,-289],[-171,-205],[501,-280],[313,-897],[552,-184],[472,-363],[-42,-667],[420,-208],[42,-238],[193,-8],[-54,-290],[201,-288],[574,-330]],[[73367,19496],[-539,-464],[-1349,-1899],[-411,-194],[-320,-362],[-309,-592],[-161,-863],[-1164,-1061],[-235,-773],[-506,-694],[-2755,-2390],[-1760,-2528]],[[58768,6374],[-399,486],[377,562],[-152,362],[153,245],[-86,94],[169,21],[-190,140],[79,70],[-124,130],[-70,-93],[-102,137],[-272,-4],[-323,1003],[-523,131],[-138,-106],[-218,401],[-320,146],[24,124],[-254,164],[81,379],[-138,83],[217,155],[-143,492],[-198,217],[-463,31],[264,234],[55,336],[-185,30],[140,126],[-209,127],[489,600],[-499,649],[37,1903],[-337,63],[-564,695],[-1371,554],[-1782,83],[-983,947],[-45,470],[-287,486],[-1213,467],[-1184,158],[-532,-133],[-658,-594],[-125,133],[-334,-29],[-81,465],[291,66],[-280,287],[275,-16],[222,173],[57,801],[160,57],[-106,299],[442,91],[-45,298],[-166,76],[185,135],[7,215],[-225,123],[254,130],[-272,161],[278,465],[-159,245],[190,323],[-184,406],[247,119],[-13,480],[200,274],[-248,538],[324,-20],[-318,316],[344,664],[-181,79],[-267,623],[-513,449],[-54,255],[-534,334],[79,211],[-280,47],[29,555],[-208,422],[-246,89],[44,268],[-243,175],[-134,429],[-430,23],[-115,214],[95,274],[-567,314],[-260,462],[-356,1241],[358,1521],[-41,498],[-1339,706],[-210,196],[29,280]],[[74512,89712],[-960,-4344],[326,-1459],[-181,-3056],[192,-97],[147,-1852],[-357,-1175],[-645,-192],[103,-207],[-211,-189],[-260,342],[65,-168],[-287,-223],[176,-177],[-126,-146],[145,-126],[-42,-231],[357,121],[-16,-122],[-532,-540],[-680,59],[60,-456],[-169,-290],[-270,-185],[-261,166],[-57,-271],[-685,-191],[-389,-369],[205,-210],[-392,148],[-230,-109],[54,-186],[129,31],[-213,-560],[-438,-598],[-357,-169],[323,-394],[-304,-197],[70,-323],[-351,-266],[-242,38],[-103,-145],[224,-89],[-328,-70],[-121,-260],[-895,-257],[191,-448],[-140,-154],[96,-148],[-205,-44],[-14,-256],[-559,-743],[-30,-336],[-430,-258],[-82,-207],[-344,-114],[-34,-314],[-537,-336],[-474,-694],[-25,-131],[344,-265],[-87,-417],[-836,-353],[32,-461],[-251,-489],[-499,-325],[-190,-314],[-361,-154],[-81,-362],[-342,-390],[-240,-43],[-302,174],[-183,-218],[-304,-63],[-508,408],[-328,-31],[229,-483],[-294,-304],[-418,-147],[-172,294],[-382,-19],[-243,350],[-141,-107],[-317,148],[-155,524],[-535,129],[-218,-183],[-151,269],[162,167],[-417,108]],[[57211,63978],[-581,27],[-127,-633],[-173,-180],[-638,319],[-74,-187],[-355,36],[-121,-130],[150,-154],[-252,-172],[100,-360],[-276,-425],[-371,-171],[9,-295],[-178,-91],[-315,89],[-170,-211],[86,-219],[-195,16],[-77,-312],[-752,48],[-349,-392],[48,-669],[297,-26],[220,-284],[-435,136],[-203,-424],[-330,-153],[-1315,-77],[-252,-272],[-163,28],[-191,-391],[-987,-548],[98,-1001],[-600,258],[-509,-171],[-642,110],[-752,-461],[-357,-95],[-115,211],[-675,-124],[-37,-193],[-328,109],[-703,715],[-230,-108],[-226,211],[-291,-50],[33,268],[-686,-114],[-273,176],[-566,-89],[-59,175],[-729,-111],[-323,229],[-469,-110],[148,-460],[-167,-269],[-439,62],[-176,-264]],[[40168,56805],[-431,122],[-286,-267],[-98,-136],[164,-802],[-415,-365],[-156,148],[-353,-87],[-955,120],[-283,459],[-338,45],[-449,-157],[-220,-442]],[[36348,55443],[-291,-29],[-349,527],[-390,94],[-116,461],[-336,208],[-123,1428],[-2155,872],[-606,506],[27,246]],[[32009,59756],[275,-83],[292,380],[499,-185],[276,181],[2134,261],[561,-114],[422,-508],[1101,-206],[204,-180],[873,157],[186,306],[600,-112],[382,553],[-41,322],[265,45],[59,338],[353,64],[-95,303],[400,-4],[-71,181],[808,146],[454,315],[115,-55],[1123,491],[136,272],[990,263],[65,509],[270,284],[-44,237],[210,212],[101,-69],[406,196],[-231,186],[68,198],[466,27],[151,316],[717,449],[51,195],[-238,333],[239,207],[249,-61],[185,425],[-87,280],[-362,209],[155,204],[-260,302],[241,244],[280,-40],[185,553],[816,1199],[118,730],[1031,1690],[326,165],[289,-56],[277,329],[-361,194],[35,321],[238,127],[383,1095],[726,1051],[-387,368],[145,386],[-293,124],[96,164],[331,14],[-186,137],[191,449],[599,38],[-28,469],[204,461],[642,463],[241,-58],[79,-200],[194,31],[901,1021],[57,356],[254,197],[1314,2109],[273,209],[137,423],[301,223],[-10,262],[281,89],[790,1259],[634,614],[-107,269],[392,1092],[331,119],[18,139],[686,49],[118,361],[-210,419],[141,222],[458,57],[-121,280],[328,-116],[248,151],[367,525],[1141,962],[329,578],[62,873],[683,547],[1419,573],[327,283],[428,1225],[136,1273],[-810,1530],[-153,1184],[152,1293],[694,513],[-112,515],[250,347],[2851,-1170],[1833,-1258],[2217,-1998],[1588,-2180],[567,-1990],[-73,-1592],[569,-99]],[[66142,25317],[-149,-11],[53,215],[-333,245],[-362,41],[-315,467],[-83,-93],[-356,317],[-524,176],[-422,429],[89,187],[-179,90],[155,-12],[198,249],[-250,350],[82,240],[-155,248],[-408,216],[-320,-161],[-538,102],[-402,281],[-227,442],[-356,-21],[-6,98],[-488,-120],[-98,-158],[-304,58],[-32,-127],[-627,281],[-246,-132],[-183,136],[-870,-35],[-53,212],[-1119,353],[-430,-164],[-503,355],[-958,322],[-1185,-693],[-718,-193],[-31,-270],[-643,-695],[-11,-578],[-157,-92],[-766,73],[-321,501],[-374,-322],[-171,136],[-258,-36],[-33,306],[-178,132],[207,528],[-218,-122]],[[50566,29068],[-31,161],[552,366],[254,648],[358,70],[414,315],[227,635],[361,422],[342,-21],[114,158],[270,-100],[403,440],[110,426],[215,-59],[67,139],[234,-140],[710,-56],[298,348],[-110,218],[152,252],[213,-17],[15,-215],[395,16],[1010,531],[1767,-30],[86,111],[763,-12],[134,155],[496,-678],[1057,339],[-5,-577],[217,-254],[438,330],[250,26],[122,-141],[-102,-629],[370,80],[324,518],[-98,155],[193,539],[266,117],[-51,353],[-318,344],[-61,339],[-370,137],[98,156],[-365,671],[-51,549],[-460,428],[-65,312],[-963,451],[156,430],[1066,659],[-170,367]],[[61863,38850],[588,-106],[-52,-286],[806,399],[304,-318],[187,125],[91,480],[247,-3],[240,-896],[509,-97],[826,-521],[-171,-643],[-446,-265],[205,-639],[192,-47],[123,265],[366,58],[876,473],[359,-95],[189,105],[520,-412],[-89,-202],[352,-888],[958,-765],[545,-219],[370,80],[266,287],[-114,251],[345,152],[300,-767],[-410,-257],[-232,-464],[274,-659],[1544,-413],[585,-382],[993,-271],[919,-471],[234,-451],[339,-163],[-120,-267],[169,-251],[438,-478],[377,-90],[151,-279],[619,-311],[-72,-240]],[[76563,28909],[-111,-14],[-144,344],[-645,-246],[-464,-552],[-5,-367],[-397,-673],[155,-366],[-209,-119],[-445,148],[-298,-186],[-272,181],[-327,-2],[-119,452],[71,691],[-172,271],[-559,305],[-311,723],[-300,-66],[-715,374],[-442,-141],[-941,391],[-614,-87],[-282,336],[-369,111],[-337,-72],[-249,-511],[-245,44],[-151,-193]],[[69747,44577],[-12032,-106]],[[57715,44471],[436,373],[-79,454],[376,567],[606,-173],[235,230],[-28,155],[281,29],[143,122],[-80,81],[213,32],[336,338],[26,398],[313,452],[308,102],[290,402],[453,231],[384,651],[319,13],[614,437],[527,1368],[-16,1007],[223,304],[246,953],[746,1222]],[[64587,54219],[1063,147],[621,-515],[614,-85],[1726,-1361],[-25,-366],[1293,754],[328,531],[-123,438],[1489,250],[-96,116],[122,194],[469,252],[744,-409],[506,273],[283,-111],[572,163],[1065,-816],[1579,414],[891,-530],[475,11],[444,-200],[869,-77],[904,140],[515,-362],[456,-43],[73,-138],[-204,-278],[115,-40],[357,254],[227,-105],[-70,360],[267,250],[-100,235],[297,-230],[314,70],[430,-263],[597,272],[1042,-10],[156,-614],[378,-552],[-40,-372],[629,-155],[317,-317],[-217,-628],[242,-437],[341,-100],[-65,-352],[292,-607],[-22,-1086],[243,-285],[-299,-135],[126,-270],[-426,-144],[-54,-166]],[[66142,25317],[471,326],[-39,421],[292,224],[104,429],[-228,448],[169,143],[-103,416],[206,768],[-187,85],[-38,268],[437,173],[97,512],[343,155]],[[67666,29685],[229,-60],[127,-306],[-311,-237],[539,-111],[355,-970],[615,-68],[347,-321],[306,-706],[372,-175],[376,-527],[130,-489],[963,-613],[-18,-153],[406,-334],[15,-226],[348,183],[517,3],[783,-347],[-75,-847],[-165,13],[137,-130],[-154,-207],[-159,65],[46,-159],[-281,-89],[25,-233],[-334,-114],[-252,-423],[386,8],[-80,-330],[338,11],[276,-130],[-17,-129],[1968,0],[25,-218],[-390,-47],[-432,-345],[534,-1089]],[[75161,19835],[-1130,-122],[-664,-217]],[[73367,19496],[-286,543],[-594,24],[-355,-128],[-355,221],[-584,78],[-242,-137],[-1427,300],[-98,254],[-584,284],[-305,821],[-788,255],[-27,176],[-801,220],[-78,569],[-554,504],[118,77],[-206,295],[67,155],[-99,136],[-74,-144],[-127,328],[153,106],[-112,478],[177,115],[-44,291]],[[69747,44577],[-69,867],[265,114],[-103,296],[324,230],[-6,346],[-193,-10],[-36,528],[-281,-70],[-111,117],[53,134],[-201,140],[67,248],[-349,276],[-16,284],[-460,113],[7,416],[155,12],[-183,598],[-203,161],[505,344],[64,374],[2261,918],[1168,-217],[427,-472],[532,-42],[179,-322],[258,124],[329,-99],[157,-394],[215,-118],[249,104],[115,-111],[871,-77],[705,301],[572,547],[261,-258],[-90,-415],[263,-133],[255,121],[159,-208],[502,60],[513,340],[469,-581],[390,-44],[493,181],[6088,-2116]],[[86317,47184],[2527,-4098],[297,-235],[64,-447],[-136,-187]],[[89069,42217],[-759,-529],[-247,-1329],[-1075,-670],[-226,95],[-33,403],[-314,373],[-582,-306],[-447,362],[-530,-112],[-181,-167],[255,-710],[-164,-207],[-445,-13],[-435,484],[-240,77],[-532,-315],[-594,32],[-892,-210],[-392,-486],[43,-563],[-842,-275],[-335,66],[-235,538],[-199,83]],[[79668,38838],[-1039,10],[-319,-198],[-428,-11],[-178,-169],[67,-313],[-255,-391],[-515,779],[158,181],[-369,63],[41,250],[-351,53],[-49,159],[-659,132],[-793,-266],[-474,384],[-599,69],[-1171,-1438],[-126,409],[-984,-13],[-252,286],[-93,-161],[-680,-57],[-198,-230],[46,-310],[-554,50],[-19,378],[-296,99],[-242,328],[57,924],[-1199,296],[-323,347],[247,302],[289,48],[213,628],[3,670],[206,125],[-180,809],[-184,134],[377,174],[93,209],[591,180],[-110,147],[330,673]],[[48417,7071],[1168,411],[268,-64],[265,222],[1759,-11],[944,-262],[331,-293],[556,-85],[538,-907],[504,-449],[1109,68],[397,-240],[276,322],[355,50],[165,208],[468,46],[482,340],[272,70],[494,-123]],[[58768,6374],[241,-182],[195,219],[56,-254],[215,194],[-13,-218],[187,112],[214,-217],[101,183],[865,-708],[-21,237],[254,-46],[179,406],[-220,124],[29,340],[297,-247],[102,38],[-97,178],[317,-123],[208,271],[222,-272],[246,125],[416,-85],[-102,170],[177,76],[164,-101],[-43,293],[-212,17],[413,167],[-459,98],[557,368],[602,139]],[[63858,7676],[-242,-2250],[188,-1824],[-284,-589],[-1560,-1345],[-614,-291],[-1564,-161],[-773,593],[-599,-651],[-201,176],[7,589],[-455,53],[-56,-855],[-995,29],[-462,-275],[338,-581],[-263,-294],[-771,144],[-222,171],[62,610],[-270,642],[-529,-45],[-537,325],[-971,-76],[-331,144],[-693,-40],[-553,220],[-640,0],[-504,929],[-840,330],[-537,-125],[251,724],[-109,754],[-393,544],[204,251],[493,132],[70,537],[-373,474],[-713,426]]]}