{"type":"Topology","objects":{"data":{"geometries":[{"properties":{"cd_mun_ibge":"1200013"},"type":"MultiPolygon","arcs":[[[-39,0,-23]]],"id":0},{"properties":{"cd_mun_ibge":"1200054"},"type":"MultiPolygon","arcs":[[[1,-45,-4]]],"id":1},{"properties":{"cd_mun_ibge":"1200104"},"type":"MultiPolygon","arcs":[[[2,3,-44,-29,-55,-10]]],"id":2},{"properties":{"cd_mun_ibge":"1200138"},"type":"MultiPolygon","arcs":[[[-30,-42,4,-62]]],"id":3},{"properties":{"cd_mun_ibge":"1200179"},"type":"MultiPolygon","arcs":[[[-22,5,-57,-28,-41]]],"id":4},{"properties":{"cd_mun_ibge":"1200203"},"type":"MultiPolygon","arcs":[[[-16,6,-52,-26,7,-33]]],"id":5},{"properties":{"cd_mun_ibge":"1200252"},"type":"MultiPolygon","arcs":[[[-59,8,9]]],"id":6},{"properties":{"cd_mun_ibge":"1200302"},"type":"MultiPolygon","arcs":[[[10,-18,-35,11,-13,-54]]],"id":7},{"properties":{"cd_mun_ibge":"1200328"},"type":"MultiPolygon","arcs":[[[-49,12,13,-20]]],"id":8},{"properties":{"cd_mun_ibge":"1200336"},"type":"MultiPolygon","arcs":[[[-32,14,15]]],"id":9},{"properties":{"cd_mun_ibge":"1200344"},"type":"MultiPolygon","arcs":[[[-47,16,-36,17,18]]],"id":10},{"properties":{"cd_mun_ibge":"1200351"},"type":"MultiPolygon","arcs":[[[-27,-50,19,20]]],"id":11},{"properties":{"cd_mun_ibge":"1200385"},"type":"MultiPolygon","arcs":[[[21,-40,22,23]]],"id":12},{"properties":{"cd_mun_ibge":"1200393"},"type":"MultiPolygon","arcs":[[[24,25,-51,26]]],"id":13},{"properties":{"cd_mun_ibge":"1200401"},"type":"MultiPolygon","arcs":[[[27,-56,28,-43,29,-61,-37]]],"id":14},{"properties":{"cd_mun_ibge":"1200427"},"type":"MultiPolygon","arcs":[[[30,31,32]]],"id":15},{"properties":{"cd_mun_ibge":"1200435"},"type":"MultiPolygon","arcs":[[[33,34,35]]],"id":16},{"properties":{"cd_mun_ibge":"1200450"},"type":"MultiPolygon","arcs":[[[36,-60,37,38,39,40]]],"id":17},{"properties":{"cd_mun_ibge":"1200500"},"type":"MultiPolygon","arcs":[[[41,42,43,44,45,46,47]]],"id":18},{"properties":{"cd_mun_ibge":"1200609"},"type":"MultiPolygon","arcs":[[[48,49,50,51,52,53]]],"id":19},{"properties":{"cd_mun_ibge":"1200708"},"type":"MultiPolygon","arcs":[[[54,55,56,57,58]]],"id":20},{"properties":{"cd_mun_ibge":"1200807"},"type":"MultiPolygon","arcs":[[[59,60,61,62]]],"id":21}],"type":"GeometryCollection"}},"bbox":[-73.9868097,-11.1455615,-66.62368255867436,-7.114109784648685],"transform":{"scale":[7.363200773333367e-05,4.0314920302716176e-05],"translate":[-73.9868097,-11.1455615]},"arcs":[[[93055,36454],[6944,-5654],[-158,-201],[119,-179],[-133,-188],[147,-154],[-156,-419],[-191,366],[-49,-150],[-114,104],[-76,-566],[-124,47],[30,-242],[-250,33],[-257,-308],[-71,131],[-29,-235],[-168,31],[-122,-371],[-299,-66],[-103,-538],[-251,-21],[-241,-388],[72,-141],[-68,-150],[-392,-324],[-26,-522],[-496,50],[18,-499],[-90,126],[-68,-307],[-37,239],[-18,-391],[-133,95],[37,-285],[-309,-189],[101,-429],[-177,104],[-293,-375],[-102,-756],[-77,-74],[-26,227],[-178,-234],[-15,174],[-91,-125],[100,-149],[-237,-194],[-68,117],[50,-276],[-105,-187],[166,-88],[-184,-206]],[[61974,5430],[-80,-291],[-315,39],[-17,-313],[-334,101],[5,-238],[-212,98],[-108,374],[-90,-196],[-187,196],[-248,-42],[-6,-336],[-93,-59],[-480,338],[-100,-217],[-67,195],[-222,-161],[28,-317],[-138,249],[-197,-190],[-337,117],[-131,-238],[-180,32],[-223,-289],[-31,184],[-208,-280],[-98,300],[-226,-248],[7,230],[-280,646],[-196,0],[63,246],[-328,-119],[-177,209],[-334,-192],[-266,245],[-104,-266],[-48,210],[-158,-116],[-370,263],[-278,-325],[-167,298],[-283,-162],[1,-195],[-105,7],[61,-109],[-229,-228],[-118,152],[-19,-310],[-141,140],[-27,-311],[-125,35],[-285,-418],[-142,168],[15,-200],[-366,-199],[-26,-182],[-363,218],[-30,-259],[-184,32],[13,-295],[-662,-655],[-37,-235],[-246,63],[-308,-370],[-581,189],[-897,-585],[-503,87],[-118,201],[-303,-17],[-129,299],[-706,215],[-205,1049],[-1003,1527],[-1235,-1585],[47,7280]],[[71140,3147],[-43,270],[-162,-226],[76,431],[-162,-184],[-158,204],[-103,-391],[-4,356],[-126,62],[52,194],[-225,-111],[106,-171],[-321,-136],[8,265],[-97,86],[-97,-233],[-16,237],[-95,-4],[-151,-305],[7,-286],[-325,187],[-6,-190],[114,44],[-42,-166],[-126,117],[-95,262],[-195,-397],[-151,222],[-62,-121],[-110,328],[-192,-185],[0,202],[-131,65],[57,293],[-191,56],[-276,-262],[45,-260],[-114,-77],[-42,211],[-84,-146],[-189,169],[60,240],[-184,-13],[-22,262],[-107,-94],[-60,236],[-144,-113],[-31,169],[-133,-279],[-140,469],[-89,-228],[-123,154],[-208,-281],[-137,250],[-112,-249],[-21,363],[-197,-200],[-22,162],[-172,-75],[96,187],[-158,-30],[51,251],[-146,-280],[-321,447],[-396,-261],[-236,459],[-93,-287],[-199,64],[30,243],[-313,-117],[9,-277],[-113,282],[-54,-157],[-238,38],[-284,315],[-39,-350],[-112,223],[-78,-286],[-57,364],[-152,5],[18,-202],[-191,175],[-57,-444],[-168,558],[-119,-33],[34,-261],[-110,387],[-144,-194],[-34,291],[-124,-10]],[[61974,5430],[455,2490],[-37,2336],[-419,464],[30,555],[-132,-278],[-476,-207],[-161,230],[-270,23],[0,-1212],[178,-1106],[-490,-1348],[-433,-635],[-189,397],[-344,-164],[-621,466],[-266,-446],[-102,101],[-28,564],[-224,221],[-608,-13],[-675,1153],[301,1003],[1157,252],[250,1032],[1370,1828],[548,1476],[41,1277]],[[78321,47199],[3296,-2725]],[[87183,15777],[-402,-348],[-175,-963],[-347,-447],[-115,-545],[-209,-307],[-222,237],[-446,-2626],[-240,105],[-133,-158],[-301,666],[-223,6],[-482,618],[-106,-82],[-135,326],[-352,16],[-147,249],[-373,-9],[-33,-178],[-215,156],[-257,-359],[-438,163],[-211,-335],[-344,369]],[[14756,91973],[4285,-2836],[8683,-1854]],[[8887,66229],[-83,124],[-75,-202],[-125,246],[-242,-126],[-92,226],[-63,-223],[-134,21],[24,345],[-260,674],[78,301],[-190,270],[-159,-139],[-389,438],[-305,46],[-116,399],[-144,-73],[-385,586],[39,166],[-204,336],[197,552],[-192,589],[140,377],[-894,1729],[105,2358],[-203,242],[-76,581],[-293,497]],[[76035,2604],[-238,-329],[-128,351],[-251,194],[-144,-348],[-592,-135],[-428,-911],[-279,-215],[-42,-363],[-2351,-848],[71,363],[-137,683],[-344,224],[-271,709],[81,240],[-62,240],[174,204],[-37,373],[83,111]],[[71140,3147],[160,166],[-73,507],[104,112],[102,-385],[130,280],[-132,210],[17,243],[122,-135],[396,253],[15,765],[-667,1021],[-661,681],[-27,883],[-657,2323]],[[47149,83175],[6249,-1309],[8294,-12932]],[[39512,32685],[-164,-125],[-246,254],[-206,-579],[-544,-630],[-718,-2253],[-515,-21],[-671,-642],[-266,79],[-253,533],[-491,-886],[-10906,0],[86,439],[256,271],[13,635],[-190,464],[72,456],[290,548],[-122,513],[26,514],[-136,243],[74,952]],[[34024,56095],[-45,-297],[-132,151],[-97,-181],[27,-182],[-101,106],[-27,-176],[-266,-61],[-120,-692],[-141,106],[-20,-314],[-205,-25],[-148,-370],[104,-132],[-37,-333],[-71,92],[-157,-275],[87,-179],[-87,-388],[-114,-52],[45,-264],[-76,26],[-72,-521],[138,-540],[-263,-392],[132,-288],[-105,-76],[117,-116],[-80,-37],[13,-324],[-146,-49],[183,-263],[-315,-369],[30,-298],[99,30],[-100,-620],[114,-287],[-193,-128],[-8,-270],[-67,191],[-104,-167],[53,-305],[-127,-246],[29,-214],[-164,-58],[45,-168],[-205,-78],[-22,-257],[-110,88],[43,-127],[-187,-189],[-44,84],[-80,-49],[64,-41],[-88,-134],[125,-139],[-79,-556],[-238,-281],[-4,-725],[-194,-316],[81,-55],[-103,-279],[147,-405],[-77,-680],[91,-248],[-199,-669],[-198,-24],[36,-198],[-146,-312],[-454,-306],[-12,-345],[-138,-176],[131,-407],[-216,-289],[36,-805],[-259,-662],[-143,-84],[4,-692],[-462,-358],[-205,-403],[7,-355],[-485,-453],[-125,-910],[-318,207],[-529,-68],[-229,-924],[-409,-318],[50,584],[-1028,-490],[-580,-846]],[[24901,33450],[-226,489],[-418,-76],[-217,341],[-555,363],[75,1671],[123,501],[-237,489],[95,693],[-214,-86],[-267,445],[70,1549],[-246,156],[-229,-250],[-283,544],[-11,324]],[[4021,83819],[-312,153],[-27,262],[-211,15],[-147,390],[-211,-46],[-586,522],[-31,-281],[-315,307],[-122,363],[25,397],[-551,284],[39,191],[-171,311],[155,215],[-75,260],[-510,205],[-7,263],[-207,207],[-357,938],[-295,-111],[-105,449],[39,536],[616,-61],[67,747],[144,195],[-115,381],[309,196],[-160,443],[-15,872],[-175,168],[-282,1200],[-76,-69],[60,321],[401,-224],[99,212],[26,-262],[369,-513],[65,243],[314,-225],[159,341],[20,559],[428,319],[381,-214],[106,190],[273,18],[134,-98],[-26,-330],[401,287],[384,776],[10,317],[-299,613],[106,631],[-165,251],[47,252],[-234,254],[-108,-98],[-167,644],[6,476],[-196,154],[30,394],[-277,169],[77,416],[-157,-13],[-1,304],[-112,114],[12250,-8026]],[[14756,91973],[230,-3021],[168,-38],[272,-1016],[917,-1442],[-591,-113],[-377,159],[-73,-390]],[[45849,17874],[58,9113]],[[55977,54274],[345,329],[1040,3951],[507,529],[900,2027],[425,12],[297,514],[292,94],[179,320],[58,781],[225,678],[-32,338],[547,1757],[54,977],[803,1615],[75,738]],[[61692,68934],[7102,-11107]],[[25925,56491],[460,-801],[-133,-832],[239,-269],[106,-646],[-14,-773],[-180,-661],[147,-997],[-280,-1827],[-226,-328],[18,-484],[321,-564],[-17,-383],[-131,-36],[-625,-2306],[-263,-271],[-550,-1862],[-301,128],[-536,-654],[-363,-731],[-181,-717],[-194,-9],[57,-338],[-288,-146],[-137,-375],[-493,-6]],[[22361,40603],[-194,336],[-433,50],[-281,407],[-265,-239],[-145,33],[-46,211],[-179,-342],[-283,213],[-75,-131],[-107,195],[-458,-288],[-192,525],[-220,106],[-39,-130],[-1,136],[-74,-195],[-83,330],[-146,-96],[24,193],[-567,78],[-133,254],[-227,5],[-149,-248],[-386,488],[-166,-166],[-59,268],[-175,-32],[-50,430],[-6736,5],[296,373],[25,849],[170,207],[286,-61],[324,954],[217,-14],[182,256],[-111,692],[206,237],[264,845],[170,242],[329,-241],[212,199],[-21,235],[194,-65],[158,742],[-221,-9],[-148,362],[900,785],[203,602],[71,712],[-63,1596],[-178,448],[236,655],[-404,99],[-156,975],[-242,640],[-162,-46],[-107,188],[-194,-171],[-361,267],[-146,1086],[-135,164],[49,323],[-248,118],[-248,464],[-28,852],[-196,299]],[[87183,15777],[-149,182],[-162,-213],[-251,119],[-161,629],[-749,47],[-485,920],[334,763],[64,454],[321,-154],[160,204],[120,543]],[[93195,29163],[331,-3323],[328,393],[3,-2839],[999,4],[1,-681]],[[94857,22717],[-183,-719],[-102,113],[-161,-257],[-92,66],[-131,-146],[47,-197],[-422,-340],[-267,180],[-366,-205],[-204,-420],[173,-213],[-157,16],[-60,-284],[-362,-272],[-229,-57],[-119,408],[-307,-8],[-84,214],[-559,-460],[-234,355],[-151,-165],[-365,120],[-89,-347],[170,-295],[-53,-319],[111,-442],[-252,-154],[-199,202],[-160,-433],[-103,391],[-261,-164],[-322,289],[-231,-467],[135,-249],[8,-603],[-224,-76],[-92,-474],[-399,-184],[-769,-900],[-314,-88],[-295,-356]],[[11639,58858],[-329,1668],[-308,235],[-67,282],[-174,-196],[-355,359],[-169,-267],[-275,-70],[-18,283],[-165,-15],[-79,291],[-206,48],[-187,446],[51,301],[-267,133],[-101,306],[-236,21],[96,2203],[102,185],[-65,1158]],[[8887,66229],[1392,2009],[1740,1370],[273,1052],[599,360],[303,670],[184,828],[467,120],[88,207],[124,-205],[60,174],[49,-101],[-43,287],[259,-65],[-47,117],[115,-14],[36,201],[358,135],[343,495],[-1,218],[109,-66],[51,302],[232,69],[425,658],[100,-662],[-141,-408],[66,-145],[50,196],[99,-106],[37,-535],[-103,-438],[531,89],[8,-226],[314,-517],[161,453],[705,-262],[542,943],[1059,-20],[668,-1170],[620,40],[714,-569],[219,27],[261,378],[224,-76],[508,296],[239,585],[156,28],[326,-1390]],[[24077,60641],[-587,-575],[-623,-930],[-785,-519],[-181,102],[-37,284],[-180,33],[-93,290],[-258,91],[-298,-317],[-110,197],[-331,-164],[-338,-374],[-962,295],[-884,-250],[-417,422],[-75,975],[-514,763],[-198,-29],[-158,403],[-106,-773],[-159,-295],[-318,-272],[-485,88],[-285,-333],[-258,162],[-68,-372],[-155,-160],[-611,37],[-174,-259],[-417,389],[-1447,-468],[-337,100],[-73,199],[-287,-135],[-229,-388]],[[83950,23496],[16,-137],[-320,-176],[197,-328],[-261,-565],[172,-530],[-204,-170],[-160,105],[-128,-344],[181,98],[-47,-169],[-1357,4],[-187,-658],[-536,-50],[-531,-875],[187,-525],[-217,-407]],[[65939,18865],[-242,0],[-30,-344],[-422,4],[-177,-338],[-345,-72],[-344,-533],[-33,-450],[-563,-395],[-448,-33],[-251,-327]],[[75630,39689],[-130,-1360],[-378,-616],[203,-399],[-35,-441],[279,-810],[-425,-3789],[151,384],[226,63],[167,397],[264,153],[12,293],[227,236],[1038,-293],[278,-664],[164,-49],[1557,-3413],[212,630],[499,122],[442,889],[202,183],[112,-103],[937,1144],[91,-188],[582,-17],[98,180],[727,127],[160,-407],[335,-298],[55,455],[-118,784],[154,548],[-53,392],[417,497]],[[4846,76569],[201,616],[-271,599],[-436,-96],[-155,151],[-33,558],[-170,517],[-130,-88],[-231,206],[-135,-238],[-1,225],[-231,171],[-211,1178],[-213,361],[146,791],[208,158],[17,-472],[573,-84],[286,770],[105,-32],[16,1573],[-195,220],[35,166]],[[4021,83819],[216,652],[1950,566],[1078,-1311],[548,495],[510,-29],[154,554],[112,-9],[268,494],[93,-107],[-191,-597],[495,-503],[-37,-483],[769,-371],[1032,1646],[1832,1412],[837,-235],[417,-333],[468,690],[730,-238]],[[15302,86112],[859,-326],[763,-946],[1168,756],[123,501],[31,-1666],[278,-462],[-272,-338],[308,64],[-62,-247],[-163,-49],[-40,-342],[108,-176],[-81,-435],[-197,40],[-54,-381],[-336,272],[-70,-525],[-265,55],[-408,-295],[192,-304],[-228,-211],[-145,217],[-65,-326],[-213,52],[-157,-481],[-196,-36],[-28,-190],[-117,157],[-406,-369],[-241,131],[-529,-496],[-259,105],[-558,-554],[-238,277],[-233,-126],[-254,207],[-486,-38],[-96,-215],[-344,-66],[-559,315],[321,1275],[-289,-247],[-189,66],[-130,-256],[-460,109],[-577,-422],[-326,-728],[-161,72],[-620,-1197],[-378,-248],[-304,307],[-479,-173],[-249,-480],[-16,-467],[-3129,-703]],[[45907,26987],[81,12443],[149,181],[37,-475],[155,114],[158,-297],[145,112],[-58,279],[-175,104],[33,588],[358,-168],[59,178],[-130,145],[17,275],[201,103],[35,325],[181,-107],[37,489],[-154,242],[25,361],[231,-178],[-99,409],[224,173],[11,420],[-201,29],[-212,-342],[-5,231],[-174,-252],[-110,272],[-36,-198],[-174,142],[-361,-440],[-102,130],[-5,-455],[-213,57],[-52,-456],[-90,155],[-134,-243],[-54,-552],[-82,148],[-130,-96],[21,-320],[-167,-350],[-39,182],[-504,-673],[-161,-14],[-206,-584],[-119,286],[-164,-41],[-121,-592],[40,-496],[-151,89],[28,-160],[-285,-176],[-92,-604],[-583,-108],[-33,-336],[-410,-205],[-734,-1873],[-405,-45],[-118,-279],[-27,133],[-403,-1159],[-15,-561],[-767,41],[-366,-303]],[[39512,32685],[-311,296],[150,920],[-169,701],[176,263],[130,990],[458,1429],[1205,1394],[77,1248],[659,701],[635,1460],[883,-1],[277,665],[486,161],[559,1090],[842,-130],[-110,1585],[141,165],[26,896],[750,1415],[602,1858],[392,781],[624,73],[681,2123],[512,888],[626,466],[3108,-247],[3056,399]],[[55977,54274],[323,-1632],[216,-272],[75,-1043],[144,-178],[12,-408],[225,-259],[-376,-964],[-207,-134],[-86,276],[-132,-72],[35,-224],[234,-116],[-58,-201],[-165,44],[50,-247],[-178,-182],[91,-118],[-51,-352],[-356,-88],[-38,-455],[-332,200],[-14,-304],[195,-180],[-218,101],[-38,-458],[-232,236],[-308,-41],[-48,210],[-192,-143],[62,-82],[-219,-212],[-47,-262],[-364,199],[-129,-502],[-260,-372],[-570,91],[-88,180],[-386,-288],[-155,188],[-205,-99],[-233,501],[-667,-330],[-481,-871],[-292,-122],[-63,-526],[-380,35],[48,-640],[-459,-760],[1711,-1035],[667,-854],[1626,-811],[-65,-371],[42,-187],[97,77],[-118,-271],[-22,171],[-293,-100],[-36,170],[-174,-201],[-3,-213],[-325,176],[-29,-201],[-129,124],[0,-210],[-145,181],[-152,-118],[-85,-470],[-115,158],[-185,-709],[-174,-12],[-199,-451],[79,-202],[-70,-408],[-241,15],[-280,-694],[60,-171],[-273,-216],[7,-251],[-210,-78],[-237,-596],[27,-208],[-211,-92],[-116,-672],[-344,-259],[-73,-1149],[-350,-450],[-634,-1613],[-468,-595],[-48,-493],[-238,-482],[-608,-334],[-394,-1073],[-329,-372],[-251,71],[-445,-932]],[[83950,23496],[-93,42],[137,316],[-129,123],[62,384],[-146,37],[62,333],[-117,87],[116,238],[-219,323],[128,817],[405,-156],[264,-336],[435,18],[922,166],[692,1337],[533,-527],[622,855],[74,326],[273,-89],[111,145],[157,547],[-92,704],[192,1048]],[[90468,38523],[2587,-2069]],[[93055,36454],[-144,-299],[-335,73],[-35,-179],[-203,-4],[-76,-302],[112,-135],[1288,-6133],[-467,-312]],[[93195,29163],[-1709,-1426],[-643,-861],[-655,12],[-1119,-856],[-181,-1625],[-758,-1789],[-83,-743],[-1267,-1147],[-200,168],[1,-285],[-170,-140],[-22,-562],[-160,-196],[-4,-442]],[[86225,19271],[-685,320],[-103,788],[-277,795],[-548,523],[-111,501],[-209,240],[-51,640],[-221,105],[-70,313]],[[78321,47199],[-359,-516],[-306,-63],[-232,-448],[-414,-280],[-425,108],[-720,-813],[956,-2930],[-12,-371],[-329,-870],[-192,-186],[-188,77],[-44,-217],[-139,91],[-287,-1092]],[[75630,39689],[-230,128],[-256,-288],[-244,103],[-214,-569],[-308,-119],[-52,-327],[-952,1228],[-232,30],[-89,813],[-347,-265],[-535,-1097],[-371,-2955],[97,-1764],[358,-2247],[-378,-1138],[-1453,-1866],[-1137,-2497],[-2067,-2522],[-1135,-2593],[-700,-436],[-1881,-1919],[-423,-966],[-295,-1494],[298,-552]],[[63084,16377],[-2255,-488]],[[60829,15889],[-340,501],[-34,606],[-132,321],[73,625],[-192,600],[-520,691],[-9,-176],[-332,-190],[84,-234],[-265,-42],[53,-237],[-103,33],[-219,-401],[60,-233],[-142,193],[-109,-130],[-73,210],[-76,-230],[-105,413],[-65,-656],[-123,141],[-174,-136],[51,-253],[-121,78],[-206,-253],[-173,197],[-213,-226],[4,-182],[-368,49],[-48,-367],[-251,-242],[120,-480],[-462,-99],[-3,-778],[-424,8],[-143,-540],[-189,206],[-137,-123],[-96,368],[-231,-439],[-106,316],[-126,-433],[-247,-344],[-119,143],[-141,-294],[-197,380],[-84,-99],[44,-215],[-157,38],[-526,-603],[55,-228],[-140,177],[-65,-250],[-197,60],[37,-438],[-149,4],[-169,-445],[-147,279],[-82,-185],[-195,224],[-3,-435],[-121,58],[-276,-484],[-147,211],[-48,-209],[-136,-7],[-37,-421],[-311,30],[-70,-306],[-171,416],[-437,-310],[-83,-408],[-183,172],[-48,349],[-22,-389],[-138,309],[-279,-90],[-96,-352],[-147,29],[-55,-175],[-59,302],[-133,73],[20,-317],[-317,106],[-20,-423],[-186,-30],[-35,282],[-246,-137],[-261,389],[-38,-363],[-167,258],[-104,-149],[-47,251],[-157,-78],[-27,298],[-85,-349],[-250,-231],[-237,257],[-87,-334],[-80,261],[-160,-54],[-103,184],[-13,198],[163,99],[-435,308],[-217,-79],[-105,-317],[-291,159],[-196,-207]],[[45804,10914],[45,6960]],[[45849,17874],[4818,-13],[216,2070],[291,747],[-112,489],[1233,2430],[1271,5068],[67,935],[-81,522],[155,960],[-89,668],[240,829],[596,1234],[66,1872],[357,796],[254,1139],[-53,440],[844,2226],[115,2035],[180,374],[405,-2],[460,1089],[-185,1147],[172,107],[201,-217],[1078,2707],[308,-162],[753,671],[334,752],[397,-17],[1360,843],[356,685],[612,606],[510,1160],[1575,169],[140,1100],[307,986],[329,340],[888,-335],[360,613],[47,616],[148,269],[646,218],[164,413],[352,226],[181,473],[532,273],[147,402]],[[68794,57827],[3724,-5833],[5803,-4795]],[[34024,56095],[-285,361],[-307,-101],[-373,567],[-896,-190],[7,933],[273,397],[336,1235],[417,389],[-33,747],[-148,211],[-65,525],[59,772],[-124,11],[-107,-288],[-122,163],[-291,-224],[-10,-404],[-128,340],[-182,-305],[105,-342],[-236,108],[-32,-267],[-128,68],[-144,-300],[-116,235],[-200,-38],[115,-442],[-267,-61],[34,-279],[-231,-17],[-113,211],[0,-580],[-132,5],[-43,-251],[-142,56],[22,-226],[-236,-77],[118,-225],[-256,-259],[18,-327],[-256,-410],[-36,256],[-125,-10],[14,-313],[-268,-93],[28,-230],[-215,184],[-113,-129],[-54,180],[-110,-122],[-52,288],[-114,-152],[-383,348],[-44,-133],[-82,223],[-153,-96],[-136,475],[-105,-150],[-562,398],[-195,-132],[-85,-339],[-405,-218],[-484,-843],[-244,-40],[-118,-336],[41,-341]],[[25925,56491],[-637,982],[-260,2896],[-951,272]],[[24077,60641],[-220,2577],[392,1117],[-367,871],[-44,2642],[-468,481],[549,2728],[-553,504]],[[23366,71561],[74,5049],[478,910],[130,1098],[454,731],[725,710],[599,1430],[320,314],[87,-104],[82,317],[656,762],[753,4505]],[[27724,87283],[19425,-4108]],[[47149,83175],[-397,-358],[-19,-355],[-431,-509],[97,-284],[-128,-70],[-54,-424],[-324,-42],[98,-474],[-270,4],[9,-447],[-234,-255],[-24,321],[-121,-3],[79,-358],[162,-82],[-174,-57],[138,-328],[-197,-236],[198,-306],[3,-486],[101,79],[61,-285],[201,-99],[182,154],[237,-813],[88,-507],[-145,-457],[8,-1345],[312,-1022],[-344,-934],[203,-558],[-275,-333],[-647,-1995],[116,-736],[-750,-1042],[55,-1370],[314,-707],[-673,-266],[192,-1143],[-523,-1153],[-209,-978],[-346,-42],[-220,-724],[-713,-153],[-292,-590],[-207,711],[-259,32],[-428,1087],[-308,-557],[71,-188],[-108,101],[-198,-307],[19,-415],[-61,190],[-214,-156],[70,-444],[-196,-37],[48,-176],[-205,-360],[-165,135],[119,-612],[-175,-175],[77,-210],[-195,194],[-50,-390],[-141,124],[-6,-165],[-236,-160],[45,-374],[-364,43],[126,-263],[-60,-350],[-136,435],[-110,-25],[-78,-335],[-59,300],[-178,-221],[-38,167],[-135,-278],[65,-151],[-220,70],[-47,-300],[-183,-124],[-178,250],[-148,-284],[0,-341],[-150,213],[-340,-372],[-57,-476],[-165,98],[-45,-482],[-195,228],[-193,-162],[59,301],[-130,-267],[-276,214],[10,-202],[-71,86],[-140,-439],[-81,255],[-83,-377],[-14,190],[-159,-348],[-50,184],[-136,-302],[-102,157],[-199,-486],[-182,-73],[39,328],[-122,-167],[-80,298],[-170,51],[-170,-269],[-123,325],[-37,-124],[-131,239],[-185,-111],[-4,151],[-169,-18],[-14,-241],[-158,-155]],[[69969,10071],[-244,-453],[-336,-6],[-47,-224],[-347,-244],[-942,148],[-33,661],[292,342],[125,468],[-2,896],[211,-27],[85,257],[171,709],[-173,531],[246,309],[90,524],[-372,182],[-571,-220],[-120,246],[-298,-317],[-682,78],[-196,-157],[-216,288],[-46,477],[-235,141],[-209,714],[-610,387],[-70,814],[389,1036],[148,810],[-38,424]],[[65939,18865],[5686,25],[88,495],[315,214],[22,591],[280,89],[262,548],[336,-18],[484,290],[208,546],[169,-166],[240,93],[119,470],[413,61],[107,671],[249,265],[-4,596],[236,239],[149,-220],[-182,-481],[51,-893],[254,-446],[293,-70],[-53,-969],[547,-108],[335,-512],[-50,-637],[-486,-385],[37,-151],[852,-351],[-37,-384],[187,-225],[439,362],[114,371],[548,95],[43,-128],[301,382],[286,-197],[484,298],[367,-116],[430,284],[298,-488],[100,97],[299,-233]],[[80755,18769],[-214,-595],[34,-201],[-134,-103],[362,-1621],[95,-1198],[166,-310],[34,-419],[423,-634],[-436,-217],[192,-1140]],[[81277,12331],[-420,-182],[-5,-277],[-586,-437],[-390,-760],[1,-647],[113,-201],[-140,-384],[44,-295],[-939,-1559],[-126,-441],[-186,-30],[-150,-1077],[-232,-238],[-182,-1110],[-530,-793],[-414,-89],[-324,-513],[-287,204],[-441,-341],[-48,-557]],[[76035,2604],[-141,95],[-21,884],[-145,307],[98,148],[-21,634],[-182,493],[60,74],[-121,47],[18,285],[116,64],[-108,209],[261,393],[-93,318],[78,605],[-315,440],[-15,341],[-427,243],[-271,-497],[-383,665],[-510,392],[-235,642],[99,255],[176,-215],[-13,235],[141,193],[-171,473],[171,37],[-8,193],[-264,79],[-725,1463],[-518,69],[92,876],[-469,21],[-191,-353],[-348,-123],[-11,-218],[-282,36],[-335,-716],[-331,288],[-362,-215],[77,-265],[-161,-226],[123,-612],[-252,-193],[-147,-397]],[[90468,38523],[-193,-753],[189,-963],[-155,-520],[54,-964],[-473,-1501],[-532,-559],[-168,-498],[-253,-275],[9,-1117],[-151,-899],[-283,49],[-173,-289]],[[88339,30234],[-470,505],[51,520],[-220,741],[-510,94],[-196,353],[18,366],[-167,-33],[-2,-470],[-229,-187],[118,-359],[-332,228],[-383,-183],[-428,729],[-343,-65],[39,482],[-150,282],[208,453],[-553,1181],[-685,-1055],[-25,503]],[[84080,34319],[-185,261],[56,248],[-305,-266],[-254,210],[8,187],[-112,-78],[-39,313],[-103,-349],[-148,504],[-415,212],[-108,155],[25,240],[-156,85],[26,408],[159,170],[-2449,2765],[221,825],[602,759],[164,619],[-117,640],[-177,150],[-228,617],[-43,580],[170,738],[-69,117],[271,254],[151,-347],[592,138]],[[81617,44474],[6251,-5167],[2600,-784]]]}