{"type":"Topology","objects":{"data":{"geometries":[{"properties":{"cd_mun_ibge":"2300101"},"type":"MultiPolygon","arcs":[[[-218,-205,-28]]],"id":0},{"properties":{"cd_mun_ibge":"2300150"},"type":"MultiPolygon","arcs":[[[-367,-90,-269,-19]]],"id":1},{"properties":{"cd_mun_ibge":"2300200"},"type":"MultiPolygon","arcs":[[[-4,-240,-195,-26,-64,0,-149]]],"id":2},{"properties":{"cd_mun_ibge":"2300309"},"type":"MultiPolygon","arcs":[[[-65,-452,-350,-111,-176,-385,-48,-12,-223,-320]]],"id":3},{"properties":{"cd_mun_ibge":"2300408"},"type":"MultiPolygon","arcs":[[[-11,-383,-6,-33,1,-297]]],"id":4},{"properties":{"cd_mun_ibge":"2300507"},"type":"MultiPolygon","arcs":[[[-444,-56,-236,-199,-203]]],"id":5},{"properties":{"cd_mun_ibge":"2300606"},"type":"MultiPolygon","arcs":[[[-70,-250,-13]]],"id":6},{"properties":{"cd_mun_ibge":"2300705"},"type":"MultiPolygon","arcs":[[[-462,2,-337,-126,-155,-227,-422]]],"id":7},{"properties":{"cd_mun_ibge":"2300754"},"type":"MultiPolygon","arcs":[[[-212,-393,-238,3,-148,4,-139]]],"id":8},{"properties":{"cd_mun_ibge":"2300804"},"type":"MultiPolygon","arcs":[[[-470,-14,-34,5,-382]]],"id":9},{"properties":{"cd_mun_ibge":"2300903"},"type":"MultiPolygon","arcs":[[[-300,-82,-482,-136,-312]]],"id":10},{"properties":{"cd_mun_ibge":"2301000"},"type":"MultiPolygon","arcs":[[[-131,-67,-75,6,-45,-318,-44,-99]]],"id":11},{"properties":{"cd_mun_ibge":"2301109"},"type":"MultiPolygon","arcs":[[[-286,-24,-77,7,-105,8,-160,-129]]],"id":12},{"properties":{"cd_mun_ibge":"2301208"},"type":"MultiPolygon","arcs":[[[-23,-369,-18,-261,-101]]],"id":13},{"properties":{"cd_mun_ibge":"2301257"},"type":"MultiPolygon","arcs":[[[-329,-122,-254,-115]]],"id":14},{"properties":{"cd_mun_ibge":"2301307"},"type":"MultiPolygon","arcs":[[[-390,-336,-395,9]]],"id":15},{"properties":{"cd_mun_ibge":"2301406"},"type":"MultiPolygon","arcs":[[[-36,-39,-248,-37,-145]]],"id":16},{"properties":{"cd_mun_ibge":"2301505"},"type":"MultiPolygon","arcs":[[[10,-296,-476,-224,11,-47]]],"id":17},{"properties":{"cd_mun_ibge":"2301604"},"type":"MultiPolygon","arcs":[[[12,-397,-335,-35,13,-475,-71]]],"id":18},{"properties":{"cd_mun_ibge":"2301703"},"type":"MultiPolygon","arcs":[[[-206,-216,-41,-177,-117,14,-21]]],"id":19},{"properties":{"cd_mun_ibge":"2301802"},"type":"MultiPolygon","arcs":[[[-182,-507,15,-118]]],"id":20},{"properties":{"cd_mun_ibge":"2301851"},"type":"MultiPolygon","arcs":[[[-455,-210,-358,-348,-230,-152]]],"id":21},{"properties":{"cd_mun_ibge":"2301901"},"type":"MultiPolygon","arcs":[[[-162,16,-58,-171,-221]]],"id":22},{"properties":{"cd_mun_ibge":"2301950"},"type":"MultiPolygon","arcs":[[[-268,-55,17,-368,18]]],"id":23},{"properties":{"cd_mun_ibge":"2302008"},"type":"MultiPolygon","arcs":[[[19,-200,-207,20]]],"id":24},{"properties":{"cd_mun_ibge":"2302057"},"type":"MultiPolygon","arcs":[[[21,-30,-85,-51]]],"id":25},{"properties":{"cd_mun_ibge":"2302107"},"type":"MultiPolygon","arcs":[[[-246,-96,-279,-363,22,-141,-38]]],"id":26},{"properties":{"cd_mun_ibge":"2302206"},"type":"MultiPolygon","arcs":[[[-78,23,-285,-379,-233,-43,24]]],"id":27},{"properties":{"cd_mun_ibge":"2302305"},"type":"MultiPolygon","arcs":[[[-29,-170,-62,25,-197]]],"id":28},{"properties":{"cd_mun_ibge":"2302404"},"type":"MultiPolygon","arcs":[[[-304,-113,-226,-409,-150,-185,-354]]],"id":29},{"properties":{"cd_mun_ibge":"2302503"},"type":"MultiPolygon","arcs":[[[26,-166,-331,-219,27,-209,-202]]],"id":30},{"properties":{"cd_mun_ibge":"2302602"},"type":"MultiPolygon","arcs":[[[-167,28,-86,29,30]]],"id":31},{"properties":{"cd_mun_ibge":"2302701"},"type":"MultiPolygon","arcs":[[[31,32,33,34,-334,-388]]],"id":32},{"properties":{"cd_mun_ibge":"2302800"},"type":"MultiPolygon","arcs":[[[35,-144,-53,-187,-151,-407,-128,-484,-81,-298,-40]]],"id":33},{"properties":{"cd_mun_ibge":"2302909"},"type":"MultiPolygon","arcs":[[[36,-247,37,-146]]],"id":34},{"properties":{"cd_mun_ibge":"2303006"},"type":"MultiPolygon","arcs":[[[-301,-311,-192,-288,-278,-95,-249,38,39]]],"id":35},{"properties":{"cd_mun_ibge":"2303105"},"type":"MultiPolygon","arcs":[[[-375,-281,-244,-441,-89,-403,-523]]],"id":36},{"properties":{"cd_mun_ibge":"2303204"},"type":"MultiPolygon","arcs":[[[-60,-68,-528,-87,-178,40,-215,-173]]],"id":37},{"properties":{"cd_mun_ibge":"2303303"},"type":"MultiPolygon","arcs":[[[-72,-473,-175,-110,-50,-530]]],"id":38},{"properties":{"cd_mun_ibge":"2303402"},"type":"MultiPolygon","arcs":[[[-93,41,-413]]],"id":39},{"properties":{"cd_mun_ibge":"2303501"},"type":"MultiPolygon","arcs":[[[42,-263,-54,-272,-100,43,-319,44,45]]],"id":40},{"properties":{"cd_mun_ibge":"2303600"},"type":"MultiPolygon","arcs":[[[-384,46,47]]],"id":41},{"properties":{"cd_mun_ibge":"2303659"},"type":"MultiPolygon","arcs":[[[-97,-411,-225,-469]]],"id":42},{"properties":{"cd_mun_ibge":"2303709"},"type":"MultiPolygon","arcs":[[[-73,-189,-193,-309,-418,48]]],"id":43},{"properties":{"cd_mun_ibge":"2303808"},"type":"MultiPolygon","arcs":[[[-525,49,-109,-106,-180]]],"id":44},{"properties":{"cd_mun_ibge":"2303907"},"type":"MultiPolygon","arcs":[[[50,-84,51]]],"id":45},{"properties":{"cd_mun_ibge":"2303931"},"type":"MultiPolygon","arcs":[[[-143,-349,-356,-188,52]]],"id":46},{"properties":{"cd_mun_ibge":"2303956"},"type":"MultiPolygon","arcs":[[[-273,53,-262,54]]],"id":47},{"properties":{"cd_mun_ibge":"2304004"},"type":"MultiPolygon","arcs":[[[55,-443,-243,-499,-80,-489,-237]]],"id":48},{"properties":{"cd_mun_ibge":"2304103"},"type":"MultiPolygon","arcs":[[[-465,-112,-259,56,-326,-114]]],"id":49},{"properties":{"cd_mun_ibge":"2304202"},"type":"MultiPolygon","arcs":[[[57,58,-399,-252,-69,59,-172]]],"id":50},{"properties":{"cd_mun_ibge":"2304236"},"type":"MultiPolygon","arcs":[[[60,-91,-119,-124]]],"id":51},{"properties":{"cd_mun_ibge":"2304251"},"type":"MultiPolygon","arcs":[[[61,-169,62,63]]],"id":52},{"properties":{"cd_mun_ibge":"2304269"},"type":"MultiPolygon","arcs":[[[-453,64,-322,-431,-211]]],"id":53},{"properties":{"cd_mun_ibge":"2304277"},"type":"MultiPolygon","arcs":[[[-317,-127,65]]],"id":54},{"properties":{"cd_mun_ibge":"2304285"},"type":"MultiPolygon","arcs":[[[-130,-76,66]]],"id":55},{"properties":{"cd_mun_ibge":"2304301"},"type":"MultiPolygon","arcs":[[[-529,67,68,-251,69,70,-474,71]]],"id":56},{"properties":{"cd_mun_ibge":"2304350"},"type":"MultiPolygon","arcs":[[[-88,-451,-405]]],"id":57},{"properties":{"cd_mun_ibge":"2304400"},"type":"MultiPolygon","arcs":[[[-190,72,73,74,75,-134]]],"id":58},{"properties":{"cd_mun_ibge":"2304459"},"type":"MultiPolygon","arcs":[[[76,77,78]]],"id":59},{"properties":{"cd_mun_ibge":"2304509"},"type":"MultiPolygon","arcs":[[[-498,-490,79]]],"id":60},{"properties":{"cd_mun_ibge":"2304608"},"type":"MultiPolygon","arcs":[[[-299,80,-483,81]]],"id":61},{"properties":{"cd_mun_ibge":"2304657"},"type":"MultiPolygon","arcs":[[[-416,-103,-241,-282,-373,-94]]],"id":62},{"properties":{"cd_mun_ibge":"2304707"},"type":"MultiPolygon","arcs":[[[-196,-434,-198,-518,-487,-532,82,83,84,85]]],"id":63},{"properties":{"cd_mun_ibge":"2304806"},"type":"MultiPolygon","arcs":[[[-179,86,-527]]],"id":64},{"properties":{"cd_mun_ibge":"2304905"},"type":"MultiPolygon","arcs":[[[-440,87,-404,88]]],"id":65},{"properties":{"cd_mun_ibge":"2304954"},"type":"MultiPolygon","arcs":[[[-98,-270,89,-366,-290,-191,-277,-133]]],"id":66},{"properties":{"cd_mun_ibge":"2305001"},"type":"MultiPolygon","arcs":[[[-372,-120,90,91,92,-412,93]]],"id":67},{"properties":{"cd_mun_ibge":"2305100"},"type":"MultiPolygon","arcs":[[[94,-280,95,-245]]],"id":68},{"properties":{"cd_mun_ibge":"2305209"},"type":"MultiPolygon","arcs":[[[-121,-323,-401,96,-468,-256]]],"id":69},{"properties":{"cd_mun_ibge":"2305233"},"type":"MultiPolygon","arcs":[[[-271,97,-132,98,99]]],"id":70},{"properties":{"cd_mun_ibge":"2305266"},"type":"MultiPolygon","arcs":[[[-142,100,-260,-232,-345]]],"id":71},{"properties":{"cd_mun_ibge":"2305308"},"type":"MultiPolygon","arcs":[[[-415,101,-501,-242,102]]],"id":72},{"properties":{"cd_mun_ibge":"2305332"},"type":"MultiPolygon","arcs":[[[-346,-231]]],"id":73},{"properties":{"cd_mun_ibge":"2305357"},"type":"MultiPolygon","arcs":[[[103,104]]],"id":74},{"properties":{"cd_mun_ibge":"2305407"},"type":"MultiPolygon","arcs":[[[-181,105,-108,-265,-156,-314,106,-505]]],"id":75},{"properties":{"cd_mun_ibge":"2305506"},"type":"MultiPolygon","arcs":[[[-266,107,108,109,-174,110,-352]]],"id":76},{"properties":{"cd_mun_ibge":"2305605"},"type":"MultiPolygon","arcs":[[[-343,-257,111,-464,112,-303,-479]]],"id":77},{"properties":{"cd_mun_ibge":"2305654"},"type":"MultiPolygon","arcs":[[[-253,-466,113,-325,114]]],"id":78},{"properties":{"cd_mun_ibge":"2305704"},"type":"MultiPolygon","arcs":[[[115,116,-183,117]]],"id":79},{"properties":{"cd_mun_ibge":"2305803"},"type":"MultiPolygon","arcs":[[[-125,118,119,-371,-324,120]]],"id":80},{"properties":{"cd_mun_ibge":"2305902"},"type":"MultiPolygon","arcs":[[[-255,121,-328,122,123,124]]],"id":81},{"properties":{"cd_mun_ibge":"2306009"},"type":"MultiPolygon","arcs":[[[-316,-153,125,-339,126]]],"id":82},{"properties":{"cd_mun_ibge":"2306108"},"type":"MultiPolygon","arcs":[[[-214,-138,-135,-485,127,-406,-449]]],"id":83},{"properties":{"cd_mun_ibge":"2306207"},"type":"MultiPolygon","arcs":[[[-159,-287,128]]],"id":84},{"properties":{"cd_mun_ibge":"2306256"},"type":"MultiPolygon","arcs":[[[129,130,131,132,-276,133]]],"id":85},{"properties":{"cd_mun_ibge":"2306306"},"type":"MultiPolygon","arcs":[[[134,-137,-516,-509,-308,135,-486]]],"id":86},{"properties":{"cd_mun_ibge":"2306405"},"type":"MultiPolygon","arcs":[[[-494,-496,-513,136,137,-213,138,139]]],"id":87},{"properties":{"cd_mun_ibge":"2306504"},"type":"MultiPolygon","arcs":[[[140,141,-344,142,143,144,145]]],"id":88},{"properties":{"cd_mun_ibge":"2306553"},"type":"MultiPolygon","arcs":[[[146,147,148]]],"id":89},{"properties":{"cd_mun_ibge":"2306603"},"type":"MultiPolygon","arcs":[[[-186,149,-408,150]]],"id":90},{"properties":{"cd_mun_ibge":"2306702"},"type":"MultiPolygon","arcs":[[[151,-229,-154,-157,-456]]],"id":91},{"properties":{"cd_mun_ibge":"2306801"},"type":"MultiPolygon","arcs":[[[152,-158,153,-228,154]]],"id":92},{"properties":{"cd_mun_ibge":"2306900"},"type":"MultiPolygon","arcs":[[[155,-267,-457,156,157,-315]]],"id":93},{"properties":{"cd_mun_ibge":"2307007"},"type":"MultiPolygon","arcs":[[[-284,158,159,160,-360,-381]]],"id":94},{"properties":{"cd_mun_ibge":"2307106"},"type":"MultiPolygon","arcs":[[[161,-220,-333,-165,-305,162]]],"id":95},{"properties":{"cd_mun_ibge":"2307205"},"type":"MultiPolygon","arcs":[[[163,-306,164,-332,165]]],"id":96},{"properties":{"cd_mun_ibge":"2307254"},"type":"MultiPolygon","arcs":[[[166,167,168,169]]],"id":97},{"properties":{"cd_mun_ibge":"2307304"},"type":"MultiPolygon","arcs":[[[-222,170,171,172]]],"id":98},{"properties":{"cd_mun_ibge":"2307403"},"type":"MultiPolygon","arcs":[[[173,174,-472,-386,175]]],"id":99},{"properties":{"cd_mun_ibge":"2307502"},"type":"MultiPolygon","arcs":[[[176,177,178,-526,179,180,-504,181,182]]],"id":100},{"properties":{"cd_mun_ibge":"2307601"},"type":"MultiPolygon","arcs":[[[-424,-234,-377,-362,183,-460]]],"id":101},{"properties":{"cd_mun_ibge":"2307635"},"type":"MultiPolygon","arcs":[[[184,185,186,187,-355]]],"id":102},{"properties":{"cd_mun_ibge":"2307650"},"type":"MultiPolygon","arcs":[[[-194,188,189,-275]]],"id":103},{"properties":{"cd_mun_ibge":"2307700"},"type":"MultiPolygon","arcs":[[[-274,190,-289,191,-310,192,193]]],"id":104},{"properties":{"cd_mun_ibge":"2307809"},"type":"MultiPolygon","arcs":[[[194,-239,-435,195,196]]],"id":105},{"properties":{"cd_mun_ibge":"2307908"},"type":"MultiPolygon","arcs":[[[-433,-519,197]]],"id":106},{"properties":{"cd_mun_ibge":"2308005"},"type":"MultiPolygon","arcs":[[[198,-235,-438,-391,-446,-204]]],"id":107},{"properties":{"cd_mun_ibge":"2308104"},"type":"MultiPolygon","arcs":[[[-208,199,200,201]]],"id":108},{"properties":{"cd_mun_ibge":"2308203"},"type":"MultiPolygon","arcs":[[[202,203,-445]]],"id":109},{"properties":{"cd_mun_ibge":"2308302"},"type":"MultiPolygon","arcs":[[[204,-217,205,206,207,208]]],"id":110},{"properties":{"cd_mun_ibge":"2308351"},"type":"MultiPolygon","arcs":[[[-430,-359,209,-454,210]]],"id":111},{"properties":{"cd_mun_ibge":"2308377"},"type":"MultiPolygon","arcs":[[[-448,-394,211,212,213]]],"id":112},{"properties":{"cd_mun_ibge":"2308401"},"type":"MultiPolygon","arcs":[[[214,215,216,217,218,-330,219,220,221]]],"id":113},{"properties":{"cd_mun_ibge":"2308500"},"type":"MultiPolygon","arcs":[[[-321,222,223,-481,-302,-427]]],"id":114},{"properties":{"cd_mun_ibge":"2308609"},"type":"MultiPolygon","arcs":[[[-463,224,-410,225]]],"id":115},{"properties":{"cd_mun_ibge":"2308708"},"type":"MultiPolygon","arcs":[[[-423,226,227,228,229,-347,230,231,-264,232,-378,233]]],"id":116},{"properties":{"cd_mun_ibge":"2308807"},"type":"MultiPolygon","arcs":[[[-488,-517,-439,234,235,236]]],"id":117},{"properties":{"cd_mun_ibge":"2308906"},"type":"MultiPolygon","arcs":[[[237,-392,-436,238,239]]],"id":118},{"properties":{"cd_mun_ibge":"2309003"},"type":"MultiPolygon","arcs":[[[240,241,-500,242,-442,243,-283]]],"id":119},{"properties":{"cd_mun_ibge":"2309102"},"type":"MultiPolygon","arcs":[[[244,245,246,247,248]]],"id":120},{"properties":{"cd_mun_ibge":"2309201"},"type":"MultiPolygon","arcs":[[[249,250,251,-398]]],"id":121},{"properties":{"cd_mun_ibge":"2309300"},"type":"MultiPolygon","arcs":[[[252,253,254,255,-467]]],"id":122},{"properties":{"cd_mun_ibge":"2309409"},"type":"MultiPolygon","arcs":[[[256,-342,257,258]]],"id":123},{"properties":{"cd_mun_ibge":"2309458"},"type":"MultiPolygon","arcs":[[[259,260,261,262,263]]],"id":124},{"properties":{"cd_mun_ibge":"2309508"},"type":"MultiPolygon","arcs":[[[264,265,-351,266]]],"id":125},{"properties":{"cd_mun_ibge":"2309607"},"type":"MultiPolygon","arcs":[[[267,268,269,270,271,272]]],"id":126},{"properties":{"cd_mun_ibge":"2309706"},"type":"MultiPolygon","arcs":[[[273,274,275,276]]],"id":127},{"properties":{"cd_mun_ibge":"2309805"},"type":"MultiPolygon","arcs":[[[277,-291,-364,278,279]]],"id":128},{"properties":{"cd_mun_ibge":"2309904"},"type":"MultiPolygon","arcs":[[[280,-374,281,282]]],"id":129},{"properties":{"cd_mun_ibge":"2310001"},"type":"MultiPolygon","arcs":[[[283,-380,284,285,286]]],"id":130},{"properties":{"cd_mun_ibge":"2310100"},"type":"MultiPolygon","arcs":[[[287,288,289,-365,290]]],"id":131},{"properties":{"cd_mun_ibge":"2310209"},"type":"MultiPolygon","arcs":[[[-294,291,-421]]],"id":132},{"properties":{"cd_mun_ibge":"2310258"},"type":"MultiPolygon","arcs":[[[-420,-492,292,293]]],"id":133},{"properties":{"cd_mun_ibge":"2310308"},"type":"MultiPolygon","arcs":[[[294,-340,-477,295,296]]],"id":134},{"properties":{"cd_mun_ibge":"2310407"},"type":"MultiPolygon","arcs":[[[297,298,299,300]]],"id":135},{"properties":{"cd_mun_ibge":"2310506"},"type":"MultiPolygon","arcs":[[[-353,-428,301,-480,302,303]]],"id":136},{"properties":{"cd_mun_ibge":"2310605"},"type":"MultiPolygon","arcs":[[[304,305,306]]],"id":137},{"properties":{"cd_mun_ibge":"2310704"},"type":"MultiPolygon","arcs":[[[307,-508,-425,-419,308,309,310,311]]],"id":138},{"properties":{"cd_mun_ibge":"2310803"},"type":"MultiPolygon","arcs":[[[312,313,314,315,316]]],"id":139},{"properties":{"cd_mun_ibge":"2310852"},"type":"MultiPolygon","arcs":[[[317,318]]],"id":140},{"properties":{"cd_mun_ibge":"2310902"},"type":"MultiPolygon","arcs":[[[319,320,-432,321]]],"id":141},{"properties":{"cd_mun_ibge":"2310951"},"type":"MultiPolygon","arcs":[[[-370,-521,-402,322,323]]],"id":142},{"properties":{"cd_mun_ibge":"2311009"},"type":"MultiPolygon","arcs":[[[324,325,326,327,328]]],"id":143},{"properties":{"cd_mun_ibge":"2311108"},"type":"MultiPolygon","arcs":[[[329,330,331,332]]],"id":144},{"properties":{"cd_mun_ibge":"2311207"},"type":"MultiPolygon","arcs":[[[-389,333,334,-396,335]]],"id":145},{"properties":{"cd_mun_ibge":"2311231"},"type":"MultiPolygon","arcs":[[[336,337,338]]],"id":146},{"properties":{"cd_mun_ibge":"2311264"},"type":"MultiPolygon","arcs":[[[339,340,341,342,-478]]],"id":147},{"properties":{"cd_mun_ibge":"2311306"},"type":"MultiPolygon","arcs":[[[343,344,345,346,347,-357,348]]],"id":148},{"properties":{"cd_mun_ibge":"2311355"},"type":"MultiPolygon","arcs":[[[349,-458,350,351]]],"id":149},{"properties":{"cd_mun_ibge":"2311405"},"type":"MultiPolygon","arcs":[[[352,353,354,355,356,357,358,-429]]],"id":150},{"properties":{"cd_mun_ibge":"2311504"},"type":"MultiPolygon","arcs":[[[-376,359,360,361]]],"id":151},{"properties":{"cd_mun_ibge":"2311603"},"type":"MultiPolygon","arcs":[[[362,363,364,365,366,367,368]]],"id":152},{"properties":{"cd_mun_ibge":"2311702"},"type":"MultiPolygon","arcs":[[[-522,369,370,371,372,373,374]]],"id":153},{"properties":{"cd_mun_ibge":"2311801"},"type":"MultiPolygon","arcs":[[[375,376,377,378,379,380]]],"id":154},{"properties":{"cd_mun_ibge":"2311900"},"type":"MultiPolygon","arcs":[[[-471,381,382,383,384,385]]],"id":155},{"properties":{"cd_mun_ibge":"2311959"},"type":"MultiPolygon","arcs":[[[386,387,388,389]]],"id":156},{"properties":{"cd_mun_ibge":"2312007"},"type":"MultiPolygon","arcs":[[[-447,390,-437,391,392,393]]],"id":157},{"properties":{"cd_mun_ibge":"2312106"},"type":"MultiPolygon","arcs":[[[394,395,396,397,398,399]]],"id":158},{"properties":{"cd_mun_ibge":"2312205"},"type":"MultiPolygon","arcs":[[[400,401,-524,402,403,404,-450,405,406,407,408,409,410]]],"id":159},{"properties":{"cd_mun_ibge":"2312304"},"type":"MultiPolygon","arcs":[[[411,412,413,414,415]]],"id":160},{"properties":{"cd_mun_ibge":"2312403"},"type":"MultiPolygon","arcs":[[[416,417,418,-426,-493,419,420]]],"id":161},{"properties":{"cd_mun_ibge":"2312502"},"type":"MultiPolygon","arcs":[[[421,422,423,-459]]],"id":162},{"properties":{"cd_mun_ibge":"2312601"},"type":"MultiPolygon","arcs":[[[424,-512,425]]],"id":163},{"properties":{"cd_mun_ibge":"2312700"},"type":"MultiPolygon","arcs":[[[426,427,428,429,430,431]]],"id":164},{"properties":{"cd_mun_ibge":"2312809"},"type":"MultiPolygon","arcs":[[[432,433,434,435,436,437,438,-520]]],"id":165},{"properties":{"cd_mun_ibge":"2312908"},"type":"MultiPolygon","arcs":[[[439,440,441,442,443,444,445,446,447,448,449,450]]],"id":166},{"properties":{"cd_mun_ibge":"2313005"},"type":"MultiPolygon","arcs":[[[451,452,453,454,455,456,457]]],"id":167},{"properties":{"cd_mun_ibge":"2313104"},"type":"MultiPolygon","arcs":[[[458,459,460,461]]],"id":168},{"properties":{"cd_mun_ibge":"2313203"},"type":"MultiPolygon","arcs":[[[462,463,464,465,466,467,468]]],"id":169},{"properties":{"cd_mun_ibge":"2313252"},"type":"MultiPolygon","arcs":[[[469,470,471,472,473,474]]],"id":170},{"properties":{"cd_mun_ibge":"2313302"},"type":"MultiPolygon","arcs":[[[475,476,477,478,479,480]]],"id":171},{"properties":{"cd_mun_ibge":"2313351"},"type":"MultiPolygon","arcs":[[[481,482,483,484,485]]],"id":172},{"properties":{"cd_mun_ibge":"2313401"},"type":"MultiPolygon","arcs":[[[486,487,488,489,-503,490,-533]]],"id":173},{"properties":{"cd_mun_ibge":"2313500"},"type":"MultiPolygon","arcs":[[[491,492,-511,-497,493,494]]],"id":174},{"properties":{"cd_mun_ibge":"2313559"},"type":"MultiPolygon","arcs":[[[495,496,-510,-514]]],"id":175},{"properties":{"cd_mun_ibge":"2313609"},"type":"MultiPolygon","arcs":[[[497,498,499,500,501,502]]],"id":176},{"properties":{"cd_mun_ibge":"2313708"},"type":"MultiPolygon","arcs":[[[503,504,505,506]]],"id":177},{"properties":{"cd_mun_ibge":"2313757"},"type":"MultiPolygon","arcs":[[[507,508,-515,509,510,511]]],"id":178},{"properties":{"cd_mun_ibge":"2313807"},"type":"MultiPolygon","arcs":[[[512,513,514,515]]],"id":179},{"properties":{"cd_mun_ibge":"2313906"},"type":"MultiPolygon","arcs":[[[516,517,518,519]]],"id":180},{"properties":{"cd_mun_ibge":"2313955"},"type":"MultiPolygon","arcs":[[[520,521,522,523]]],"id":181},{"properties":{"cd_mun_ibge":"2314003"},"type":"MultiPolygon","arcs":[[[524,525,526,527,528,529]]],"id":182},{"properties":{"cd_mun_ibge":"2314102"},"type":"MultiPolygon","arcs":[[[530,531,532]]],"id":183}],"type":"GeometryCollection"}},"bbox":[-41.423518,-7.857558414718914,-37.2526586,-2.7843235],"transform":{"scale":[4.170901109011095e-05,5.07328564757539e-05],"translate":[-41.423518,-7.857558414718914]},"arcs":[[[25214,99445],[975,127],[2263,-178],[1234,66],[997,-562],[262,210],[-169,54],[327,64],[948,-157],[215,-185],[473,132],[1777,-279],[-257,174],[1251,-529]],[[25246,20783],[-438,122],[-1040,-315],[-1073,1580],[-3004,331],[-724,337],[-401,396],[-1463,53],[-529,412],[248,723],[-350,367]],[[81414,44051],[-212,-330],[-1107,-650]],[[35707,89524],[639,831]],[[40820,95808],[804,6],[744,-529],[431,91],[367,-109],[690,-859],[1047,-222]],[[30646,20476],[647,-26],[249,310],[947,253],[-22,401],[1777,1357],[-236,306]],[[72448,79511],[1366,-1544],[962,-656],[749,-173],[1203,-1242]],[[87608,67632],[365,-211],[906,-1473],[1847,-1462],[1195,-804],[1175,-353]],[[97500,59123],[-6796,-1347]],[[36781,10207],[-885,-25],[-1783,-660],[-3046,-146],[-1629,468],[-1161,824]],[[32113,29372],[-692,367],[-687,-44],[-84,-181],[-336,126],[-68,-164],[-589,-51],[-462,-318],[-295,88],[-508,-329],[-417,334],[-103,-199],[-581,107],[-544,-438],[-467,23]],[[36800,34694],[-93,-324]],[[42763,17976],[-1216,-478],[-13,177],[-423,164],[-1184,-802],[-1006,-356],[1264,-221]],[[32280,19728],[610,248],[-74,323],[273,212],[991,273],[363,-236],[1858,1018]],[[63739,18668],[235,-565],[-249,-203],[447,-220],[113,-270],[-541,-390]],[[65956,22694],[398,-473],[87,-525]],[[49187,4778],[-1143,212],[-87,347],[-522,281]],[[69280,68766],[-777,-153],[-191,-170],[-883,128],[-286,-506],[-374,-42],[-198,-209],[-544,86],[-576,648]],[[65612,70378],[521,264],[401,575],[533,-77],[336,441],[890,-77]],[[63744,17020],[1676,-648],[123,-262],[478,-147],[-177,-382],[499,-499],[-503,-759],[50,-489],[-237,-111],[207,-155],[-270,-413],[792,137],[437,-208],[282,48],[116,-567]],[[60288,15273],[1266,2073],[1800,-454],[390,128]],[[3664,96305],[-1075,200],[-171,794],[1275,688],[3368,-123],[311,153],[343,-317]],[[63726,70014],[-710,-353],[-165,156],[-519,31],[-429,-931],[-16,-1832],[688,253],[-487,-648],[1128,-819],[258,-16],[58,-215],[633,6],[-442,-1894]],[[82959,65583],[-413,-216],[-83,-374],[-211,-41],[154,-419]],[[78540,74024],[761,-905],[2513,-2001],[547,-223],[1960,-1555],[1473,-826]],[[30050,96850],[-112,-296],[131,-601],[336,-64],[-11,-775],[218,-202],[603,146],[266,-413],[518,-332],[120,-839]],[[64885,4560],[-479,-172],[-155,-507],[-485,84],[-644,-291],[-694,125],[-109,-267],[221,-375],[-166,-343],[-579,-111],[-567,175],[-267,-264],[-12,-443],[-322,-60]],[[56230,8585],[2598,-104]],[[21856,96647],[405,-2122]],[[7721,93898],[-434,569],[391,277],[67,421],[450,199],[255,449],[-89,405],[243,272],[-277,346],[237,85],[-23,177],[-228,57],[-231,410],[-367,135]],[[7715,97700],[-154,214],[2346,-27],[1057,192],[258,191],[982,-16],[208,274],[924,-67],[100,121],[439,-584],[1032,260],[992,470],[1669,-50],[492,156],[646,-115],[772,158],[503,-101]],[[23116,15356],[787,928],[-291,295],[256,-40],[522,259],[-567,237],[130,1106],[-228,691],[91,677],[1032,744],[398,530]],[[25246,20783],[436,-111],[92,237],[633,-114],[344,323],[171,-407],[216,-25],[197,256],[442,-30],[549,391],[934,50],[498,296],[334,-642],[443,145],[463,-376],[-352,-300]],[[30646,20476],[-41,-233],[1432,-317],[243,-198]],[[32280,19728],[-1160,-596],[1079,-562],[565,-71],[-227,-906],[-369,-353]],[[55843,68411],[-117,-138],[220,-382],[268,148],[2,-231],[630,-433],[3,-243],[576,-169]],[[58134,66559],[133,571],[458,231],[-213,1169],[303,249]],[[59084,69002],[334,136],[584,-123],[-543,-601],[497,-468],[243,38],[619,-439],[488,20],[322,-283],[1258,-2735]],[[56820,69097],[76,-133],[-173,-125],[-320,207],[203,-151],[-253,-86],[351,-172],[-167,-78],[58,-350],[-549,55],[-99,235],[-104,-88]],[[55843,68411],[-1721,64],[-573,1028],[-33,459],[-390,35],[-164,430],[-620,20],[-2258,1766]],[[55540,17623],[-551,-335],[-456,-55],[-300,-319],[102,-672],[432,-732],[691,-347],[-609,-837]],[[7789,72464],[186,215],[-658,101],[-505,873]],[[78540,74024],[-319,-289],[-3,-622],[-487,-916],[-559,12],[-543,-225],[-75,-2317],[264,-723],[-395,186],[-327,-131],[-316,-729],[-215,-49],[69,-172],[-596,-268],[4,-396],[-325,-130],[-306,247],[-215,-63],[55,-276],[-285,-135],[121,-201],[-210,-201],[120,-232],[-340,-23],[-216,-219]],[[73150,74490],[54,254]],[[76413,75588],[315,308]],[[76728,75896],[1812,-1872]],[[32113,29372],[326,250],[-228,162],[412,331],[54,505],[358,71],[-111,376],[595,77],[220,1062],[373,153],[331,-96],[932,479],[783,136],[-80,144],[594,520],[-174,218],[209,610]],[[36707,34370],[681,-207],[305,204],[279,-337],[254,-59],[225,203],[410,-272],[225,-389],[-169,-748],[146,-17],[-74,-224],[193,21]],[[62743,84933],[1058,-1129],[1455,-639],[1002,-769],[1735,-375]],[[50951,25543],[410,708]],[[3664,96305],[547,-6],[1305,-519],[179,-459],[-78,-444],[207,49],[551,-577],[-339,-294],[81,-397],[414,-376]],[[2430,92226],[-129,369],[209,298],[808,614],[2,240],[702,274],[-134,740],[322,456],[-546,1088]],[[49299,61750],[109,-271],[1388,613],[293,867],[343,277],[953,117],[470,-208],[348,25],[117,159],[514,-207],[433,388],[726,145]],[[72662,71638],[308,77],[-103,-288],[592,-648],[-723,64],[224,-1724],[-718,-180],[-457,62],[-432,-287],[255,-244]],[[69280,68766],[-348,903],[-132,783],[147,233],[-543,710]],[[20848,85141],[-312,-210],[-74,-297],[-669,-96],[210,-122],[-387,-147],[37,-462],[-266,-17],[271,-264],[355,1],[-135,-177],[130,-207],[208,50],[46,-152],[713,-178]],[[11838,46592],[325,591],[-655,832],[619,105],[148,176],[-589,816],[575,1020],[-354,340],[63,436],[301,162],[-732,516],[484,276],[-239,496],[154,482],[-213,186],[-356,10],[-366,331],[-428,-67],[-109,259],[-596,330],[-53,351],[-296,-77],[-182,368],[-442,-244],[-664,243],[-405,748],[-839,90],[248,445]],[[49793,11670],[-353,-160],[-338,-621],[-613,-40],[-1084,-566],[30,-4665]],[[47435,5618],[-657,-52],[-301,725],[703,720],[-121,604],[-695,-24],[-303,164],[-980,-407],[-341,241],[-339,842],[-683,36]],[[47260,16720],[-66,-1136],[655,26],[131,132],[239,-110],[403,85],[-11,-120],[407,181],[236,-144],[183,133],[-84,-151],[185,-14],[-48,-170],[536,-491],[-76,-178]],[[5897,66818],[10,521],[418,605],[-51,459],[320,408]],[[30050,96850],[-1598,-159],[-649,243],[-1348,-78],[-263,-399],[-735,-49],[-434,127],[-69,247],[-657,-68]],[[23221,99622],[1993,-177]],[[25214,99445],[254,-1072],[884,109],[1254,-357],[-7,186],[2172,11],[738,-292],[37,-421],[-364,-235],[-132,-524]],[[54033,37398],[-270,-78],[-397,143],[-160,-614],[-600,5],[-156,-270],[-104,122],[-614,-36],[-360,-158],[-385,301],[-541,-332],[-426,97],[-184,-119],[-86,279],[-433,51],[77,203]],[[78262,38101],[-132,-433],[-988,-351],[-923,-692],[-352,-1071],[-1069,-645],[-387,187],[-404,-66],[-240,258],[-14,-264],[-452,-150],[-467,466],[89,234],[-548,-88]],[[72265,79603],[-234,-79],[-70,-264],[219,-405],[-34,-415],[-433,-160],[-387,-735],[-359,188],[-202,-287],[-332,79],[-552,-241]],[[48636,18434],[-665,-785],[-310,-24],[-401,-905]],[[47260,16720],[-1177,-60],[-342,210],[-278,-34],[-1186,-277],[-70,-519]],[[41787,16585],[590,219],[-191,245],[450,27],[574,609],[-447,291]],[[42763,17976],[122,191],[389,65],[290,559],[-965,225],[-457,-270],[111,481],[-169,359],[490,104],[251,255],[-378,493]],[[43342,21073],[1572,215],[149,186],[805,-170]],[[66787,79951],[934,1167],[-510,472],[-55,296],[837,135]],[[67993,82021],[583,-42],[834,-420],[424,126],[359,-228],[470,112],[-25,79],[-127,60],[-15,47],[139,-102],[108,174],[-230,148],[368,-195],[164,70],[99,-513],[1304,-1826]],[[72448,79511],[-183,92]],[[72265,79603],[-803,345],[-167,-716],[-395,-111],[-852,-880]],[[87608,67632],[-381,-328],[152,-268],[243,43],[-189,-231],[116,-266],[-143,74],[50,-183],[-309,-434],[-927,38],[-598,-445],[82,-152],[-452,-145],[-2293,248]],[[82959,65583],[-135,277],[366,747],[-316,271],[-226,635],[546,268],[247,386],[729,-9],[191,-281],[199,146],[548,-91],[1,223],[699,-28],[-42,-125],[708,123],[-680,389]],[[85794,68514],[843,-335],[956,-52],[15,-495]],[[12769,82582],[397,226],[190,330],[123,-158],[270,13],[399,259],[1610,-285],[783,-800],[-1139,-935],[61,-422],[-186,-250],[160,-310]],[[45139,72883],[-279,162],[128,822],[346,505]],[[46460,75935],[691,66],[305,643],[2876,-2386]],[[2889,86046],[-401,160],[-173,745],[70,1190],[-545,8],[-964,-469],[-1,380],[-316,93],[27,428],[-586,-87],[268,538],[345,259],[50,463],[1767,2472]],[[2430,92226],[2032,-17],[2069,1073]],[[6531,93282],[1190,616]],[[7721,93898],[2629,1255],[2683,382],[985,-502],[3526,547],[3073,-155],[1644,-900]],[[54112,18169],[-1655,148],[-262,-139],[-1164,-70],[-621,111],[-164,-1038],[-33,364],[-448,511],[223,254],[-5,450]],[[25257,78765],[405,-241],[786,222],[370,-1393]],[[25494,75408],[-277,342],[22,366],[-517,435],[-172,407],[93,221],[-278,257],[-201,2415]],[[67246,72815],[-1288,55],[-1080,-523]],[[14890,69233],[-1072,468],[176,215],[-328,269],[-398,-141],[253,-222],[-413,-160],[40,175],[-218,-63],[-1034,556],[-1919,326],[-3187,-1913],[-196,68]],[[6594,68811],[729,942],[-427,1681],[893,1030]],[[7789,72464],[677,-389],[1268,14],[272,205],[739,-795],[1785,1405]],[[14702,73701],[307,-257],[1468,173],[-27,-293],[589,184]],[[58029,70891],[262,-2],[-231,151],[-438,-44],[576,77],[-59,254],[-655,244],[490,3],[-16,286],[559,144],[180,355],[310,-79],[30,143],[255,27]],[[60713,70576],[-610,261],[-198,-244],[174,20],[43,-323],[-424,-623]],[[28029,66732],[241,-276],[-309,-48],[-253,-396],[652,-408],[-81,-433],[274,-214],[-260,-288],[182,-303],[-277,-262],[-488,-102],[-615,199]],[[68406,73509],[94,118]],[[69234,75222],[834,-391],[1408,-198],[1351,17],[323,-160]],[[73150,74490],[-225,-1314]],[[63723,63752],[1128,61],[431,164],[261,-777],[451,-302],[177,115],[214,-407],[513,-142],[-71,-212],[439,41],[1063,546]],[[5769,75683],[-1722,-378],[7,186],[374,242],[-250,503],[487,429]],[[14404,76898],[-319,-42],[-38,-542]],[[93096,63329],[1025,350],[635,-471],[3229,-834],[998,-730],[1016,-1995],[-2499,-526]],[[97500,59123],[28,1259],[-234,181],[-880,253],[-349,-200],[-1151,23],[-941,-211],[-1276,1367],[399,1534]],[[59986,25445],[-76,195],[167,141],[-966,446],[-2463,1606],[-1398,-411],[-598,246],[-20,242]],[[69621,32218],[-222,-332],[-405,-109],[-206,-354],[-602,-320],[324,-453],[-366,-268],[-6,-293],[107,-323],[350,-162],[-350,-169],[95,-211],[-464,-65],[-234,-249],[726,-261],[701,42],[319,179],[276,-312],[-159,32],[-713,-506],[-516,-891],[-875,-694],[-92,-295],[129,-77]],[[55003,28560],[-216,-91],[192,-252],[-347,-307]],[[54632,27910],[-1445,-426],[-125,-448],[-496,-128],[84,-523],[-1289,-134]],[[51361,26251],[-1455,-176],[-402,510],[67,431],[189,33],[-81,321],[-565,-115],[-261,204],[-294,-9]],[[47089,30212],[-105,876],[1180,418],[-58,265],[634,468],[517,113],[294,-187],[1177,1009]],[[20828,47915],[144,550],[236,183],[350,-5],[1080,2275],[1561,907],[241,548]],[[30293,53077],[437,-16],[147,164],[560,-159],[352,123],[306,-240],[294,203],[304,-505],[442,172],[467,-210],[-244,-205],[227,-145],[-586,-654],[109,-409],[-339,-510],[21,-113],[674,-92],[-71,-285],[301,-147],[-66,-188]],[[18892,57809],[-382,-1212],[-1534,787],[-2686,-631],[-5350,-945]],[[12976,60580],[976,-13],[383,-507],[770,-111],[730,-542],[26,-450],[935,485],[98,-223],[479,-178],[556,184],[653,873],[489,361]],[[66441,21696],[921,-504],[-72,-214],[-527,20],[61,-245],[-253,-49],[-624,-571],[-59,-506],[-466,-251],[-372,-2],[-88,-226],[-377,-23],[-13,-188],[-833,-269]],[[63739,18668],[-471,109],[251,719],[-927,71],[-163,160],[-871,-45]],[[61783,22635],[1050,-296],[678,131],[546,-690],[766,-294],[817,14],[113,231],[688,-35]],[[15106,67683],[344,299],[-191,84],[113,315],[290,151],[-78,238],[288,258],[-887,-145],[-95,350]],[[14890,69233],[363,641],[-379,910],[605,616],[871,228],[358,380]],[[22668,70275],[-287,-201],[-134,-388],[-519,-133],[-130,-515],[-522,-304],[-234,-319],[49,-220],[-220,-66],[-95,-360],[265,-375],[-717,-658],[55,-670],[-410,-476],[266,-544]],[[18302,62508],[-231,-370],[-1496,-199],[-92,128],[-624,50],[-543,-124],[-553,141],[-875,-266],[-670,128]],[[4404,64732],[-21,100],[460,19],[314,368],[740,1599]],[[5897,66818],[746,-28],[538,-268],[1504,176],[863,375],[3273,-339],[1514,263],[520,650],[251,36]],[[15106,67683],[2073,-1172],[660,1106],[25,-282],[718,-812],[342,-854],[496,-513],[479,-196],[136,86]],[[71702,43966],[3965,505],[63,-536],[387,-332]],[[78262,38101],[-2394,80],[-382,565],[-1092,-284],[-381,-271],[-942,202],[-644,-145]],[[42163,74427],[-358,117],[-565,-298],[-46,-272],[-307,160],[-527,-269],[-374,-482],[-42,-458],[-273,-19],[-121,-293]],[[83267,62992],[998,-40],[1539,-382],[315,454],[562,-306],[173,-425],[1258,-435],[3169,26]],[[70048,78241],[-167,-957]],[[69881,77284],[-234,-1602],[-413,-460]],[[69234,75222],[-4,-747],[-341,-267],[-175,-520],[-214,-61]],[[68500,73627],[-236,326],[-876,33],[198,893],[716,90]],[[69079,78812],[560,-107],[-293,-291],[410,-300],[292,127]],[[42772,79543],[-331,955],[-142,206],[-552,199],[-158,876],[-444,386],[257,866],[-119,542]],[[48161,79390],[-374,-505]],[[43806,83396],[-345,-121],[-596,202],[-144,-384],[-311,-167],[-603,54],[-271,651],[-253,-58]],[[41283,83573],[-275,-736]],[[39318,86594],[358,128],[36,399],[216,55],[126,420],[426,260],[-144,238],[221,251],[-139,155],[99,381],[737,499],[-620,1543],[721,39],[704,1533],[298,-16],[892,373],[168,-196],[1115,503],[371,1027]],[[44903,94186],[1529,-787],[553,-474],[1016,-228],[1012,-563]],[[62886,64547],[837,-795]],[[63723,63752],[-877,-515],[-283,-447],[-1031,103],[-415,-250]],[[58631,62872],[16,176],[-418,249],[-243,-95],[-190,168],[-842,54],[-421,-276],[-308,301],[-411,-105],[-129,154],[-282,-140],[-155,347],[-255,-50]],[[54993,63655],[1540,1322],[-256,444],[-230,30],[91,532],[-159,322],[228,160],[-141,275],[1359,223]],[[57425,66963],[-170,-318],[417,-744],[462,658]],[[58134,66559],[403,-306],[816,171],[277,-179],[83,-438],[358,134],[278,-282],[795,4],[180,-483],[664,9],[-36,-649],[414,148],[520,-141]],[[35510,98382],[1376,-485],[-962,402],[691,-161],[4205,-2330]],[[40820,95808],[323,-143],[-13,-191],[-3836,-2182],[-16,-889],[-814,-754],[325,-316],[-443,-978]],[[36346,90355],[-922,588],[-737,236],[-486,646],[341,674],[-270,608],[82,766],[437,414],[-268,1113],[228,328],[393,2035],[366,619]],[[40693,61263],[-268,268],[279,293],[-180,117],[93,379]],[[41217,65311],[-116,224],[762,37],[57,335],[327,-73],[594,411],[202,-165],[503,49],[823,638],[789,-343],[-46,437],[205,-56],[219,-601],[474,600],[464,-607],[68,-562],[370,-226],[65,-525],[287,80],[208,-265],[-239,-404],[786,-1012],[-147,-606],[199,-190],[420,17],[323,-225],[201,73],[-61,-367],[250,-88]],[[60238,47347],[18,324],[-303,103],[-69,445],[68,1618],[163,167],[926,250],[690,385],[915,1293],[880,385],[1575,48],[396,-519]],[[71702,43966],[-379,-907],[-247,-122],[172,-642],[-146,109],[-142,-514],[-635,-336],[238,58],[-229,-469],[202,41],[167,-213]],[[65868,41628],[288,988],[520,598],[506,163],[556,1407],[373,310],[539,84],[-153,1031],[895,453],[-546,413],[836,527]],[[72182,48948],[-298,-362],[-19,-438],[-334,-226],[288,-424],[-112,-583],[-347,-395],[-292,-57],[25,-323],[500,-562],[109,-1612]],[[67686,33106],[-406,165],[-350,-93],[-1259,-743],[-684,135],[-334,104],[-214,695],[646,1123],[-572,-319],[-284,253],[-257,-3],[-240,-253],[-407,193],[-443,-152]],[[62784,40818],[979,1],[121,347],[1461,148],[523,314]],[[65868,41628],[2761,9],[364,-218],[272,110],[666,-571],[772,13]],[[83669,60985],[2486,8],[118,418],[877,245],[-4,-535],[4135,763]],[[91281,61884],[114,-990],[547,-789],[-1238,-2329]],[[90704,57776],[-885,-2492]],[[49187,4778],[3,3096],[2823,-584]],[[54592,2746],[-586,59],[-896,508],[-1060,-305],[68,422],[-494,466],[-845,-119],[-1592,1001]],[[60627,2111],[-498,118],[-12,-277],[-277,93],[-335,-148],[-114,-396],[154,-270],[-599,-684],[137,-206],[-162,-106]],[[55280,3432],[273,1334],[813,-205]],[[57454,4401],[1416,546],[462,-148],[312,114],[206,-107],[330,120],[240,-163],[277,97],[-70,-2749]],[[21856,96647],[-432,228],[125,299],[-229,226],[152,524],[-834,159],[-280,512],[-377,181]],[[19981,98776],[-184,23],[49,125],[1474,422],[541,583],[330,70],[1030,-377]],[[23221,99622],[-78,-312],[195,-83],[-173,-183],[226,-306],[-99,-818],[471,-221],[-15,-794],[549,-191]],[[24297,96714],[8,-301],[-2449,234]],[[51926,11717],[-422,95],[-1711,-142]],[[49793,11670],[-414,1037],[-66,962],[566,454],[71,640]],[[49950,14763],[1136,-34],[279,348],[354,-27],[713,-577],[-121,-190],[768,153],[389,-502]],[[47089,30212],[-329,-977],[551,-399],[387,-71],[462,138],[399,-1453]],[[48559,27450],[-727,-40],[-79,-298],[-568,-241],[-155,-312],[-731,-39],[-1113,-938],[-1079,-361],[-146,70],[-2105,-953],[-886,15],[-544,-220]],[[41109,29905],[213,238],[473,-176],[678,-2],[629,360],[502,-78],[361,310],[712,-501],[461,254],[411,-139],[-110,-118],[133,-128],[759,270],[405,-230],[150,275],[203,-28]],[[61558,19682],[-2271,-162],[-680,118],[18,-142],[-868,-177],[-152,-351],[-541,-97],[-38,-161],[-603,-192],[-31,-236],[-361,-23],[-491,-636]],[[55540,17623],[-215,408],[-1213,138]],[[54112,18169],[1,590],[-462,831]],[[55518,22512],[1488,388],[-365,633],[214,63],[129,-290],[727,291],[1152,24],[1048,946],[75,878]],[[59986,25445],[440,-254],[639,-41]],[[61852,23462],[-263,-123],[-108,-298],[302,-406]],[[61783,22635],[-7,-247],[454,-291],[-22,-161],[797,-476],[-638,-177],[299,-1323],[-1108,-278]],[[87201,51918],[-130,-890],[222,-354],[-91,-201]],[[43029,55478],[520,351],[230,522],[-425,378],[278,298],[-83,497],[-316,668],[-716,690],[-39,302],[215,192],[-333,198],[-142,650],[-356,255],[-304,-66],[-250,184],[-699,63],[-202,188],[284,109],[2,306]],[[40693,61263],[475,39],[68,132],[275,-81],[633,258],[884,9],[1276,-342],[1571,473],[2885,-1],[444,147]],[[49204,61897],[95,-147]],[[49299,61750],[-66,-315],[310,-219],[986,583],[72,-117],[291,119],[234,-268],[-1231,-689],[-110,-346],[167,-76]],[[65583,78860],[445,575],[678,79],[-136,254],[217,183]],[[66787,79951],[556,-444],[1759,-580],[-23,-115]],[[66072,75673],[-117,-418],[-1288,-671],[-464,24],[-68,-404]],[[59458,73995],[-36,132],[-87,-125],[-215,75],[26,524],[-661,561],[-465,1037]],[[59461,77127],[1722,-474],[559,-515],[880,649],[573,-93],[761,766],[305,-145],[145,97],[503,951],[674,497]],[[65583,78860],[779,-58],[-124,-113],[341,-203],[-35,-354],[-381,-550],[230,-293],[-102,-346],[443,-284]],[[32119,93474],[1949,-2063]],[[21913,93587],[348,938]],[[22261,94525],[1117,-733],[312,-51],[426,-461],[852,-176],[421,-408],[47,-651],[235,-292],[788,192],[552,-230],[683,1068],[764,-355],[634,284],[1491,904],[-115,373],[316,313],[1335,-828]],[[16677,91137],[428,408],[-982,3202],[4235,-1674]],[[21646,85615],[-482,-163]],[[63308,12433],[228,-178],[841,-35],[2840,345]],[[67217,12565],[652,-542],[910,140],[24,-384],[280,-117],[181,-550],[-378,-427],[-73,-570],[-1005,-1322],[259,-96],[-19,-364],[-492,-193],[60,-256],[-1029,-101],[376,-419],[-578,-754],[-16,-854],[-1335,-416],[-149,-780]],[[64885,4560],[-1406,433],[-2553,2901]],[[22167,83334],[-134,112],[158,383],[457,256],[-471,278],[529,393],[-1087,249],[165,252],[-138,358]],[[21646,85615],[526,72],[504,307],[345,-493],[708,-49],[508,-324],[-69,-563],[865,-593],[74,-285],[347,-73]],[[58828,8481],[189,619],[-923,1723],[-1176,332],[-1014,629]],[[57495,13945],[1620,1347],[1173,-19]],[[60288,15273],[-928,-1167],[795,-1992],[836,136],[261,-160],[205,49],[37,213],[141,-166],[305,-5],[587,284],[367,-148],[64,287],[311,-3],[39,-168]],[[63308,12433],[-1852,-2516],[-530,-2023]],[[60926,7894],[-1395,574],[-703,13]],[[56660,46251],[332,-5],[467,423]],[[54194,40586],[-1120,200],[-402,466],[-247,-108],[-352,58],[-104,201],[-409,-95]],[[33468,87129],[1064,-70],[1068,131],[3718,-596]],[[39318,86594],[-69,-501],[813,-1427],[-65,-466],[-425,-84],[1436,-1279]],[[41008,82837],[-1636,256],[65,164],[-747,553],[-514,46],[-1626,-1156],[-335,-1161],[-2443,173]],[[53468,13934],[739,355],[642,37]],[[54849,14326],[51,-231],[283,-6],[234,-309],[385,91],[129,-184],[-10,137],[327,9],[117,268],[120,-97],[390,186],[302,-230],[318,-15]],[[57495,13945],[3,-873],[-1452,-776],[-142,-512]],[[55904,11784],[236,-180],[-209,-242],[229,-396],[-444,-416],[-58,-356],[572,-1609]],[[56230,8585],[-56,-694],[-320,-132],[-1429,256]],[[53433,6977],[-1420,313]],[[52013,7290],[-7,789],[660,674],[94,319],[-214,311],[82,172],[-299,196],[821,1203],[-1224,763]],[[51926,11717],[217,354],[334,-45],[26,433],[428,80],[62,453],[395,366],[-176,300],[256,276]],[[44540,37352],[-746,-277],[-101,-249],[-1227,451],[-429,-553],[-107,-547],[-709,351],[-449,-45],[-168,-274],[-295,55],[-67,246],[535,594],[-754,-616],[-609,-225],[-357,-60],[-434,179],[-325,-263],[14,-326],[-1512,-1099]],[[36800,34694],[-348,101],[-153,239],[-803,-460],[-320,64]],[[30867,60013],[388,1279],[1448,616]],[[35842,60770],[-246,95],[236,-540],[-464,-369],[-10,-295],[1357,-1234],[-226,-230],[-656,-152],[-127,-236],[-535,-14],[-100,-281],[-190,-22],[256,-1676],[-300,-51],[-79,-422],[-571,-683],[-3894,-1583]],[[72624,49171],[-38,-151],[-404,-72]],[[72182,48948],[-2500,-1346]],[[69682,47602],[-4750,3434],[565,810]],[[65497,51846],[346,0],[1591,1552],[-174,585]],[[67093,55013],[3340,-419],[-313,626],[369,398],[96,506],[-402,115],[-220,414],[197,395],[-270,27],[27,112],[1985,505],[247,-313],[254,3],[-826,1397],[-306,-84],[-256,121],[-73,-171],[-635,41],[-642,-196],[-252,149],[-1536,171],[-909,-531],[60,-421],[-472,-302]],[[66556,57556],[202,406],[-637,987],[364,319],[872,239],[406,544],[202,-19],[254,291],[75,598],[901,212],[232,197],[200,256],[-343,586],[116,450]],[[73441,66152],[3494,-1748]],[[76966,56834],[-946,300],[52,-309],[-396,-1214],[296,120],[29,-402],[371,108],[189,-216],[-82,-642],[164,-36],[-520,-1543],[-1,-247],[250,-160],[1,-425]],[[21248,86910],[-483,-690],[592,-390],[-193,-378]],[[21164,85452],[-316,-311]],[[20848,85141],[-118,151],[-2667,11],[-33,357],[-482,33],[-358,-217],[-1328,316],[-2276,-607]],[[35707,89524],[-170,-430],[-1101,-550]],[[25961,90030],[138,149],[400,-68],[383,-311],[670,-76],[-107,824],[990,-440],[2852,1729],[671,25],[2110,-451]],[[34068,91411],[1639,-1887]],[[16607,76680],[-734,330],[-1469,-112]],[[14404,76898],[-266,628],[918,160],[434,643],[-1832,-229],[-62,329],[-498,81],[111,114]],[[15196,79245],[564,-510],[614,674],[406,154]],[[17845,79156],[230,-133],[-1002,-597],[-40,-775],[1138,-413]],[[58029,70891],[427,-93],[1059,-739],[183,-392]],[[59698,69667],[-319,-14],[-295,-651]],[[59084,69002],[-269,-223]],[[58815,68779],[-356,112],[-683,-219],[-259,270],[-697,155]],[[56820,69097],[352,51],[332,363],[-28,249],[-284,-16],[11,239],[-204,-44],[257,338],[-143,61],[474,9],[-262,207],[297,24],[121,242],[84,-471],[202,542]],[[40185,16460],[-279,180],[1019,220],[862,-275]],[[41787,16585],[233,-139],[1013,166],[-90,-155],[1264,-417]],[[44207,16040],[53,-606],[-528,-109],[-7,-2554]],[[21156,57995],[-2052,2252],[-33,212]],[[19071,60459],[-459,856],[121,368],[-407,450],[118,227],[-142,148]],[[18302,62508],[803,1284],[525,22],[366,386],[157,444],[-118,402]],[[20035,65046],[1882,987],[3071,-815]],[[20828,47915],[33,-135],[-383,-96],[-1032,-1609],[251,-167],[-377,-328],[229,-291],[-396,-392],[98,-419],[-383,-237],[-55,-189],[235,-237],[-587,-680],[162,-172],[-417,23]],[[12315,41262],[-189,383],[91,391],[-595,1017],[660,331],[244,801],[-350,1016],[-415,337],[77,1054]],[[11838,46592],[663,328],[637,-292],[326,-20],[369,277],[770,19],[68,-235],[337,-114],[566,48],[298,353],[571,-167],[326,402],[984,-132],[-50,382],[614,48],[330,427],[2181,-1]],[[69400,62622],[-1071,217]],[[68329,62839],[-849,204],[-971,2040],[653,374],[101,228],[-250,711],[-190,93],[-9,602],[816,657],[814,109],[886,718],[-50,191]],[[69280,68766],[955,-393],[537,-33],[678,-367],[158,497]],[[71608,68470],[1783,-1675],[50,-643]],[[73441,66152],[-526,-353],[428,-458],[-105,-663],[-474,-58],[55,-128],[-512,-214],[35,-193],[-1037,-877],[-459,111],[-724,-126],[-722,-571]],[[62882,34211],[-706,-2162],[19,-626],[217,-168],[-401,-415],[-989,-680],[-911,352],[-435,-600],[-540,100],[-416,-102],[-227,-237],[53,-525],[-1312,56],[-482,-222],[-608,453],[-1141,-875]],[[55003,28560],[-13,380],[263,110],[450,800],[426,196],[260,432],[450,299],[-84,736]],[[58678,34588],[642,448],[1004,-117],[95,-1011],[592,-207],[1219,459],[179,2],[4,-249],[183,35],[286,263]],[[68404,71395],[-111,109]],[[68293,71504],[-944,927],[-103,384]],[[67246,72815],[117,225],[1043,469]],[[68406,73509],[1059,-78],[713,-255],[389,137],[2358,-137]],[[72925,73176],[-263,-1538]],[[72662,71638],[-1234,-132],[-73,-205],[-413,-102],[-1441,385],[-162,-132],[-935,-57]],[[66072,75673],[-56,264],[718,722]],[[66734,76659],[685,908],[-332,619],[918,193],[458,306],[75,291],[541,-164]],[[69079,78812],[-753,-2696],[-24,-1147]],[[68302,74969],[-775,868],[-424,-86],[-71,-174],[-194,-5],[-328,345],[-438,-244]],[[59292,72450],[-253,201],[49,533],[104,152],[584,-28]],[[61731,71507],[-126,90],[-211,-373],[-256,-16],[-65,-346],[-378,29],[18,-315]],[[60713,70576],[-276,558],[-920,255],[156,454],[-327,139],[94,367],[-148,101]],[[18171,77238],[287,-208],[-333,-697],[761,-245],[-177,-180],[96,-183]],[[17765,74902],[-740,-47],[-418,1825]],[[16607,76680],[730,88],[245,169],[517,-106],[72,407]],[[83669,60985],[799,-1128]],[[77716,63762],[821,166],[956,-57],[-49,214],[615,372],[391,-143],[630,94],[423,-189],[269,133],[292,-97],[342,278]],[[82406,64533],[311,-628],[-500,-622],[26,-270],[1024,-21]],[[83267,62992],[-121,-1335],[523,-672]],[[59776,73308],[-446,183],[215,70],[-87,434]],[[59458,73995],[378,-14],[296,-310],[174,324],[394,-78],[125,109],[66,-233],[274,57],[198,-187],[191,216],[-175,89],[545,16],[150,621],[1428,-484],[341,488],[292,-405]],[[64135,74204],[-156,-696],[-642,-44],[-212,-91],[44,-139]],[[61594,72547],[-48,282],[-571,-180],[-440,518],[-386,28],[-220,-234],[-474,147],[321,200]],[[56558,87731],[675,-91],[1008,267],[1307,-1009],[271,-475]],[[54153,89318],[611,-385],[638,-27],[587,-813],[569,-362]],[[56558,87731],[-24,-103],[-436,90],[-561,-251],[-16,-362],[-362,72],[200,-761],[-101,-237],[-528,109],[-580,-551],[-38,-298]],[[16472,24789],[-225,678],[-1109,1038],[-95,1670],[-217,691],[577,817],[23,472],[-155,440],[-574,361],[-313,568],[-687,671],[120,418],[-153,783],[189,558],[-287,584]],[[24416,30455],[1864,-1762]],[[26280,28693],[-909,-530],[-89,-440],[-531,-464],[-1241,-307],[-328,-727],[-1700,-215],[-402,-223],[-818,10],[-770,-1176],[-807,52],[-619,-162],[-151,266],[-1443,12]],[[50084,72213],[-3766,-1904],[-328,455],[-61,531],[-543,38],[-542,348],[-406,35],[248,748],[453,419]],[[45139,72883],[241,146],[-24,281],[207,47],[21,330],[721,150],[197,-197],[818,-184],[84,536],[944,154],[137,-158],[653,-131],[371,162],[-261,263],[1084,-24]],[[50332,74258],[2103,245],[787,612]],[[53222,75115],[536,-399],[217,-507],[407,-107],[-127,-562],[-1097,-89],[34,-881],[-2500,-47],[-66,143],[-130,-226],[-416,-24],[4,-203]],[[42947,44372],[-717,-94],[-355,-212],[-418,173],[60,270],[-1180,49],[-221,418],[-825,-327],[-1190,21],[-361,-220],[-4,-422],[-631,-318],[-19,245],[-721,-279],[-394,54],[-70,345],[-256,-56],[136,-189],[-497,-149],[-159,430],[-164,-249],[-374,-65],[-746,220],[-289,-208],[83,-146],[-269,51],[-144,-131],[-288,-517],[333,-601],[325,-136]],[[32719,48493],[168,614],[-196,98],[704,242],[233,414]],[[33628,49861],[117,-302],[267,77],[283,-205],[818,202],[39,-172],[350,79],[-121,-311],[310,-79],[316,-521],[220,82],[408,-203],[458,447],[817,98],[611,-423],[279,104],[124,-276],[845,569],[847,30],[141,-222],[454,357],[973,-1],[141,467],[618,25]],[[54592,2746],[688,686]],[[55280,3432],[1179,-956],[219,-366],[1235,-546],[901,18],[328,-623],[-314,-383],[93,-341]],[[58921,235],[-849,109],[-359,550],[-240,-245],[-656,105],[-267,-398],[-674,-356],[120,492],[-296,1121],[-777,968],[-331,165]],[[48161,79390],[-246,137],[-174,753]],[[59028,81714],[237,-231],[-106,-816],[-537,-269],[-118,-737],[-390,-575],[363,-326],[99,-635],[463,-233],[-33,-342],[455,-423]],[[59461,77127],[-1441,-928]],[[58020,76199],[-580,-1407],[-866,-65],[-3352,388]],[[53222,75115],[438,889],[-152,185],[221,282],[-271,214],[202,252],[-697,175],[-701,944],[-602,-347],[-602,-91],[-355,-327],[-960,1983],[-130,-171],[-1452,287]],[[72375,35486],[-1019,-552],[157,-229],[-511,-305],[-343,-632],[66,-185],[-650,-510],[-14,-222],[-620,-48],[-50,-401],[230,-184]],[[69621,32218],[-755,-222],[-230,77],[-247,451],[-493,199],[-210,383]],[[67686,33106],[623,788],[-239,-38],[423,486],[-13,-315],[180,272],[-52,475],[427,381],[366,1422],[119,-217],[-233,-549],[1330,1715],[658,362],[-176,35],[255,253],[-223,-171],[13,176],[-766,-707],[54,184],[-514,-763],[-217,-35],[426,673],[187,719],[211,42],[-261,-14],[-138,-268],[-49,1],[69,321],[-185,-33],[30,402],[-191,72],[-12,214],[381,312],[127,-201],[88,149],[52,689],[206,262],[-281,262],[303,180],[-224,30],[263,299]],[[70703,40971],[281,-34],[-3,-577],[-473,-1488],[166,-66],[39,226],[355,128],[541,-285],[418,111],[-3,-407],[284,26],[119,-357]],[[72427,38248],[559,-665],[-438,-861],[-588,-341],[415,-895]],[[73204,74744],[820,687],[231,100],[136,-101],[182,392],[1041,-326],[799,92]],[[76413,75588],[20,-336],[-511,-89],[-142,-572],[-764,233],[254,-829],[-256,164],[-1297,141],[-513,444]],[[49394,36992],[-741,148],[-448,-61],[-203,-211],[-671,140],[-765,-156],[-1191,206],[-565,-687],[-301,503],[31,478]],[[44540,37352],[468,1974],[-246,243],[72,290],[1224,2177],[280,16],[372,453]],[[50245,40896],[-412,-963],[570,-6],[-58,-243],[-718,-354],[97,-323],[-181,-75],[-7,-271],[-446,-279],[411,-192],[-183,-527],[354,-108],[-278,-563]],[[23321,70906],[-653,-631]],[[22668,70275],[-1893,-442],[-540,155],[-955,-36],[-706,288],[-368,-298],[-193,224],[-755,285],[199,424],[-163,338],[365,691]],[[12976,60580],[43,-312],[-138,49],[257,-1105],[-123,-123],[205,-67],[-1269,-438],[-403,57],[-1266,-681],[-996,-964],[-346,-1188]],[[8940,55808],[-1703,5]],[[7237,55813],[-22,354],[-309,202],[-49,253],[-321,-141],[-913,1015],[-229,62],[-126,-242],[-163,220],[-258,7],[-325,640],[163,291],[-515,420],[243,299],[-57,638],[811,895],[-1015,397],[1833,1736],[-1329,955],[-98,223],[292,588],[-446,107]],[[4404,64732],[477,-9],[311,-235],[555,161],[9,-317],[2028,-170],[280,-216],[449,-33],[1951,-886],[302,-569],[273,12],[186,-554],[1613,-3],[400,598],[554,284],[-574,-799]],[[13218,61996],[118,-364],[-383,-416],[23,-636]],[[53433,6977],[183,584],[809,454]],[[54425,8015],[1561,-683],[1402,-934],[66,-1997]],[[57454,4401],[-441,-159],[-464,429],[-183,-110]],[[56366,4561],[-2357,1248],[-576,1168]],[[31198,16468],[620,242],[8,435],[342,95]],[[32168,17240],[208,-437],[2548,44],[418,-157],[154,-1301],[1004,166],[270,300]],[[36591,14992],[-484,53],[-1519,-1003],[-457,-118],[-1726,108],[-1541,657],[-683,1281]],[[76117,43603],[235,168],[192,-132],[169,187],[227,-105],[231,170],[898,-288],[-101,-123],[531,-138],[177,-305],[1419,34]],[[80095,43071],[-130,-1135],[360,127],[632,-184],[-351,-574],[-1267,-1187],[-253,-1288],[-824,-729]],[[78262,38101],[-154,198],[460,444],[-144,298],[127,262],[-924,409],[-340,-81],[-658,265],[13,347],[-458,365],[106,132],[-343,984],[173,197],[-442,870],[439,812]],[[17009,35836],[-570,-369],[148,-235],[-367,-224],[-24,-183],[-1019,42],[-485,-89],[91,-232],[-1217,-8]],[[13566,34538],[-381,984],[-814,212],[86,469],[727,1067],[-158,967],[-415,323],[93,345],[-370,1148],[-19,1209]],[[12315,41262],[662,-109],[236,143],[699,-159],[1184,711],[335,-38],[711,322],[593,590],[1101,2],[370,262]],[[18206,42986],[108,-313],[522,-299],[-28,-198],[355,-301],[439,154],[149,-234],[717,-86],[768,391],[-150,-303],[-307,-25],[-312,-311],[110,-1707]],[[58631,62872],[598,74],[93,-392],[-380,-413],[333,-237],[195,-472],[474,36],[526,379],[-88,135],[518,80],[217,581]],[[61117,62643],[1729,-1213],[-1388,-1733],[-4,-201],[-357,-252],[-1120,497],[47,-479],[701,-863],[136,-781],[4407,632],[1288,-694]],[[66556,57556],[138,-468],[-134,-367],[-721,-490],[-203,-988],[661,189],[658,-181],[138,-238]],[[67093,55013],[-106,-373],[238,-113],[35,-544]],[[67260,53983],[-767,-70],[-1172,570],[-1083,-28],[-419,319],[-758,10],[-474,229],[-2144,-1958],[-1290,255],[-379,227],[-1050,-526],[-976,354],[-638,-20]],[[52711,57089],[235,88],[390,-183],[316,168],[35,302],[438,332],[81,371],[239,46],[770,821],[-15,434],[205,56],[174,-180],[96,254],[319,34],[176,-169],[73,276],[-185,51],[361,69],[91,421],[663,349],[-439,312],[-324,5],[-84,-155],[-277,201],[-440,28],[754,700],[733,207],[-55,412],[228,534],[654,40],[193,-156],[169,145],[346,-30]],[[50728,33174],[1151,910],[2829,-513],[1239,1197],[390,830],[482,161],[70,356]],[[58678,34588],[175,-387],[-416,-674],[-408,-1252],[-1274,-762]],[[56755,31513],[-234,431],[-621,-49],[-1023,-977],[-682,-309],[-1111,286],[-513,-87],[-245,78],[-16,293],[-179,62],[-889,-126],[-752,257],[-23,97],[664,230],[-98,348],[699,170],[-355,234],[169,677],[-165,120],[-653,-74]],[[42647,48759],[529,489],[-233,435]],[[42943,49683],[18,237],[258,50],[-146,302],[72,1024],[2103,2687],[-1862,681],[-480,534],[123,280]],[[43029,55478],[3033,-181],[207,434],[506,423],[-195,630],[504,333],[932,185],[-35,163],[667,292],[454,-884],[488,-192],[125,151],[-135,153],[175,123],[-425,537],[460,727],[-464,1100],[298,177],[328,773]],[[49952,60422],[-59,-396],[214,-451],[716,-166],[168,-226],[-80,-496],[335,-1],[17,-254],[765,-511],[253,-414],[446,-204],[-16,-214]],[[52711,57089],[-219,-325],[117,-628],[590,-174],[143,199],[456,-700],[763,-350],[-335,-488],[262,-406],[-337,22],[-84,-130],[191,-154],[-203,-161],[500,-320],[227,-33],[46,210],[237,-263],[568,-150],[477,107]],[[56110,53345],[-132,-430],[735,-940],[267,-112],[439,84],[-298,-577],[162,-400],[-485,-558],[-733,-2020],[657,-317],[-73,-829],[-254,-505],[265,-490]],[[56660,46251],[-426,-426],[-264,78],[-54,432],[-1018,-110],[-235,112],[-575,-341],[-512,18],[-364,-389],[-468,-5],[69,-469],[-626,-504]],[[86648,56539],[3171,-1255]],[[89819,55284],[-1147,-350],[-200,-592],[-756,-768],[-272,-937],[-329,-469],[86,-250]],[[87201,51918],[-1116,19],[-2234,972],[-944,1175],[-900,644],[-944,61],[-80,-197],[-362,147]],[[63726,70014],[-721,194],[373,299],[-37,143],[-459,17],[-151,408],[-741,82],[-51,294],[-208,56]],[[61731,71507],[127,138],[-264,902]],[[61594,72547],[1226,307],[-18,332],[367,48]],[[63169,73234],[316,-400],[453,104],[900,-219],[40,-372]],[[64878,72347],[253,-1195],[-329,-633],[87,-209],[801,245],[-78,-177]],[[65612,70378],[-310,-848],[149,-982]],[[65451,68548],[-464,-74],[-781,622],[-276,786],[-204,132]],[[19789,72047],[-2130,-143]],[[17659,71904],[-951,104]],[[16708,72008],[124,412],[251,157],[-44,931]],[[17039,73508],[726,1394]],[[17765,74902],[1278,546],[-238,277]],[[18805,75725],[1709,-612],[1324,11],[964,-778]],[[86648,56539],[-96,-259],[-329,282],[-125,-130],[-294,39],[-404,282],[-574,-140],[-387,135],[-769,-474],[-2019,-400],[-744,-636],[-286,-499]],[[80621,54739],[-350,105],[-1092,863],[-500,-18],[-350,398],[158,75],[-919,649],[-602,23]],[[76966,56834],[-1154,1783],[-916,-171],[-200,249],[-330,15],[-88,475],[-291,-116],[-520,276],[-234,-83],[13,1946],[739,-32],[734,2049],[617,-152],[1599,1331]],[[76935,64404],[781,-642]],[[77716,63762],[855,-836],[1256,-778],[233,-544],[561,-426],[299,-463],[-288,-679],[436,-648],[3400,469]],[[84468,59857],[405,-640],[-74,-1026],[348,-368],[-56,-304],[1557,-980]],[[38135,22818],[-121,409],[-350,97],[-587,-119],[127,209],[-1426,-563],[-233,-285],[-518,203],[-214,304],[-260,1],[164,129],[-17,239],[-692,-365]],[[34008,23077],[-276,287],[-538,-6],[-181,-195],[-218,170],[457,719],[-82,197],[-409,68],[55,247],[586,306],[-241,115],[343,163],[-210,459],[90,327],[-507,407],[-158,619],[287,348],[-102,201],[154,337],[399,127],[-1154,757],[-190,642]],[[32113,29372],[660,72],[641,644],[684,-50],[220,130],[425,-227],[666,147],[526,-184],[6,-227],[714,-203],[0,-113],[1004,212],[536,985],[-186,207],[408,170],[104,492],[262,53],[-45,281],[272,90],[239,415],[-67,279]],[[39182,32545],[622,-87],[78,-578],[646,356],[22,247],[338,38],[65,-235],[-457,-507],[-11,-255],[354,-286],[270,-1333]],[[41109,29905],[-126,-366],[-1495,-1093],[18,-302],[257,-257],[-79,-499],[1043,-557],[-625,-316],[312,-463],[257,-52],[-545,-521],[-37,-327],[-455,-89],[191,-149],[-329,-529],[1023,398],[342,-325],[-415,79]],[[28277,10668],[-453,302],[-1144,6],[-961,-659],[-244,-423],[-944,-255],[-1168,146],[-1790,841],[290,375],[-46,1178],[700,2099],[-129,286],[728,792]],[[23116,15356],[439,-25],[-141,-188],[3012,-771],[-62,916],[205,101],[1518,176],[99,253],[834,507],[1370,281],[530,278],[323,-275],[-45,-141]],[[31198,16468],[-1079,-334],[62,-164]],[[30181,15970],[-306,-406],[73,-190],[-1559,-683],[-66,-310],[-489,-400],[-146,-593],[152,-356],[243,-75],[80,-501],[-429,-450],[543,-1338]],[[27673,84455],[369,399],[48,552],[-156,169],[141,277],[-144,61],[188,172],[-199,-78],[-289,238],[-869,1424],[-699,112],[-134,1050]],[[25949,89515],[3358,168],[455,-254],[876,334],[939,-303],[538,69],[-195,-769],[530,-251],[865,135],[1121,-100]],[[34436,88544],[-221,-851],[-223,-303],[-524,-261]],[[33468,87129],[32,-265],[-400,-492],[159,-384],[-312,-769],[152,-659],[-647,-519]],[[36781,10207],[22,3947],[-212,838]],[[36591,14992],[344,161],[-165,702]],[[36770,15855],[396,-285],[230,295],[1753,451],[151,-45],[-153,-178],[175,-378],[261,-14],[197,248],[-47,266],[452,245]],[[40185,16460],[-239,-444],[286,-501],[-102,-179],[1118,-1567],[237,-224],[2240,-774]],[[43725,12771],[-7,-4304]],[[43718,8467],[-691,47],[-580,1052],[-1065,593],[-924,271],[-2221,-78],[-695,137],[-761,-282]],[[28029,66732],[-63,562],[-453,237],[-487,564],[-370,897],[-335,293],[313,963],[-85,240],[330,254],[-3558,164]],[[23321,70906],[270,183],[-274,826]],[[23788,74245],[1386,-19],[320,1182]],[[25494,75408],[545,1219],[779,726]],[[26818,77353],[2786,-503]],[[37951,73799],[739,-72],[27,-361],[490,-727],[343,-26]],[[39550,72613],[-383,-399],[578,-1066],[854,-529],[-217,-380],[318,-300],[-205,-470],[217,-221],[412,-87],[-142,-115],[110,-475],[-367,-5],[-184,-383],[-513,-23],[379,-457],[212,-505],[-108,-311],[316,-341],[-401,-240],[-222,68],[-526,-698],[525,-372],[1014,7]],[[41217,65311],[436,-619],[-1127,-507],[-883,-581],[-47,-185],[1343,-311],[-345,-214],[434,-278],[-393,-124],[-18,-172]],[[40617,62320],[-315,-467],[-1540,232],[378,-914],[-785,476],[-421,-176],[-497,12],[-297,-480],[80,-189],[-317,-356],[-756,37],[-305,275]],[[35842,60770],[58,781],[-3197,357]],[[32703,61908],[-195,202],[143,134],[-485,56],[-127,235],[172,136],[-543,322],[-94,727],[-351,288],[247,328],[851,117],[404,385],[541,-215],[-42,217],[865,1255],[4,314],[-489,509],[-490,225],[-351,-79],[-264,-328],[-716,-271],[24,-402],[-332,-102],[-259,158],[-257,-123],[-605,116],[-629,-92],[-578,848],[-1118,-136]],[[14702,73701],[-561,6],[-488,-540],[42,-162],[-1165,-101]],[[12530,72904],[340,343],[-108,627],[-1307,1045],[-832,35],[-1269,-236],[-853,335],[-643,-249],[-1046,-1151]],[[6812,73653],[411,862],[-118,312],[343,387],[-1413,183],[-266,286]],[[5769,75683],[412,354],[1115,258],[556,-382],[519,213],[981,-7],[1657,271],[1711,-226],[402,27],[497,334],[428,-211]],[[14047,76314],[86,-1206],[-245,-367],[-82,-727],[896,-313]],[[59819,86423],[416,-582],[468,-65],[947,-689],[957,-25],[136,-129]],[[62743,84933],[-607,-436],[-1193,-2260],[-880,370],[-60,-353],[-464,26],[-511,-566]],[[59028,81714],[-960,532],[-3399,-374],[-1685,217]],[[51813,86079],[2299,-640]],[[54112,85439],[1584,-182],[-17,-339],[351,-62],[396,196],[490,-226],[1032,36],[479,-176],[629,255],[-192,722],[491,302],[299,496],[165,-38]],[[78280,49273],[-1750,-718],[-681,-6],[-19,-314],[-1269,533],[-197,-270],[-466,-127],[-1274,800]],[[72624,49171],[763,267],[315,449],[474,187],[-210,400],[256,476],[2151,1218]],[[76373,52168],[113,-119]],[[52984,82089],[-1513,-869]],[[50556,84317],[1263,-102],[1116,-463],[-230,-425],[155,-353],[-214,-308],[38,-370],[300,-207]],[[46710,42505],[52,306],[310,-32],[673,632],[-1079,212],[-148,579],[-724,-267],[-690,296],[-502,-43],[-570,186],[-343,-367],[-818,-291],[76,656]],[[42947,44372],[444,132],[417,382],[465,1076],[608,-54],[-166,200],[-217,-65],[-298,348],[-503,72],[-184,308],[-728,235],[-111,503],[-336,149],[-291,628],[1,429],[599,44]],[[42647,48759],[737,-439],[328,-6],[84,133],[360,-165],[907,53],[388,-944],[238,-178],[425,166],[864,-431],[621,-55],[439,-399],[905,-386],[181,149],[168,-299],[1450,422],[-30,-106],[712,-303],[314,-561],[292,-135],[-166,-398],[323,-230]],[[52187,44647],[-784,-1434],[492,-222],[-328,-647],[289,-125],[-296,-911]],[[51560,41308],[-236,117],[-462,-356],[-617,-173]],[[50245,40896],[-2557,1069],[-470,-215],[-147,538],[-295,18],[-66,199]],[[21363,91010],[-152,46],[90,184],[-298,803],[-670,428],[25,602]],[[20358,93073],[1555,514]],[[21913,93587],[1125,-513],[759,-1625],[160,43],[144,-429],[281,13],[462,-681],[619,-25],[151,-234],[347,-106]],[[25961,90030],[-12,-515]],[[25949,89515],[-20,-684]],[[25929,88831],[-127,-302],[-701,-268],[-423,-41],[-139,184],[-345,-80],[-194,136],[-824,-322],[-128,94],[-1280,-231],[-520,-1091]],[[21248,86910],[-790,198],[205,628]],[[25257,78765],[-470,1224],[-623,-138]],[[24164,79851],[-714,-559],[-1197,-169],[-126,-178],[-1951,-160],[-288,272],[-486,83],[-201,337],[-552,-299],[-258,186],[-546,-208]],[[17845,79156],[-724,388],[-341,19]],[[16780,79563],[268,131],[-69,166],[1429,173],[1084,2903],[1483,-73]],[[20975,82863],[816,94],[-125,225],[368,-118],[306,158],[-173,112]],[[22167,83334],[2217,-306],[240,163],[-79,195],[909,228]],[[25454,83614],[1507,-122],[179,293],[-174,275],[459,195],[29,236],[219,-36]],[[27673,84455],[588,-175],[347,73],[340,-459],[193,80],[179,-221],[-292,-366],[665,-472],[98,-347],[185,-112],[462,169],[487,-417],[401,-107],[173,932],[-254,114],[1207,894]],[[32452,84041],[638,263],[1100,8],[553,168],[-292,-804],[-552,-662],[-255,-949],[128,-353]],[[33772,81712],[75,-948],[850,-325],[1234,-3340],[-1968,927],[163,-585],[1144,-701],[303,-494],[362,19],[44,-189],[297,-117],[-321,-676],[1321,-119],[-197,-370],[565,-303],[98,-192],[-198,-288],[407,-212]],[[37951,73799],[-455,-495],[-796,-82],[-1466,323],[-420,229],[43,187],[-467,-8],[12,290],[-199,174],[-454,-111],[-868,351],[-128,227],[-591,-25],[-169,203],[-336,-58],[-843,424],[-1210,1422]],[[29604,76850],[1292,1422],[-36,553],[227,202],[448,1674],[-204,62],[-224,1170],[-2629,67],[-1686,-1016],[133,-154],[-252,-134],[84,-455],[-790,66],[-710,-1542]],[[56889,36115],[-231,546],[-1005,286],[-257,-114],[-59,247],[-363,-142],[-350,505],[-591,-45]],[[54033,37398],[-240,795],[265,960],[-320,223],[456,1210]],[[54194,40586],[3265,6083]],[[57459,46669],[424,-420],[112,105],[700,-297],[571,306],[181,323],[364,67],[105,631],[322,-37]],[[60238,47347],[176,-310],[-131,-2445],[2501,-3774]],[[62784,40818],[-772,-514],[102,-132],[-163,-18],[1,-235],[-361,-117],[-160,-331],[-469,-95],[127,-189],[-1062,-1603],[-332,61],[-11,-341],[-343,-95],[71,-297],[-209,-183],[160,-233],[-378,-292],[76,-551],[-383,-1065]],[[58678,34588],[-323,497],[153,577],[-209,557],[-334,21],[-253,282],[-148,-303],[-178,124],[-497,-228]],[[78280,49273],[-447,461],[-345,179],[-235,-100],[-240,209],[167,97],[-195,54],[-303,580],[348,739],[-544,557]],[[76486,52049],[224,443],[-339,508],[147,125],[572,-617],[1769,-389],[1550,637],[1783,-1253],[667,-192],[895,-843],[3448,5]],[[87202,50473],[-1464,-850],[-244,-329],[-159,-426],[91,-559],[-623,-732],[-362,-1103],[-745,-65],[-370,-622],[-1006,-417],[-199,-582],[-375,-179],[-332,-558]],[[81414,44051],[-758,-139],[48,388],[518,845],[-1071,2599],[-544,303],[-155,328],[-1172,898]],[[30867,60013],[-111,-147],[735,-593],[60,-470],[-681,-291],[-190,-277],[-573,93],[-669,-164],[836,-684],[-133,-444],[769,-212],[29,-345],[456,145],[-21,-308],[364,-15],[-143,-448],[-983,-176],[-177,-167],[404,-658],[-433,-147],[527,-338],[-129,-94],[88,-549],[-263,-401],[-476,-120],[140,-126]],[[30293,53077],[-720,-225],[61,177],[-787,307],[-558,-386],[-601,172],[-847,-117],[-221,257],[-1861,-1105],[-319,216]],[[24440,52373],[731,1919],[-624,203],[-478,376],[-611,781],[-318,-225],[-877,172],[-256,253],[-776,222],[-686,-140],[-715,1231],[-938,644]],[[18892,57809],[2264,186]],[[21156,57995],[4,1406],[400,-77],[1873,2275],[1555,3619]],[[24988,65218],[775,-614],[1162,26],[170,-429]],[[27095,64201],[-535,-340],[-18,-364],[-352,-60],[-55,-265],[-213,-56],[524,-461],[-21,-219],[318,-39],[-174,-308],[283,-259],[-244,-155],[820,-462],[290,-449],[854,-110],[524,-239],[584,180],[752,-526],[435,-56]],[[36301,21566],[1834,1252]],[[38135,22818],[1217,625],[200,801],[894,293]],[[40446,24537],[-20,-404]],[[40426,24133],[154,-149],[522,92],[178,-183],[863,160],[654,-1695],[-159,-278],[434,77],[221,-183],[308,128],[-150,-232],[320,-36],[-429,-761]],[[43342,21073],[-842,-260],[-128,207],[-173,-48],[248,-534]],[[42447,20438],[-901,-206],[-249,583],[122,111],[-302,209],[-326,4],[-460,-401],[-1185,62],[-2110,688],[-735,78]],[[35176,34638],[-1143,-93],[-345,184],[-573,-211],[-136,156],[-506,-254],[-946,-109],[-603,145],[-1551,-710],[-159,227],[-386,-161],[-120,210],[-200,-31],[-530,-319],[-114,-344],[-611,-482],[-83,-249],[-263,-58],[-2491,-2084]],[[24416,30455],[-591,-237],[-87,-199],[-927,74],[-1336,-345],[-465,158],[-635,-357],[-228,335],[-495,-178],[-161,250],[462,478],[63,403],[1312,274],[927,725],[173,772],[-1045,852],[553,306],[351,1200],[182,55],[197,564],[-78,379],[366,312],[-551,687],[-1636,-495],[-188,194],[-570,91],[-166,-178],[-57,161],[-351,70],[-705,-267],[-1072,-121],[-328,-466],[-321,-116]],[[17009,35836],[-469,191],[-53,567],[-256,328],[208,247],[598,104],[-40,512],[220,40],[234,523],[787,-25],[-476,655],[280,231],[-2,265],[677,290],[329,-258],[526,95],[276,239],[729,-86]],[[20577,39754],[280,0],[851,579],[136,-114],[-106,-152],[642,-186],[383,168],[523,-68],[980,354],[956,1269],[1262,88],[795,-281],[1070,742],[-36,177],[361,-8],[401,369],[-450,612],[82,232],[-241,345],[148,214],[-111,121],[348,177],[-240,109],[31,155],[1062,398],[-77,185],[370,47],[113,327],[497,64],[530,-275],[186,143],[222,716],[-51,973],[1225,1259]],[[32719,48493],[-218,-536],[187,-73],[114,-669],[202,-105],[-165,-398],[604,-33],[-50,-363],[412,-226],[-30,-298],[-455,-573],[-1040,-381],[453,-228],[-30,-254],[203,-63],[-289,-495],[213,-117],[-473,-502],[716,-862],[519,12]],[[33592,42329],[185,50],[199,-192],[-50,-1113],[420,-143],[127,-630],[309,-198],[319,120],[938,-302],[-496,-612],[-442,-188],[1106,-518],[1037,301],[226,-125],[-383,-387],[654,-466],[284,68],[91,-218],[-51,-705],[-908,-572],[58,-142],[-423,-421],[-398,-48],[-100,-429],[-613,-414],[-591,-116],[86,-291]],[[47787,78885],[-653,-1447],[-635,-887],[-39,-616]],[[46460,75935],[-232,167],[-178,-91],[-716,-1639]],[[45334,74372],[-593,-333],[-433,189],[-532,-53],[-252,234],[-410,68],[-80,188],[-898,30],[27,-268]],[[42163,74427],[-447,939],[-599,358],[213,257],[-174,494],[-296,149],[88,293],[266,147],[-271,555],[165,276],[-235,364],[188,59],[-237,237],[208,50],[492,659],[1248,279]],[[42772,79543],[106,-157],[291,-4],[247,186],[499,-108],[279,95],[982,1174],[594,327],[594,-292],[-88,-1163],[101,126],[249,-98],[55,-786],[1106,42]],[[12870,85490],[423,214],[-366,424],[416,185],[-141,191],[282,574],[359,191],[-70,256]],[[13773,87525],[656,-1058],[-843,-1282]],[[13586,85185],[-854,-458],[-277,-320],[314,-1825]],[[12769,82582],[401,-1075],[-506,-1153]],[[4264,78078],[-46,279],[-484,403],[-218,714],[-574,-13],[1119,1010],[-169,345],[64,488],[479,254],[-18,140]],[[54153,89318],[-935,-592],[-255,123],[-984,-197],[120,-218],[-312,-247],[316,-558],[-290,-1550]],[[51813,86079],[-521,-251],[-228,-557],[-389,66],[80,-735],[-199,-285]],[[46887,87828],[-315,114],[-348,525],[56,243],[-238,75],[29,581],[-245,223],[172,401],[-419,359],[440,647],[-146,753],[614,53],[-55,-181],[143,2],[123,235],[503,-192],[-174,-95],[924,221],[332,-133],[41,439],[113,-107],[576,143]],[[49013,92134],[620,178],[967,-626],[1508,-337],[942,-726],[1103,-1305]],[[46009,84424],[1217,-209],[924,651],[341,67],[-379,909],[-435,354],[207,261],[-296,446],[-306,92],[-395,833]],[[46887,87828],[494,-149],[390,-435],[2398,-1384],[-86,-534],[-408,-381],[-276,14],[-265,-603]],[[12664,80354],[1190,-153],[1583,49]],[[15437,80250],[54,-459],[-125,-239],[-231,-33],[61,-274]],[[15196,79245],[-196,-191],[-268,3],[-403,-430],[-513,106],[-607,-109]],[[13209,78624],[-455,13],[-66,-397],[-570,-18],[-343,-364],[-1072,297],[-3143,-776],[-337,72],[-273,-272],[-716,-33],[-1159,-565],[-410,84]],[[4665,76665],[209,525],[-208,587],[-402,301]],[[4264,78078],[914,-64],[583,152],[118,316],[417,75],[696,553],[1346,120],[969,-229],[689,190],[802,-39],[413,694],[1453,508]],[[61852,23462],[-715,1093],[109,402],[-181,193]],[[61065,25150],[526,-301],[1405,-42],[532,-260],[549,403],[471,123],[-94,298],[795,293],[546,-148],[473,339],[1170,272]],[[67438,26127],[-770,-968],[328,-462],[-625,-510],[212,-630],[-133,-212],[-249,-22],[-245,-629]],[[65956,22694],[-3085,935],[-656,2],[-363,-169]],[[51471,81220],[-1097,104],[-392,-249],[-307,225],[-368,-680],[-683,56],[-50,-222],[-833,-174]],[[47741,80280],[-252,779],[-326,-51],[-360,410],[-587,102],[-409,561],[-39,474]],[[47884,82821],[1727,-129],[-851,1065],[374,599]],[[49134,84356],[626,102],[796,-141]],[[50556,84317],[191,-1658],[429,-264],[254,63],[41,-1238]],[[43806,83396],[1225,1018],[978,10]],[[46009,84424],[315,-545],[1700,-475],[-502,-198],[161,-336],[201,-49]],[[47884,82821],[-567,-43],[-136,293],[-1413,-516]],[[45768,82555],[11,219],[-1037,136],[-232,420],[-704,66]],[[20663,87736],[-888,-126],[-461,140],[-294,286],[668,455],[-821,215],[-766,-125],[-267,-491],[-373,-254],[-732,365],[119,-799],[-386,-145],[-6,-144],[-846,313],[-621,83],[-378,-157],[-838,173]],[[13773,87525],[478,972],[-209,175],[-953,-224],[-67,111],[674,544],[1,534],[777,273],[124,246],[55,254],[-329,-68],[-323,215],[452,100],[-458,331],[319,132],[-286,175],[99,343],[2550,-501]],[[16677,91137],[1412,-271],[3274,144]],[[21363,91010],[1218,-407],[-165,-339],[224,-538],[-642,-1248],[-532,-380],[-409,-86],[99,-356],[-493,80]],[[23317,71915],[-969,-725],[-697,-215],[-891,937],[-971,135]],[[19789,72047],[1255,589],[633,112],[120,657],[-445,703],[1450,238]],[[22802,74346],[986,-101]],[[23788,74245],[-140,-348],[147,-970],[-327,-96],[101,-396],[-252,-520]],[[50951,25543],[1476,-538],[377,-4],[270,-367],[750,-109],[130,-185],[-257,-368],[229,-83],[-9,-504],[737,-11],[339,-374],[16,-405],[509,-83]],[[55518,22512],[-610,-259],[-1156,-1945],[-101,-718]],[[53651,19590],[-508,-269],[-1421,-86],[-1739,-475]],[[49983,18760],[-1347,-326]],[[48636,18434],[-569,536],[-1547,-55],[131,243],[-191,188],[302,223],[-266,527],[-224,-169],[-217,59],[-125,535],[-217,126],[155,657]],[[45868,21304],[363,498],[410,-80],[253,-386],[365,-57],[242,-239],[567,150],[482,537],[347,-274],[406,124],[188,-160],[471,107],[250,-104],[689,341],[40,243],[-627,88],[-273,236],[422,435],[50,363],[629,193],[24,361],[210,200],[29,332],[-407,428],[-273,-47],[-82,133],[-38,367],[398,295],[-52,155]],[[4417,81698],[-960,237],[-275,218],[-857,47],[-401,180],[287,1055],[-326,708],[-555,201],[-77,212],[158,193],[666,81],[269,345],[36,651],[507,220]],[[2889,86046],[356,256],[619,-27],[218,409],[398,30],[397,378],[-295,163],[311,195],[267,-64],[742,889],[172,1798],[506,-1488],[547,96],[1855,-650],[-68,-208],[1156,-414],[2800,-1919]],[[12870,85490],[236,-239],[-733,-375],[-625,-658],[-842,-561],[-858,-283],[-184,-243],[142,-147],[-431,11],[-133,-231],[-528,-152],[-687,-481],[-688,-175],[-270,-234],[-782,326],[-869,-175],[-171,156],[-577,-450],[-453,119]]]}