{"type":"Topology","objects":{"data":{"geometries":[{"properties":{"cd_mun_ibge":"5300108"},"type":"MultiPolygon","arcs":[[[0]]],"id":0}],"type":"GeometryCollection"}},"bbox":[-48.28512162260892,-16.049971417623116,-47.30850421980152,-15.5018199],"transform":{"scale":[9.766271690790899e-06,5.481569991931086e-06],"translate":[-48.28512162260892,-16.049971417623116]},"arcs":[[[27561,47],[-26813,21],[552,7413],[2277,11195],[-1093,3569],[-1587,-584],[699,2596],[-776,1745],[560,4328],[-1380,8563],[1885,5457],[2629,1388],[3210,8248],[82,7057],[-3245,1642],[-77,3585],[734,8173],[1633,3388],[1893,77],[-29,22007],[80031,84],[63,-8107],[1538,-218],[2688,-5329],[6000,-2301],[-1639,-7353],[750,-4202],[-499,-5635],[1944,-2514],[-873,-4374],[816,-3800],[-4337,-14842],[-1230,-934],[-468,-8302],[-892,-1308],[595,-4683],[959,-464],[-365,-2024],[807,-960],[-1257,-2001],[512,-1876],[-1095,-4884],[1014,-5334],[3085,-1688],[-173,-1263],[3156,-3104],[154,-2499],[-72438,47]]]}