{"type":"Topology","objects":{"data":{"geometries":[{"properties":{"cd_mun_ibge":"3200102"},"type":"MultiPolygon","arcs":[[[-31,-253,-27,-18,0,-116,-100,-203]]],"id":0},{"properties":{"cd_mun_ibge":"3200136"},"type":"MultiPolygon","arcs":[[[-124,-12,-159,-218,-217,-166]]],"id":1},{"properties":{"cd_mun_ibge":"3200169"},"type":"MultiPolygon","arcs":[[[-34,-14,1]]],"id":2},{"properties":{"cd_mun_ibge":"3200201"},"type":"MultiPolygon","arcs":[[[-21,-19,-108,-140,-221,-43,-87,-149]]],"id":3},{"properties":{"cd_mun_ibge":"3200300"},"type":"MultiPolygon","arcs":[[[-62,-6,-90,-195,-248,-29,-134]]],"id":4},{"properties":{"cd_mun_ibge":"3200359"},"type":"MultiPolygon","arcs":[[[-125,-164,2]]],"id":5},{"properties":{"cd_mun_ibge":"3200409"},"type":"MultiPolygon","arcs":[[[3]],[[4]],[[-180,-91,5,-61,6]]],"id":6},{"properties":{"cd_mun_ibge":"3200508"},"type":"MultiPolygon","arcs":[[[-15,-223,-139,7]]],"id":7},{"properties":{"cd_mun_ibge":"3200607"},"type":"MultiPolygon","arcs":[[[8]],[[-110,-122,9,-37,-83]]],"id":8},{"properties":{"cd_mun_ibge":"3200706"},"type":"MultiPolygon","arcs":[[[-20,-96,-189,-142,-157]]],"id":9},{"properties":{"cd_mun_ibge":"3200805"},"type":"MultiPolygon","arcs":[[[-168,-23,-93,-113,10]]],"id":10},{"properties":{"cd_mun_ibge":"3200904"},"type":"MultiPolygon","arcs":[[[-36,-260,-160,11,-123,12,13]]],"id":11},{"properties":{"cd_mun_ibge":"3201001"},"type":"MultiPolygon","arcs":[[[-162,-185,-174,-229]]],"id":12},{"properties":{"cd_mun_ibge":"3201100"},"type":"MultiPolygon","arcs":[[[-224,14,15]]],"id":13},{"properties":{"cd_mun_ibge":"3201159"},"type":"MultiPolygon","arcs":[[[-153,-81,16,17,-26]]],"id":14},{"properties":{"cd_mun_ibge":"3201209"},"type":"MultiPolygon","arcs":[[[-156,-107,18,-22,-251,-97,19]]],"id":15},{"properties":{"cd_mun_ibge":"3201308"},"type":"MultiPolygon","arcs":[[[-28,-199,-240,-306,-273,-259]]],"id":16},{"properties":{"cd_mun_ibge":"3201407"},"type":"MultiPolygon","arcs":[[[20,-148,-25,-255,-30,-246,21]]],"id":17},{"properties":{"cd_mun_ibge":"3201506"},"type":"MultiPolygon","arcs":[[[-94,22,-167,-215,-39,-138,-118,-109,-238]]],"id":18},{"properties":{"cd_mun_ibge":"3201605"},"type":"MultiPolygon","arcs":[[[-231,-173,-171,23]]],"id":19},{"properties":{"cd_mun_ibge":"3201704"},"type":"MultiPolygon","arcs":[[[24,-154,25,26,-252]]],"id":20},{"properties":{"cd_mun_ibge":"3201803"},"type":"MultiPolygon","arcs":[[[-89,-42,-32]]],"id":21},{"properties":{"cd_mun_ibge":"3201902"},"type":"MultiPolygon","arcs":[[[27,-258,-135,28,-247,29,-254,30,-202,-200]]],"id":22},{"properties":{"cd_mun_ibge":"3202009"},"type":"MultiPolygon","arcs":[[[-85,31,-41,32]]],"id":23},{"properties":{"cd_mun_ibge":"3202108"},"type":"MultiPolygon","arcs":[[[33,34,-146,-187,-161,-261,35]]],"id":24},{"properties":{"cd_mun_ibge":"3202207"},"type":"MultiPolygon","arcs":[[[-201,-211,-84,36,37,-242]]],"id":25},{"properties":{"cd_mun_ibge":"3202256"},"type":"MultiPolygon","arcs":[[[-193,-119,-136,38,-214]]],"id":26},{"properties":{"cd_mun_ibge":"3202306"},"type":"MultiPolygon","arcs":[[[-226,39,40,41,-88,42]]],"id":27},{"properties":{"cd_mun_ibge":"3202405"},"type":"MultiPolygon","arcs":[[[43]],[[44]],[[45]],[[46]],[[47]],[[48]],[[49]],[[50]],[[51]],[[52]],[[53]],[[54]],[[55]],[[56]],[[57]],[[58]],[[59]],[[60,61,-133,-256,-271,62]],[[63]],[[64]],[[65]],[[66]],[[67]],[[68]],[[69]],[[70]],[[71]],[[72]],[[73]],[[74]],[[75]],[[76]],[[77]],[[78]],[[79]]],"id":28},{"properties":{"cd_mun_ibge":"3202454"},"type":"MultiPolygon","arcs":[[[80,-152,-106,-92,-104,81]]],"id":29},{"properties":{"cd_mun_ibge":"3202504"},"type":"MultiPolygon","arcs":[[[-210,-111,82,83]]],"id":30},{"properties":{"cd_mun_ibge":"3202553"},"type":"MultiPolygon","arcs":[[[84,85,-102,-150,86,87,88]]],"id":31},{"properties":{"cd_mun_ibge":"3202603"},"type":"MultiPolygon","arcs":[[[-179,-196,89,90]]],"id":32},{"properties":{"cd_mun_ibge":"3202652"},"type":"MultiPolygon","arcs":[[[91,-105]]],"id":33},{"properties":{"cd_mun_ibge":"3202702"},"type":"MultiPolygon","arcs":[[[-114,92,93,-237,-208,-101]]],"id":34},{"properties":{"cd_mun_ibge":"3202801"},"type":"MultiPolygon","arcs":[[[94,-129,-190,95,96,-250,-198,-178]],[[97]],[[98]]],"id":35},{"properties":{"cd_mun_ibge":"3202900"},"type":"MultiPolygon","arcs":[[[-207,-204,99,-115,100]]],"id":36},{"properties":{"cd_mun_ibge":"3203007"},"type":"MultiPolygon","arcs":[[[101,102,103,104,105,-151]]],"id":37},{"properties":{"cd_mun_ibge":"3203056"},"type":"MultiPolygon","arcs":[[[-267,-234,-120,-244]]],"id":38},{"properties":{"cd_mun_ibge":"3203106"},"type":"MultiPolygon","arcs":[[[106,-155,-141,107]]],"id":39},{"properties":{"cd_mun_ibge":"3203130"},"type":"MultiPolygon","arcs":[[[-209,-235,108,-117,109,110]]],"id":40},{"properties":{"cd_mun_ibge":"3203163"},"type":"MultiPolygon","arcs":[[[111,112,113,114,115]]],"id":41},{"properties":{"cd_mun_ibge":"3203205"},"type":"MultiPolygon","arcs":[[[116,117,-137,118,-194,-245,119,-233,120,121]]],"id":42},{"properties":{"cd_mun_ibge":"3203304"},"type":"MultiPolygon","arcs":[[[122,123,-165,124,125]]],"id":43},{"properties":{"cd_mun_ibge":"3203320"},"type":"MultiPolygon","arcs":[[[126]],[[127,-191,128]],[[129]],[[130]],[[131]]],"id":44},{"properties":{"cd_mun_ibge":"3203346"},"type":"MultiPolygon","arcs":[[[-257,132,133,134]]],"id":45},{"properties":{"cd_mun_ibge":"3203353"},"type":"MultiPolygon","arcs":[[[135,136,137]]],"id":46},{"properties":{"cd_mun_ibge":"3203403"},"type":"MultiPolygon","arcs":[[[138,-222,139,140,-158,141,-188,142]]],"id":47},{"properties":{"cd_mun_ibge":"3203502"},"type":"MultiPolygon","arcs":[[[-183,-145,143,-169,-175]]],"id":48},{"properties":{"cd_mun_ibge":"3203601"},"type":"MultiPolygon","arcs":[[[144,-182,145,146]]],"id":49},{"properties":{"cd_mun_ibge":"3203700"},"type":"MultiPolygon","arcs":[[[147,148,149,150,151,152,153]]],"id":50},{"properties":{"cd_mun_ibge":"3203809"},"type":"MultiPolygon","arcs":[[[154,155,156,157]]],"id":51},{"properties":{"cd_mun_ibge":"3203908"},"type":"MultiPolygon","arcs":[[[-228,-219,158,159,-262,160,-186,161]]],"id":52},{"properties":{"cd_mun_ibge":"3204005"},"type":"MultiPolygon","arcs":[[[162,163,164,165,-216,166,167]]],"id":53},{"properties":{"cd_mun_ibge":"3204054"},"type":"MultiPolygon","arcs":[[[-172,168,169,170]]],"id":54},{"properties":{"cd_mun_ibge":"3204104"},"type":"MultiPolygon","arcs":[[[171,172,-230,173,-184,174]]],"id":55},{"properties":{"cd_mun_ibge":"3204203"},"type":"MultiPolygon","arcs":[[[175]],[[176]],[[177,-197,178,179,180]]],"id":56},{"properties":{"cd_mun_ibge":"3204252"},"type":"MultiPolygon","arcs":[[[181,182,183,184,185,186]]],"id":57},{"properties":{"cd_mun_ibge":"3204302"},"type":"MultiPolygon","arcs":[[[187,188,189,190,191]]],"id":58},{"properties":{"cd_mun_ibge":"3204351"},"type":"MultiPolygon","arcs":[[[192,-213,-263,-243,193]]],"id":59},{"properties":{"cd_mun_ibge":"3204401"},"type":"MultiPolygon","arcs":[[[-249,194,195,196,197]]],"id":60},{"properties":{"cd_mun_ibge":"3204500"},"type":"MultiPolygon","arcs":[[[198,199,-205,-212,200,-241]]],"id":61},{"properties":{"cd_mun_ibge":"3204559"},"type":"MultiPolygon","arcs":[[[201,202,203,-206,204]]],"id":62},{"properties":{"cd_mun_ibge":"3204609"},"type":"MultiPolygon","arcs":[[[205,206,207,-236,208,209,210,211]]],"id":63},{"properties":{"cd_mun_ibge":"3204658"},"type":"MultiPolygon","arcs":[[[212,213,214,215,216,-220,-264]]],"id":64},{"properties":{"cd_mun_ibge":"3204708"},"type":"MultiPolygon","arcs":[[[217,218,-227,-265,219]]],"id":65},{"properties":{"cd_mun_ibge":"3204807"},"type":"MultiPolygon","arcs":[[[220,221,222,223,224,225]]],"id":66},{"properties":{"cd_mun_ibge":"3204906"},"type":"MultiPolygon","arcs":[[[-266,226,227,228,229,230,231,232,233]]],"id":67},{"properties":{"cd_mun_ibge":"3204955"},"type":"MultiPolygon","arcs":[[[234,235,236,237]]],"id":68},{"properties":{"cd_mun_ibge":"3205002"},"type":"MultiPolygon","arcs":[[[238,-307,239,240,241]]],"id":69},{"properties":{"cd_mun_ibge":"3205010"},"type":"MultiPolygon","arcs":[[[242,-268,243,244]]],"id":70},{"properties":{"cd_mun_ibge":"3205036"},"type":"MultiPolygon","arcs":[[[245,246,247,248,249,250]]],"id":71},{"properties":{"cd_mun_ibge":"3205069"},"type":"MultiPolygon","arcs":[[[251,252,253,254]]],"id":72},{"properties":{"cd_mun_ibge":"3205101"},"type":"MultiPolygon","arcs":[[[-272,255,256,257,258]]],"id":73},{"properties":{"cd_mun_ibge":"3205150"},"type":"MultiPolygon","arcs":[[[259,260,261]]],"id":74},{"properties":{"cd_mun_ibge":"3205176"},"type":"MultiPolygon","arcs":[[[262,263,264,265,266,267]]],"id":75},{"properties":{"cd_mun_ibge":"3205200"},"type":"MultiPolygon","arcs":[[[268]],[[269,270,271,272,-305]],[[273]],[[274]],[[275]],[[276]],[[277]],[[278]],[[279]],[[280]],[[281]],[[282]],[[283]],[[284]],[[285]],[[286]],[[287]],[[288]],[[289]],[[290]],[[291]],[[292]],[[293]],[[294]],[[295]],[[296]],[[297]]],"id":76},{"properties":{"cd_mun_ibge":"3205309"},"type":"MultiPolygon","arcs":[[[298]],[[299]],[[300]],[[301]],[[302]],[[303]],[[304,305,306,307]],[[308]],[[309]],[[310]],[[311]],[[312]],[[313]]],"id":77}],"type":"GeometryCollection"}},"bbox":[-41.87963931397402,-21.301782,-28.847848414701318,-17.8919446],"transform":{"scale":[0.00013031921218484884,3.409871498714988e-05],"translate":[-41.87963931397402,-21.301782]},"arcs":[[[4667,39872],[129,295],[78,-153],[126,949],[164,28],[151,367]],[[7199,76574],[-81,290],[-275,79],[-340,747],[-2,237],[-92,-109],[22,250],[-87,251],[157,384],[-3,308],[-70,65],[200,3770],[-37,535],[-1213,442],[-15,318],[108,512],[172,290]],[[7024,63921],[-131,283],[-26,346],[-184,41],[34,427],[-82,-205],[18,468],[-98,-123],[-218,326],[4,284],[-94,230],[18,353],[-66,453],[36,495],[386,899],[-183,-128],[-77,162],[-5,262],[-87,8],[-18,619]],[[9173,13915],[-2,-13],[-4,14],[1,4],[5,-5]],[[9834,14501],[-7,-31],[-12,34],[17,15],[2,-18]],[[7988,18013],[-7,285],[538,-790],[-7,798],[84,567],[116,3],[23,391],[115,-32],[-11,399],[127,529],[318,588],[-23,545],[-88,30],[29,511]],[[10043,15737],[-46,-455],[57,-216],[-58,-7],[-73,-537],[-164,18],[-154,-1026],[-9,654],[-186,375],[-367,-842]],[[2471,3769],[-51,-304],[-43,117],[-130,885],[-198,-221],[-72,294],[-180,103]],[[13398,39090],[-5,-8],[4,32],[1,-8],[0,-16]],[[15101,47355],[-508,-1382],[-516,-1950],[-104,-818],[34,-429],[-63,-22],[70,-176],[-65,7],[-162,-771],[-127,-1252],[-411,-916],[158,-490],[-169,-1335]],[[5410,45003],[-126,627],[89,169],[20,1214],[105,1000],[188,172],[83,502],[148,63],[71,1034],[71,248],[122,-85],[17,418],[120,-12],[-5,212],[154,209],[-75,2436],[212,-513],[236,-90],[123,78],[68,644],[111,321],[31,360],[-179,1008],[85,789],[220,497],[-77,1051],[236,1092],[-52,237],[-129,26],[25,403],[-126,160],[188,270],[29,367],[-172,280],[43,198],[-70,259],[52,326]],[[8571,71942],[-196,-291],[-209,500],[-143,-570],[-211,-30],[3,-1007],[-153,100],[-129,-246]],[[6555,72278],[472,-117],[130,445],[68,-167],[164,474],[-179,1327],[-11,2334]],[[7199,76574],[83,260],[41,-334],[75,244],[131,-135],[-90,753],[37,1536],[-193,905],[82,670],[106,292],[29,598],[-133,195],[-7,251],[65,58],[-48,357],[35,138],[-89,209],[52,1073],[-57,316]],[[2212,8625],[147,-485],[-110,-950],[10,-276],[113,-262],[-254,-971],[-166,-282],[-155,-756]],[[1797,4643],[-151,328],[15,222],[-117,-258],[6,276],[-127,256],[-89,-160],[6,-205],[-93,74],[-9,260],[102,175],[-92,157]],[[3561,32096],[50,283],[207,261],[47,787],[218,1116],[18,1024],[59,59],[30,825],[72,190],[124,1154],[-92,968],[133,1230],[240,-121]],[[4667,39872],[-19,-479],[98,-66],[20,-309],[-42,-447],[76,107],[118,-683],[-111,-637],[157,-701],[-164,-906],[115,-904],[123,-395],[-58,-152],[3,-919],[-97,179],[-71,-693],[92,-855],[-117,52],[119,-351],[105,-1049],[-128,-261],[32,-365]],[[3810,18116],[-44,405],[124,656],[-57,346],[46,226]],[[6037,10217],[-1,593],[-141,191],[-148,-124],[-49,655],[-140,514],[-83,-252],[-124,99],[-143,464],[-141,-251],[-23,229],[-122,-21],[-51,391]],[[3879,19749],[-133,122],[-109,1439],[-69,66]],[[6155,20168],[-166,160],[-105,-244],[-144,75],[-33,-494],[-114,-349],[-129,-47],[-97,-282],[3,-372],[-107,-157],[-469,278],[-263,598],[-126,-261],[-125,538],[-20,456],[-126,337],[-90,-192],[13,-333],[-123,94],[-55,-224]],[[8023,50825],[55,1013],[64,156],[-294,517],[16,215],[112,11],[46,396],[-131,410],[-201,34],[-46,774],[185,826],[-15,611],[72,112],[25,445],[179,149],[38,544]],[[15100,91580],[1886,-4522],[-444,-4731],[-34,-3418],[-139,-2788]],[[5283,25109],[-95,-289],[-88,300],[-69,-283],[132,-789],[-25,-272],[-197,103],[-51,-369],[-152,406],[-67,-175],[-95,126],[24,-585],[-48,56],[-102,-455],[-151,706],[-63,-4]],[[4367,30277],[122,328],[-108,469],[66,375],[86,-112],[21,-293],[103,286],[42,-484],[86,-162],[-70,-396],[203,-250]],[[4918,30038],[162,-41],[248,571],[152,-245],[57,-430]],[[9861,30983],[-81,-181],[4,-465],[171,-727]],[[7422,25019],[-373,546],[-208,-199]],[[6447,23989],[-47,211],[-43,-124],[-13,613]],[[5701,29740],[84,646],[175,-278],[25,271],[145,100],[94,523],[5,712],[167,-457],[67,252],[88,-106],[3,548],[175,-63]],[[746,23392],[63,-567],[-43,-709],[-171,-1175],[274,-612],[-34,-485],[128,-76],[25,-322]],[[269,15380],[-58,398],[-157,-80],[-54,279],[52,414],[125,-141],[-67,753],[70,226],[-55,99],[301,1404],[-27,195],[63,-41],[93,414],[-107,192],[29,369],[-167,-8],[-134,266],[118,449],[99,1265],[184,407],[-161,1764],[199,183]],[[7318,83960],[-78,449],[80,407],[-67,363],[-64,-239],[-62,105],[37,406],[-90,150],[-192,-280],[48,-186],[-46,-305],[-167,91],[-46,763],[-93,-333],[-133,214],[44,569],[-153,634],[-113,-398],[4,-292],[-153,-261],[1,-368],[-95,-424],[-179,-201],[-158,119]],[[5643,84943],[-124,74],[-16,353],[127,496],[-100,1924],[474,1515],[-42,576],[87,196],[-101,498],[80,135],[10,390],[279,485],[3,359],[159,112],[11,-273],[44,423],[104,3],[31,-288],[162,-95],[70,858],[198,-385],[35,740],[136,-212],[300,839],[32,-473],[87,135],[250,-891],[394,-304],[170,124],[-14,1419],[-993,3514],[26,149],[63,-11],[65,366],[37,-328],[113,-193],[200,913],[50,88],[43,-279],[129,341],[125,-570],[-24,-300],[99,190],[84,-170],[-5,-655],[161,-191],[192,254],[157,-664],[162,402],[170,-75]],[[9420,81781],[-370,161],[-232,1246],[-151,-64],[-103,-518],[-198,139],[13,-365],[-113,-171],[-299,12],[-54,125],[-52,992],[47,111],[-6,664],[-183,152],[-223,-240],[-25,358],[-153,-423]],[[11768,40908],[59,-33],[90,-1125],[145,-127],[33,-590],[247,-233],[-50,-315],[79,-198],[7,-382],[106,257],[112,-257],[202,227],[27,391],[293,-310],[120,-392]],[[13238,37821],[-34,-696],[-190,-113],[-62,-433]],[[10248,58394],[78,631],[-135,460],[-244,-204],[-114,444],[-112,-303]],[[1119,10512],[-27,456],[115,133],[30,658],[-61,247],[114,601],[-118,240],[-25,-211],[-99,32],[25,1534],[-319,582],[-250,-228],[63,232],[-170,12],[27,259],[-155,321]],[[269,15380],[-33,1174],[122,-261],[130,384],[110,-238],[52,550],[120,173],[-109,1072],[168,608],[-44,345],[203,259]],[[988,19446],[198,-268],[139,-705],[56,186],[358,-17],[-1,444],[-99,12],[45,382]],[[2151,18689],[24,-423],[-101,-232],[-16,-521],[111,-295],[14,-397],[-75,-47],[-36,-632],[-162,-761],[38,-742],[78,50],[9,-185],[-74,-462],[48,-653],[-80,-487]],[[10207,15821],[-4,0],[3,29],[3,-4],[-2,-25]],[[10226,15901],[-4,15],[1,8],[10,-23],[-7,0]],[[10222,15945],[3,15],[1,-3],[-7,-24],[3,12]],[[10260,16393],[3,11],[7,10],[-10,-41],[0,20]],[[10370,16570],[4,5],[-6,-22],[0,11],[2,6]],[[10386,16713],[-1,0],[-4,-8],[4,13],[4,-2],[-3,-3]],[[10409,16752],[-2,-6],[-3,10],[1,2],[4,-6]],[[10402,16762],[-3,-3],[3,27],[1,-3],[-1,-21]],[[10517,17235],[-1,-18],[-3,38],[4,-6],[0,-14]],[[10519,17282],[-4,-14],[-4,4],[4,14],[4,-4]],[[10524,17313],[-4,1],[1,22],[5,1],[-2,-24]],[[10495,17532],[-2,-5],[0,4],[1,7],[1,-6]],[[10572,18118],[2,25],[8,12],[0,-13],[-10,-24]],[[10842,18760],[-31,-50],[-9,29],[27,57],[13,-36]],[[10631,18774],[1,2],[1,-9],[-3,-1],[1,8]],[[10798,18787],[1,2],[2,-5],[-3,-4],[0,7]],[[10858,19776],[0,4],[0,4],[2,-3],[-2,-5]],[[10043,15737],[-591,4036],[74,2329],[-77,53],[-214,-581],[-33,263]],[[9202,21837],[52,-4],[10,356],[-229,399],[80,222],[-13,730],[67,-21],[16,348],[47,-19],[-4,583],[161,250]],[[11529,22473],[-353,-2953],[-84,-169],[-28,227],[-94,-107],[14,327],[-122,86],[-46,-482],[53,-178],[-72,-133],[48,-196],[-67,-104],[-47,253],[-123,-299],[45,-189],[-158,-727],[-96,-891],[33,-162],[-54,18],[-77,-474],[-17,205],[-105,-143],[-136,-645]],[[11298,17661],[10,12],[3,-33],[-11,-27],[-2,48]],[[11617,18271],[6,48],[7,-18],[-1,-10],[-12,-20]],[[11596,18342],[6,17],[3,-24],[-2,-11],[-7,18]],[[10870,19283],[1,-8],[-5,-5],[1,8],[3,5]],[[10861,19295],[1,-2],[-2,-6],[0,5],[1,3]],[[10883,19290],[-1,6],[1,4],[1,-8],[-1,-2]],[[11127,19401],[-8,-6],[10,53],[-3,-41],[1,-6]],[[10998,19446],[-5,17],[8,11],[1,-24],[-4,-4]],[[11017,19466],[2,8],[2,0],[-1,-9],[-3,1]],[[11047,19470],[-5,-6],[-3,3],[15,25],[-7,-22]],[[11069,19547],[2,-3],[-1,-16],[-3,5],[2,14]],[[11381,19933],[3,11],[3,-8],[-7,-19],[1,16]],[[11536,20213],[1,-34],[-11,-16],[-4,39],[14,11]],[[11499,20226],[12,-63],[-36,-16],[10,108],[14,-29]],[[11557,20299],[7,-100],[-11,-9],[-17,86],[21,23]],[[11440,20271],[3,15],[5,0],[-3,-27],[-5,12]],[[11417,20677],[10,-36],[-14,-19],[-3,38],[7,17]],[[3561,32096],[41,-672]],[[1639,32106],[1922,-10]],[[11767,44632],[1,-3724]],[[11768,40908],[-71,-167],[-539,165],[6,384],[-134,1020],[-84,-179],[-13,-491],[-85,388],[-99,3],[-56,467],[-146,-30]],[[746,23392],[-131,795]],[[615,24187],[-30,1607]],[[2136,22172],[-119,-556],[-123,34],[-55,-279],[18,-478],[111,-346],[44,107],[-68,-694],[151,-61],[15,-218],[-59,-126],[100,-866]],[[2151,18689],[-146,480],[-186,-212],[4,448],[-139,75]],[[1684,19480],[9,781],[-77,42],[46,634],[-46,621],[-163,623],[-11,380],[-165,169],[-7,261],[-80,135],[-111,-111],[-64,383],[-269,-6]],[[7441,18062],[214,454],[333,-503]],[[7988,18013],[108,-161],[147,-716],[108,37],[-146,-1007],[67,-148],[132,211],[60,-187],[-32,-268],[68,-79],[9,-606]],[[1506,30442],[118,153],[-79,-617],[32,-150],[-101,-387],[73,-316],[-97,-508],[18,-343],[61,458],[137,148],[259,818],[90,624],[364,125],[118,-1026]],[[6798,44014],[-24,389],[120,1174],[-14,370],[78,288],[212,-157],[8,559],[177,470],[-123,1512],[71,344],[-83,421],[202,540],[228,204],[44,514],[198,428],[131,-245]],[[8023,50825],[-176,-524],[38,-285],[-61,-283],[48,-320],[148,-7],[87,697],[141,-57],[166,431],[34,-117],[-67,-374],[102,-537],[-42,-525],[86,-21],[-11,-472],[102,-59]],[[8600,12790],[4,-405],[-346,-1825],[-44,-1586]],[[5849,8500],[107,288],[-47,464],[80,35],[-60,446],[-99,104],[207,380]],[[6037,10217],[109,1025],[198,450],[-34,314],[48,492],[344,183]],[[8650,10977],[-29,-41],[-6,28],[30,107],[5,-94]],[[8650,12530],[15,37],[8,6],[-19,-46],[-4,3]],[[7152,36002],[-157,920],[-19,1928]],[[7098,42315],[76,-66],[460,779],[425,-1670],[117,99]],[[2174,23395],[13,735],[-91,-24],[-197,577],[78,470],[-151,255],[65,897],[-115,-7],[-56,690],[-231,-1196],[-408,1191],[-401,221],[-2,-645],[-93,-765]],[[585,25794],[-237,316],[-83,1000],[-111,133],[116,936],[-23,379],[84,-70],[87,528],[347,589],[178,2505],[696,-4]],[[1639,32106],[-133,-1664]],[[1506,30442],[-118,-190],[32,-247],[-111,-421],[39,-212],[-97,-80],[56,-258],[-56,-376],[-228,289],[-142,-481],[-242,-296],[5,-251],[83,-57],[38,307],[343,577],[232,-1115],[54,-785],[328,419],[76,-639],[102,-97],[37,-429],[108,-77],[17,349],[195,563],[-108,696],[280,358],[17,318],[165,352],[-112,762]],[[2499,29421],[129,342],[103,-208],[65,336],[144,75],[158,-1400]],[[3810,18116],[242,-675],[-79,-402],[33,-139],[289,-199],[-144,-391],[46,-295],[-168,-556],[97,-601],[-45,-470],[80,-1534]],[[3256,11979],[-8,670],[-56,113],[78,1780],[270,720],[270,2854]],[[10377,46517],[81,1114],[109,585],[113,177],[21,347],[78,-70],[90,339],[341,-313],[324,550]],[[11742,47907],[25,-3275]],[[11767,44632],[-108,111],[-22,358],[-99,147],[37,-859],[-257,193],[-166,-401],[-99,290],[-110,1167],[-257,-941],[-40,-570],[-106,-55],[-63,-947]],[[5315,41358],[23,1252],[64,278],[-82,343],[83,56],[88,568],[-81,1148]],[[5410,45003],[152,235],[222,-378],[8,-485],[71,-171],[49,282],[94,-80],[243,369],[77,357],[92,-38],[-86,-357],[139,-473],[100,303],[112,-655],[115,102]],[[6798,44014],[405,-119],[19,-444],[-150,-297],[68,-349],[-81,-319],[39,-171]],[[7098,42315],[147,-397],[8,-639],[77,-225],[-189,-87],[40,-819],[-115,-590],[21,-347],[-111,-361]],[[6976,38850],[-123,-13],[-81,510],[-507,-816],[-304,704],[-79,-269],[-59,207],[71,472],[-101,382],[-10,587],[-95,596],[-130,166],[-148,-480],[-95,462]],[[11742,47907],[-72,-52],[-90,496],[-4,846],[-42,49]],[[11534,49246],[48,147],[-14,657],[-127,573],[-3,327],[141,248],[-23,581]],[[10518,58324],[177,768],[106,-204],[133,431],[117,-321],[35,304],[-43,300],[75,334]],[[14404,67650],[181,-379],[36,-422],[339,-1105],[403,305],[-30,-399],[87,-376],[-46,-311],[-54,68],[-13,-374],[71,-24],[11,-411],[97,-231],[163,-136],[32,-446],[573,-623],[156,350]],[[16577,64660],[232,-5811],[-113,-2933],[-821,-7463],[-774,-1098]],[[15101,47355],[-918,2349],[-131,642],[-139,-16],[-146,595],[-283,416],[-229,-208],[-115,146],[-251,-550],[-26,-321],[-340,-324],[-197,-862],[-62,133],[-124,-368],[12,-311],[-118,-358],[-207,280],[-48,-215],[28,-414],[-65,-62]],[[6555,72278],[978,-1880]],[[7533,70398],[-62,-1149]],[[7390,69240],[-1139,-119]],[[6251,69121],[-104,-83],[-5,268],[-188,131],[-111,361],[-11,537],[-186,544],[-70,-50],[-81,795],[-272,-113],[-73,243],[-48,-662],[-118,565],[-99,112],[40,580],[-56,417],[96,683],[756,36],[31,-334],[83,-79],[67,-845],[653,51]],[[7642,4091],[4,-22],[-2,-25],[-14,62],[12,-15]],[[8214,8974],[23,-306],[44,97],[8,-11],[-108,-941],[-125,-361],[-220,-2345],[-399,-1199],[-120,-636]],[[7166,5604],[96,840],[-51,811],[232,362],[231,-534],[141,182],[399,1709]],[[8277,8665],[4,15],[-8,-31],[0,3],[4,13]],[[8380,8759],[-2,-9],[-3,-8],[2,18],[3,-1]],[[8400,8801],[-7,-25],[-7,13],[9,30],[5,-18]],[[9618,24455],[-53,-101],[-176,327]],[[9389,24681],[-36,323],[-114,-3],[-98,436],[-109,68],[-94,-280],[36,-521],[-200,-210],[-188,-1113],[-25,194],[-114,5],[-41,-328],[-243,-417],[-48,181],[114,736],[-39,265],[-329,-263],[-73,205],[-38,583],[-267,82],[-61,395]],[[7422,25019],[85,-8],[13,731],[85,72],[-48,667],[172,454],[131,-63],[161,296],[104,-520],[241,-384],[87,1196],[249,651],[103,-152],[-63,-1084],[146,-89],[72,329],[152,-467],[28,167],[319,37],[-4,-433],[170,-684]],[[10248,58394],[100,-406],[170,336]],[[10518,58324],[-162,-921],[113,37],[174,-822],[97,194],[57,-293],[-39,-276],[179,-547],[-16,-453],[176,-487],[-88,-450],[78,-391],[26,-873],[114,-460],[185,-40],[144,-763]],[[11556,51779],[-132,-189],[-698,255],[-544,1503],[-118,1285],[-84,223],[-102,64],[-45,-274],[-206,-272],[-127,1794],[111,1128],[172,-112],[98,387],[328,527],[39,296]],[[2471,3769],[-28,294],[127,433],[339,116],[-40,104],[90,519],[-7,408],[-139,84],[78,1009],[-98,236],[66,563],[-30,661],[116,769],[-194,409],[-16,563],[-170,-122],[-208,272]],[[2301,11449],[130,543],[186,297],[151,-61],[20,-374],[111,-314],[23,369],[113,330],[73,15],[102,-498],[-14,168],[60,55]],[[3256,11979],[79,-442]],[[4995,8666],[264,-1615]],[[5698,2181],[-31,-341],[-110,-175],[-156,8],[-55,254],[-59,-372],[-19,218],[-94,-88],[-279,703],[-269,-583],[-157,151],[-97,457],[-54,-73],[6,248],[-74,-147],[-85,333],[-272,107],[-33,227],[-306,-127],[-144,-457],[-84,7],[-196,373],[-55,592],[-149,-75],[-101,273],[-43,-349],[-102,226],[-137,-96],[-72,294]],[[11596,99092],[98,-222],[61,201],[106,-111],[213,-586],[115,14],[119,-460],[424,-559]],[[11596,99092],[-215,-1757],[-21,-894],[65,-560],[-248,-1777],[18,-405],[-169,-535]],[[10120,92704],[28,709],[-164,596],[-91,-386],[-84,285],[-91,-193],[-5,447],[-130,488],[-47,1082],[-167,330],[-26,395]],[[9343,96457],[123,562],[163,131],[4,386],[77,247],[-59,204],[65,611],[202,20],[19,612],[283,312],[159,457],[182,-549],[147,59],[153,-573],[80,275],[279,-241],[376,122]],[[4236,23585],[62,-248],[-68,-245],[-374,179],[39,-809],[-118,-164],[-26,-454],[-115,292],[-68,-760]],[[3568,21376],[-191,341],[-88,-538],[-147,-85],[-40,-691],[-92,-6],[-116,975],[46,723],[-185,49],[-99,-465],[-291,-400],[-229,893]],[[2136,22172],[-27,663],[65,560]],[[2174,23395],[171,254],[-79,1054],[96,384],[-50,534],[416,-353],[370,818],[69,762],[-30,729],[72,346],[-51,155],[28,273],[-88,215]],[[3098,28566],[250,907],[26,447],[-73,179],[301,1325]],[[3602,31424],[86,-115],[23,389],[111,-77],[55,209],[-14,345],[218,188],[73,-780],[-92,-415],[203,-310],[102,-581]],[[4367,30277],[-72,-181],[21,-749],[-170,117],[-173,-694],[123,-1960],[69,59],[133,-400],[-3,-547],[73,-219],[-65,-772],[8,-1163],[-75,-183]],[[3335,11537],[111,123],[128,1515],[329,-657],[220,-12],[38,348]],[[4161,12854],[167,369],[116,-202],[54,531],[54,-466],[369,238],[27,-185],[-77,-434]],[[4871,12705],[-154,-442],[55,-425],[-220,-1534],[82,-217],[243,370],[166,-932],[-48,-859]],[[4995,8666],[-131,-547],[-104,-20],[-150,697],[-191,123],[-116,-229],[-199,473],[-224,-617],[-280,58],[-475,505],[233,1967],[-23,461]],[[9388,69076],[-112,-11],[-59,406],[-167,58],[-2,-289],[-61,-50],[-85,257],[-148,-67],[-9,990],[61,160],[-44,518],[179,126],[25,303],[-90,463],[-103,-90],[-59,280],[-143,-188]],[[8571,71942],[41,458],[-99,-55],[-40,225],[2,275],[69,-29],[-68,618],[132,132],[53,599],[244,460],[65,1192],[-97,327],[208,-17]],[[10195,82348],[241,171],[31,220],[-426,1299],[-81,-126],[-99,190],[-101,518],[189,1401]],[[10923,84748],[58,-210],[-138,-501],[122,-541],[-84,-184],[63,-229],[-23,-465],[309,-881],[-81,-319],[44,-485],[219,-107],[72,196],[115,-389],[158,135],[119,-363],[-48,-272],[48,-334],[242,246],[124,-130]],[[7246,60973],[97,545],[-52,183],[27,239],[-116,268],[4,506],[-64,294],[38,272],[-138,-1],[46,412],[-64,230]],[[7024,63921],[18,554],[181,298],[-86,407],[294,463],[116,520],[-47,184],[53,1006],[-159,-164],[-99,383],[-117,-12],[-50,-238],[9,1728],[253,190]],[[7390,69240],[81,9]],[[7471,69249],[370,3],[-7,-2384],[335,197],[201,-318],[56,297],[-31,235],[132,373],[83,-103],[133,-921],[81,-134],[42,-583],[159,-195],[23,-412],[-109,-76],[-21,-582],[37,-326],[207,-54],[-120,-871],[66,17],[11,-306]],[[9322,60758],[-63,-62],[0,-227],[-216,-51],[47,-435],[-101,-159],[-11,-750],[-59,-292],[-92,312],[-209,-324],[-211,161],[-185,-326],[-94,-1567]],[[8128,57038],[-60,34],[-12,502],[-168,117],[-21,349],[-121,-341],[-84,82],[47,547],[110,212],[-130,473],[-133,86],[150,641],[-125,616],[137,205],[-278,-3],[-194,415]],[[13426,88789],[327,2801],[-162,1123],[109,968],[-124,478],[-136,81],[-194,713],[-134,152],[-109,771],[-175,245],[-96,1248]],[[12732,97369],[2368,-5789]],[[15100,91580],[75,-347],[5,-483],[-314,-1009],[121,-438],[-72,-1101],[190,-495],[-338,-12]],[[13426,88789],[261,-253],[218,130],[248,-471],[344,220],[192,-310],[78,-410]],[[14767,87695],[35,-104],[-58,-219],[-7,-662],[171,-1960],[-206,-667],[-298,69],[-210,-346]],[[13467,82503],[-398,503],[-231,-552],[-472,-162],[-187,433],[-121,709],[20,300],[-106,225],[-87,1139],[-185,654],[-362,-226],[-232,700],[-191,-399],[-132,-28],[-91,286]],[[11155,89288],[209,60],[62,-532],[340,-169],[47,-492],[160,-316],[195,-167],[134,176],[200,-411],[70,323],[135,-169],[9,494],[82,241],[108,-230],[210,117],[310,576]],[[8852,13106],[-16,-47],[-6,4],[17,65],[5,-22]],[[8859,13284],[-3,-48],[-17,-16],[6,75],[14,-11]],[[8600,12790],[-531,-738]],[[8069,13074],[440,2015]],[[8509,15089],[142,23],[40,-394],[132,-170],[220,-847]],[[9043,13701],[-146,-351],[-165,-2],[-132,-558]],[[10120,92704],[115,447],[32,622],[136,-459],[-19,-246],[94,103],[31,-248],[238,31],[154,366],[125,-156]],[[11026,93164],[-6,-850],[166,-852],[-31,-2174]],[[11155,89288],[-265,290],[-148,-234],[-50,-3259]],[[10692,86085],[-6,-322],[277,-861],[-40,-154]],[[10923,84748],[-272,52],[-40,586],[-100,-2],[-128,730],[-96,-77],[5,232],[-245,9],[-98,-257]],[[9949,86021],[2,455],[70,229],[-177,169],[-41,-157],[-128,1682],[532,1727],[32,826],[-81,1229],[-59,140],[21,383]],[[5698,2181],[-339,-105],[-49,334],[-26,1325],[-245,1829],[19,529],[-103,501],[304,457]],[[5259,7051],[61,-225],[200,228],[76,312],[-19,364],[161,238],[44,484],[67,48]],[[5849,8500],[325,-269],[440,611],[-1,-341],[-169,-462],[115,-821],[498,-637],[109,-977]],[[7166,5604],[-12,-1800],[163,-532]],[[7317,3272],[-260,-1875],[16,-1397],[-176,372],[13,267],[-45,-220],[-83,38],[-68,1029],[-155,156],[-126,-269],[-138,596],[-254,484],[-212,-355],[-131,83]],[[11118,59936],[-34,170],[113,411],[-15,698],[148,468],[-72,521],[62,576],[68,77],[-28,302],[-84,-40],[-7,270],[353,1308],[-75,480]],[[12952,61861],[-13,-837],[92,-656],[-169,-2892],[-532,-787],[-8,198],[-181,181],[-40,1195],[-174,-1774],[-96,211],[16,340],[-110,143],[-41,-152],[-81,158],[-114,-548],[-39,136],[-65,-174],[-24,675],[-57,26],[-80,698],[-149,166],[136,484],[-35,199],[83,789],[-153,296]],[[7289,18286],[152,-224]],[[7441,18062],[-174,-1276],[95,-539],[-86,17],[-122,-730],[441,-1357],[176,363],[82,-251],[217,177],[-1,-1392]],[[8069,13074],[0,-1022]],[[8069,12052],[-755,-12],[-408,641]],[[11558,31875],[-265,-481],[-426,396],[-184,-589],[-116,259],[-215,-803],[-209,-406],[-276,-26],[-6,758]],[[9861,30983],[-119,-199],[-125,451],[-60,615],[-231,-60],[31,325],[-165,535],[-353,153],[-112,-187],[-75,394]],[[10936,39744],[55,-1418],[238,-637]],[[8652,33010],[-108,248],[-6,448],[-32,-244],[-117,48],[-174,-459],[-87,322],[-273,-828],[-124,109],[-182,-439],[-546,380],[-49,-295],[37,-339],[-93,-454],[-57,313],[-112,68]],[[6729,31888],[24,224],[-151,445],[20,1189],[-150,562],[188,653],[94,-17],[3,-417],[99,105],[181,874],[115,123],[0,373]],[[7152,36002],[25,354],[256,175],[177,767],[83,-65],[78,257],[-5,375],[79,307],[-41,176],[70,227],[115,168],[96,-197],[170,295],[218,1032]],[[9780,38113],[25,-338],[-180,-1004],[223,-1104],[-216,-627],[-55,152],[-7,-236],[-105,566],[-197,-17],[-88,-1392],[-183,-128],[-200,-782],[-145,-193]],[[9780,38113],[-135,322],[-30,790],[-231,-522],[-144,568],[-133,-537],[-97,197],[-278,-299],[-7,319],[-109,-19],[62,795],[-205,146]],[[8473,39873],[5,263],[-65,46],[-106,626],[-140,16],[9,633]],[[8176,41457],[-105,449],[25,430],[160,594],[156,137],[17,577],[49,-9]],[[10444,45666],[-108,-1555],[141,-986]],[[10477,43125],[70,-657]],[[10547,42468],[17,-692],[195,-802],[24,-951],[166,-5],[-13,-274]],[[10936,39744],[-82,48],[4,-232],[-156,-312],[-40,253],[-160,-1],[-19,-832],[-206,240],[61,-239],[-19,-412],[-75,216],[-319,57],[-46,262],[-67,-53],[-32,-626]],[[11547,65182],[0,-5]],[[11547,65177],[34,-236],[-126,-457],[-332,-145],[-138,242],[-121,-332],[-218,11],[-101,-323],[-38,-1153],[-181,569],[-201,49],[-99,-387],[22,-365],[-80,-394],[-204,-320],[49,-215],[-137,-357],[45,-1942]],[[9721,59422],[-48,-131],[-86,1134],[-95,99],[-29,-164],[-141,398]],[[9322,60758],[57,798],[-102,39],[120,662],[-12,343],[-160,245],[-2,473],[-104,-212]],[[9119,63106],[12,523],[83,262],[-36,566],[188,112],[112,470],[215,58],[141,571],[154,-166],[168,653]],[[10156,66155],[-59,102],[-74,-314],[-219,165],[-112,183],[-41,579],[-104,-210],[-83,515],[94,702],[-65,194],[-78,-109],[55,440],[-82,674]],[[9388,69076],[172,287],[12,-294],[139,-226],[163,591],[152,1182],[320,702],[117,-191],[104,437],[217,258],[557,53]],[[10908,66087],[-219,40],[-214,-386],[-205,491],[-114,-77]],[[1929,12902],[131,-792],[-16,-335],[90,-19],[55,275],[112,-582]],[[2301,11449],[-58,-708],[114,-654]],[[2357,10087],[-93,-382],[23,-558],[-75,-522]],[[2212,8625],[-45,-381],[-70,50],[-90,-437],[-113,-1204],[-164,-323],[-122,313],[-107,-453],[-190,-7],[-63,-415]],[[1248,5768],[-148,96],[113,837],[-86,212],[26,482],[47,-176],[54,251],[-69,410],[82,518],[-53,393],[88,322],[-57,1114],[-126,285]],[[1119,10512],[217,642],[141,-243],[126,1172],[143,-55],[103,1392],[80,-518]],[[11561,71911],[-220,-36]],[[11341,71875],[-14,726],[145,689],[-59,104],[-17,510],[448,1571],[398,4440]],[[12242,79915],[157,7],[-17,159],[87,122],[70,-49],[38,-347],[254,-67],[-8,333],[334,793],[-3,706],[54,294],[259,637]],[[13467,82503],[261,8],[365,1273],[101,22]],[[14194,83806],[1485,-7058],[35,360],[175,-56],[-64,-544],[81,-159],[-93,-182],[62,-195],[-18,-291],[238,484],[274,-44]],[[16369,76121],[-21,-4194],[229,-7267]],[[16577,64660],[-25,-1248],[-142,-276]],[[16410,63136],[-936,4589],[-726,2726],[-65,551],[-177,110],[-143,-504],[4,2366],[-608,306],[-247,830],[-683,-3219]],[[10377,46517],[67,-851]],[[10444,45666],[-276,312],[-204,-487],[-220,-180],[-164,-491],[-256,32],[-64,-210],[-169,174],[-15,-318],[-108,-285],[29,-620],[-175,-404],[-239,42],[-105,404]],[[8478,43635],[-56,1592],[60,384],[0,1433],[136,1328]],[[8618,48372],[234,304],[22,510],[136,-134],[251,196],[50,-352],[483,-1133],[111,279],[55,-611],[109,-9],[111,-811],[197,-94]],[[12952,36579],[137,-599],[15,-975],[-154,-2679],[-176,-1265]],[[11899,30540],[-75,13],[-8,329],[-156,354],[-102,639]],[[11558,31875],[-150,1257],[-220,289],[-112,753],[153,3515]],[[11229,37689],[242,73],[215,-1016],[97,357],[318,413],[235,-229],[-4,-194],[70,176],[36,-281],[50,244],[95,-381],[120,650],[229,-388],[20,-534]],[[12952,61861],[-38,689],[-110,38],[-59,309],[-37,-183],[-123,421],[17,377],[-52,76],[43,393],[-94,563],[-91,43],[-37,372],[-160,334]],[[12840,70241],[170,-720],[37,-550],[723,-925],[634,-396]],[[14404,67650],[-160,-1279],[272,-250],[-355,-400],[-412,-3197],[270,-137],[117,-306],[-359,-1464],[-3,295],[-187,387],[-85,-20],[43,-281],[-37,-214],[-224,368],[-62,680],[-270,29]],[[6155,20168],[92,401],[-119,173],[42,408],[95,-22],[80,448],[109,-153],[161,780],[-10,345],[-207,-95],[-80,349],[54,235],[35,-214],[50,254],[95,-31],[-22,587],[-83,356]],[[6447,23989],[161,8],[104,382],[-42,1077],[78,230],[93,-320]],[[6841,25366],[-53,-136],[77,-177],[-17,-359],[74,111],[66,-194],[3,-1018],[70,-57],[-52,-1268],[85,-496],[-92,-151],[-9,-344],[94,-456],[-50,-289],[149,-144],[53,205],[200,-553],[-43,-748],[-141,-553],[34,-453]],[[7289,18286],[-158,-513],[-46,149],[-73,-1675],[-218,-911],[-13,-394],[141,-897],[-105,-419],[89,-945]],[[6906,12681],[-204,0]],[[6702,12681],[-192,466],[123,911],[-61,190],[37,746],[-143,77],[-70,-225],[106,1135],[-134,120],[-153,656],[61,439],[-38,106],[-233,-374],[-74,199],[38,405],[115,-5],[14,625],[228,1484],[-171,532]],[[5283,25109],[-56,132],[-6,699],[137,259],[37,359],[-194,372],[-10,541],[-118,258],[67,591],[-57,243],[211,603],[137,-46],[106,773]],[[5537,29893],[164,-153]],[[5701,29740],[244,-485],[0,-536],[91,-341],[-47,-252],[92,-300],[-41,-802],[162,-281],[-27,-407],[86,-183],[-23,-350],[163,-1051],[-57,-63]],[[6344,24689],[-115,-11],[-60,441],[-197,340],[29,701],[-56,203],[-113,-654],[-175,-189],[-133,274],[-53,-166],[2,-528],[-190,9]],[[10708,23362],[-410,948],[-350,-96],[-162,-334],[-168,575]],[[9618,24455],[-48,170],[81,771],[-26,339]],[[9625,25735],[113,342],[416,103],[173,554],[-79,164],[-132,-117],[23,463],[-90,-142],[-73,443],[-106,-88],[86,645],[-1,1508]],[[9955,29610],[49,389],[98,-739],[315,396],[-1,-1079],[65,-599],[213,37],[206,428],[50,-227],[108,209],[146,-245],[118,-525],[-11,-606],[88,-489],[183,-104]],[[9081,76127],[-27,283],[116,67],[2,255],[-192,21],[-124,272],[-31,615],[61,1452],[-86,512],[-104,-403],[-153,171],[41,-410],[-147,-328],[-108,197],[-8,506],[-76,311],[45,84],[86,-413],[136,62],[85,527],[419,408],[169,867],[97,79],[-23,191],[161,328]],[[9420,81781],[111,-82],[147,536],[230,233],[200,84],[87,-204]],[[10195,82348],[-119,-623],[16,-1524],[185,-519],[41,-671],[127,-464],[138,58],[60,-320],[-32,-537],[103,-210],[-271,-228],[-563,-1576],[-251,-253],[-124,79],[-67,501],[-102,157],[-255,-91]],[[12211,65293],[-127,-262],[-148,237],[-192,-236],[-125,528],[-72,-378]],[[11547,65182],[-156,-197],[-54,257],[-180,30],[-142,703],[-107,112]],[[10908,66087],[189,833],[-125,427],[28,494],[-129,-155],[33,435],[-45,466],[285,368],[98,-245],[71,386],[242,-31],[6,2846]],[[11561,71911],[423,-24],[423,395],[91,-792],[56,78],[275,-677]],[[12829,70891],[11,-650]],[[12840,70241],[-629,-4948]],[[11674,22770],[-5,26],[14,4],[0,-29],[-9,-1]],[[12318,28792],[48,-273],[-94,-195],[-22,-504],[-227,-1064],[-44,-1097],[-215,-1450],[-94,-1261],[-141,-475]],[[11529,22473],[-21,510],[-800,379]],[[10708,23362],[159,2140],[533,284],[34,407],[148,263]],[[11582,26456],[121,2134]],[[12034,25824],[-6,-14],[5,30],[9,-10],[-8,-6]],[[12117,26962],[0,8],[3,2],[-1,-7],[-2,-3]],[[12151,26973],[-13,17],[16,48],[9,-43],[-12,-22]],[[12227,27280],[-1,-6],[-1,4],[0,5],[2,-3]],[[12285,27507],[6,-11],[-3,-41],[-7,36],[4,16]],[[12275,27480],[4,15],[2,-15],[-3,-3],[-3,3]],[[12301,27517],[4,1],[-12,-33],[1,21],[7,11]],[[12266,27520],[6,27],[11,-6],[-4,-25],[-13,4]],[[12297,27548],[-1,6],[6,18],[1,-22],[-6,-2]],[[12267,27590],[3,-7],[-7,-5],[4,26],[4,-4],[-4,-10]],[[12280,27595],[-5,10],[11,10],[0,-6],[-6,-14]],[[12264,27787],[7,3],[4,-21],[-11,-8],[0,26]],[[12310,27818],[4,-4],[-1,-16],[-4,7],[1,13]],[[12481,27815],[1,22],[2,0],[2,-17],[-5,-5]],[[12505,27847],[1,9],[2,-1],[-1,-16],[-2,8]],[[12503,27852],[-5,-4],[-1,36],[2,-1],[4,-31]],[[12305,27890],[1,5],[2,-1],[-5,-13],[2,9]],[[12334,28318],[0,17],[1,5],[2,-22],[-3,0]],[[12338,28353],[8,-13],[-3,-25],[-3,15],[-2,23]],[[12312,28399],[1,-6],[-1,-5],[-1,10],[1,1]],[[12350,28394],[-7,7],[1,45],[4,-6],[2,-46]],[[12360,28445],[5,19],[3,-22],[-2,-10],[-6,13]],[[12385,28680],[-2,-8],[-2,12],[2,5],[2,-9]],[[12349,28742],[-12,-10],[-4,47],[6,13],[10,-50]],[[12366,28747],[-4,-2],[-4,34],[7,-6],[1,-26]],[[12307,29154],[4,-14],[-2,-39],[-12,42],[10,11]],[[12221,29232],[-1,-6],[-1,16],[1,-1],[1,-9]],[[12306,29426],[0,21],[2,4],[2,-32],[-4,7]],[[12246,29599],[7,-1],[-5,-30],[-4,21],[2,10]],[[12262,29614],[0,-11],[-2,-9],[-1,12],[3,8]],[[12230,29840],[1,10],[6,-18],[-5,-4],[-2,12]],[[12318,28792],[-273,-298],[-97,232],[-245,-136]],[[11703,28590],[-48,677],[244,1273]],[[11899,30540],[-2,620],[145,58],[28,236],[68,-285],[187,-33],[72,-428],[33,285],[-63,176],[407,-108]],[[12774,31061],[-149,-983],[35,-546],[-82,-182],[71,282],[-125,-63],[37,117],[-106,676],[-235,-421],[-17,-412],[46,14],[-56,-208],[111,32],[-109,-189],[87,-15],[36,-371]],[[96261,23833],[204,-559],[68,-542],[-97,177],[-150,-144],[-99,538],[2,487],[72,43]],[[99999,23577],[-19,19],[-1,21],[17,17],[3,-57]],[[99996,24229],[-31,-114],[-16,178],[20,46],[27,-110]],[[99943,24327],[-2,-11],[-3,6],[1,11],[4,-6]],[[99940,24379],[-8,41],[9,32],[9,-26],[-10,-47]],[[12323,29151],[-2,-27],[-9,53],[10,-5],[1,-21]]]}