{"type":"Topology","objects":{"data":{"geometries":[{"properties":{"cd_mun_ibge":"5000203"},"type":"MultiPolygon","arcs":[[[-19,-125,-26,-62,-231,-16,-158]]],"id":0},{"properties":{"cd_mun_ibge":"5000252"},"type":"MultiPolygon","arcs":[[[-35,-54,-41,-138,0]]],"id":1},{"properties":{"cd_mun_ibge":"5000609"},"type":"MultiPolygon","arcs":[[[-6,-90,-18,-86,-59,-211,-30]]],"id":2},{"properties":{"cd_mun_ibge":"5000708"},"type":"MultiPolygon","arcs":[[[-14,-99,-5,-43,-95,-112]]],"id":3},{"properties":{"cd_mun_ibge":"5000807"},"type":"MultiPolygon","arcs":[[[-117,-9,1,-10]]],"id":4},{"properties":{"cd_mun_ibge":"5000856"},"type":"MultiPolygon","arcs":[[[-42,-167,-115,-120,-72]]],"id":5},{"properties":{"cd_mun_ibge":"5000906"},"type":"MultiPolygon","arcs":[[[-12,-140,2]]],"id":6},{"properties":{"cd_mun_ibge":"5001003"},"type":"MultiPolygon","arcs":[[[3,-195,-61,-129]]],"id":7},{"properties":{"cd_mun_ibge":"5001102"},"type":"MultiPolygon","arcs":[[[-98,-32,-174,-171,-27,-223,-44,4]]],"id":8},{"properties":{"cd_mun_ibge":"5001243"},"type":"MultiPolygon","arcs":[[[-147,-91,5,-29,6]]],"id":9},{"properties":{"cd_mun_ibge":"5001508"},"type":"MultiPolygon","arcs":[[[-28,-185,-20,-156,-76,-177]]],"id":10},{"properties":{"cd_mun_ibge":"5001904"},"type":"MultiPolygon","arcs":[[[-116,-160,-184,7,8]]],"id":11},{"properties":{"cd_mun_ibge":"5002001"},"type":"MultiPolygon","arcs":[[[-118,9,10,-215]]],"id":12},{"properties":{"cd_mun_ibge":"5002100"},"type":"MultiPolygon","arcs":[[[-141,11,12,-22,-81]]],"id":13},{"properties":{"cd_mun_ibge":"5002159"},"type":"MultiPolygon","arcs":[[[-15,-150,-33,-101]]],"id":14},{"properties":{"cd_mun_ibge":"5002209"},"type":"MultiPolygon","arcs":[[[-100,13,-111,-58,-79,-151,14]]],"id":15},{"properties":{"cd_mun_ibge":"5002308"},"type":"MultiPolygon","arcs":[[[-159,15,-230,16,-182]]],"id":16},{"properties":{"cd_mun_ibge":"5002407"},"type":"MultiPolygon","arcs":[[[-47,-51,-235,-83,17,-89]]],"id":17},{"properties":{"cd_mun_ibge":"5002605"},"type":"MultiPolygon","arcs":[[[-191,-52,-38,-126,18,-157,19]]],"id":18},{"properties":{"cd_mun_ibge":"5002704"},"type":"MultiPolygon","arcs":[[[-226,-179,-77,-163,-114,-201]]],"id":19},{"properties":{"cd_mun_ibge":"5002803"},"type":"MultiPolygon","arcs":[[[20,-153,-78,21]]],"id":20},{"properties":{"cd_mun_ibge":"5002902"},"type":"MultiPolygon","arcs":[[[-133,-132,131,-131,-64,-25,22]]],"id":21},{"properties":{"cd_mun_ibge":"5002951"},"type":"MultiPolygon","arcs":[[[-37,23,24,-63,25,-128]]],"id":22},{"properties":{"cd_mun_ibge":"5003108"},"type":"MultiPolygon","arcs":[[[-224,26,-172,-186,27,-180]]],"id":23},{"properties":{"cd_mun_ibge":"5003157"},"type":"MultiPolygon","arcs":[[[28,29,-210,-135,30]]],"id":24},{"properties":{"cd_mun_ibge":"5003207"},"type":"MultiPolygon","arcs":[[[-39,-175,31,-97,32,-149,33],[86]]],"id":25},{"properties":{"cd_mun_ibge":"5003256"},"type":"MultiPolygon","arcs":[[[34,35,36,-127,37,-55]]],"id":26},{"properties":{"cd_mun_ibge":"5003306"},"type":"MultiPolygon","arcs":[[[38,39,-207,-139,40,-53,-189,-176]]],"id":27},{"properties":{"cd_mun_ibge":"5003454"},"type":"MultiPolygon","arcs":[[[-50,-46,-168,41,-71,-57]]],"id":28},{"properties":{"cd_mun_ibge":"5003488"},"type":"MultiPolygon","arcs":[[[-96,42,43,-222,-205]]],"id":29},{"properties":{"cd_mun_ibge":"5003504"},"type":"MultiPolygon","arcs":[[[-65,-170,-45]]],"id":30},{"properties":{"cd_mun_ibge":"5003702"},"type":"MultiPolygon","arcs":[[[-88,-145,-93,-66,44,-169,45,-49,46]]],"id":31},{"properties":{"cd_mun_ibge":"5003751"},"type":"MultiPolygon","arcs":[[[-74,-60,-68,47,-104]]],"id":32},{"properties":{"cd_mun_ibge":"5003801"},"type":"MultiPolygon","arcs":[[[48,49,-56,-236,50]]],"id":33},{"properties":{"cd_mun_ibge":"5003900"},"type":"MultiPolygon","arcs":[[[51,-190,52,53,54]]],"id":34},{"properties":{"cd_mun_ibge":"5004007"},"type":"MultiPolygon","arcs":[[[-232,55,56,-70,-82]]],"id":35},{"properties":{"cd_mun_ibge":"5004106"},"type":"MultiPolygon","arcs":[[[57,-110,-94,-143,-80]]],"id":36},{"properties":{"cd_mun_ibge":"5004304"},"type":"MultiPolygon","arcs":[[[-212,58,-85,-105,-69,59,-73]]],"id":37},{"properties":{"cd_mun_ibge":"5004403"},"type":"MultiPolygon","arcs":[[[60,-198,-199,-197,-227,61,62,63,-130],[-199,198]]],"id":38},{"properties":{"cd_mun_ibge":"5004502"},"type":"MultiPolygon","arcs":[[[64,65,-92,-164]]],"id":39},{"properties":{"cd_mun_ibge":"5004601"},"type":"MultiPolygon","arcs":[[[-109,66,67,68]]],"id":40},{"properties":{"cd_mun_ibge":"5004700"},"type":"MultiPolygon","arcs":[[[-122,69,70,71,-119]]],"id":41},{"properties":{"cd_mun_ibge":"5004809"},"type":"MultiPolygon","arcs":[[[-193,-213,72,73,-103,74]]],"id":42},{"properties":{"cd_mun_ibge":"5004908"},"type":"MultiPolygon","arcs":[[[-178,75,-155,76]]],"id":43},{"properties":{"cd_mun_ibge":"5005004"},"type":"MultiPolygon","arcs":[[[77,-152,78,79,-142,80]]],"id":44},{"properties":{"cd_mun_ibge":"5005103"},"type":"MultiPolygon","arcs":[[[-233,81,-124,-218,-107,-84]]],"id":45},{"properties":{"cd_mun_ibge":"5005152"},"type":"MultiPolygon","arcs":[[[82,-234,83,-106,84,85]]],"id":46},{"properties":{"cd_mun_ibge":"5005202"},"type":"MultiPolygon","arcs":[[[86]]],"id":47},{"properties":{"cd_mun_ibge":"5005251"},"type":"MultiPolygon","arcs":[[[-146,87,88,89,90]]],"id":48},{"properties":{"cd_mun_ibge":"5005400"},"type":"MultiPolygon","arcs":[[[91,92,-144,93,-113,94,95,-204,-165]]],"id":49},{"properties":{"cd_mun_ibge":"5005608"},"type":"MultiPolygon","arcs":[[[96,97,98,99,100]]],"id":50},{"properties":{"cd_mun_ibge":"5005681"},"type":"MultiPolygon","arcs":[[[101,102,103]]],"id":51},{"properties":{"cd_mun_ibge":"5005707"},"type":"MultiPolygon","arcs":[[[104,105,106,-217,107,108]]],"id":52},{"properties":{"cd_mun_ibge":"5005806"},"type":"MultiPolygon","arcs":[[[109,110,111,112]]],"id":53},{"properties":{"cd_mun_ibge":"5006002"},"type":"MultiPolygon","arcs":[[[-202,113,-162,-121,114,-166]]],"id":54},{"properties":{"cd_mun_ibge":"5006200"},"type":"MultiPolygon","arcs":[[[115,116,117,-220,-123,118,119,120,-161]]],"id":55},{"properties":{"cd_mun_ibge":"5006259"},"type":"MultiPolygon","arcs":[[[121,122,-219,123]]],"id":56},{"properties":{"cd_mun_ibge":"5006275"},"type":"MultiPolygon","arcs":[[[124,125,126,127]]],"id":57},{"properties":{"cd_mun_ibge":"5006309"},"type":"MultiPolygon","arcs":[[[128,129,130,-132,131,132,133]]],"id":58},{"properties":{"cd_mun_ibge":"5006358"},"type":"MultiPolygon","arcs":[[[134,-209,-192,135]]],"id":59},{"properties":{"cd_mun_ibge":"5006408"},"type":"MultiPolygon","arcs":[[[-206,136,137,138]]],"id":60},{"properties":{"cd_mun_ibge":"5006606"},"type":"MultiPolygon","arcs":[[[139,140,141,142,143,144,145,146,147]]],"id":61},{"properties":{"cd_mun_ibge":"5006903"},"type":"MultiPolygon","arcs":[[[148,149,150,151,152,153]]],"id":62},{"properties":{"cd_mun_ibge":"5007109"},"type":"MultiPolygon","arcs":[[[154,155,156,157,158,-181,159,160,161,162]]],"id":63},{"properties":{"cd_mun_ibge":"5007208"},"type":"MultiPolygon","arcs":[[[163,164,-203,165,166,167,168,169]]],"id":64},{"properties":{"cd_mun_ibge":"5007307"},"type":"MultiPolygon","arcs":[[[170,-173,-187,171]]],"id":65},{"properties":{"cd_mun_ibge":"5007406"},"type":"MultiPolygon","arcs":[[[172,173,174,175,-188]]],"id":66},{"properties":{"cd_mun_ibge":"5007505"},"type":"MultiPolygon","arcs":[[[176,177,178,-225,179]]],"id":67},{"properties":{"cd_mun_ibge":"5007554"},"type":"MultiPolygon","arcs":[[[180,181,182,183]]],"id":68},{"properties":{"cd_mun_ibge":"5007695"},"type":"MultiPolygon","arcs":[[[184,185,186,187,188,189,190]]],"id":69},{"properties":{"cd_mun_ibge":"5007703"},"type":"MultiPolygon","arcs":[[[191,-214,192,193]]],"id":70},{"properties":{"cd_mun_ibge":"5007802"},"type":"MultiPolygon","arcs":[[[194,195,-228,196,198,197]],[[198,-199]],[[199,-200]]],"id":71},{"properties":{"cd_mun_ibge":"5007901"},"type":"MultiPolygon","arcs":[[[200,201,202,203,204,-221]]],"id":72},{"properties":{"cd_mun_ibge":"5007935"},"type":"MultiPolygon","arcs":[[[205,206,207]]],"id":73},{"properties":{"cd_mun_ibge":"5007950"},"type":"MultiPolygon","arcs":[[[208,209,210,211,212,213]]],"id":74},{"properties":{"cd_mun_ibge":"5007976"},"type":"MultiPolygon","arcs":[[[214,215,216,217,218,219]]],"id":75},{"properties":{"cd_mun_ibge":"5008008"},"type":"MultiPolygon","arcs":[[[220,221,222,223,224,225]]],"id":76},{"properties":{"cd_mun_ibge":"5008305"},"type":"MultiPolygon","arcs":[[[226,227,228,229,230]]],"id":77},{"properties":{"cd_mun_ibge":"5008404"},"type":"MultiPolygon","arcs":[[[231,232,233,234,235]]],"id":78}],"type":"GeometryCollection"}},"bbox":[-58.1687203,-24.0685836,-50.92439449278139,-17.1663486],"transform":{"scale":[7.24439825120112e-05,6.902304023040231e-05],"translate":[-58.1687203,-24.0685836]},"arcs":[[[58211,89141],[38,-110],[228,148],[139,-101],[290,48],[38,116],[299,-213],[58,97],[35,-153],[140,90],[239,-273],[71,77],[27,-177],[158,-26],[37,-193],[158,28],[20,-176],[43,68],[110,-162],[60,59],[93,-282],[169,-96],[554,79],[578,-266],[25,162],[385,239],[17,123],[623,19],[367,-528],[446,101],[10,-156],[533,-61],[439,-286],[252,80],[145,510],[253,228],[244,-27],[48,-130],[72,91],[440,-294],[527,7],[599,186],[848,-174]],[[79742,28308],[-225,-391],[-991,-858],[-107,-236],[-1262,-504],[-982,-710],[-619,-198],[-700,-415],[-724,-507],[-822,-916],[-1247,-461]],[[33157,24403],[-337,-61],[-174,234],[40,246],[-324,212],[-205,567],[53,79],[-248,228],[-670,-70],[-377,96],[-233,-73],[-49,-138],[-280,13],[-190,196],[-367,-231],[-31,121],[-668,155],[-119,-162],[-321,16],[-347,222],[-154,-68],[-22,-133],[-416,31],[-69,-91],[-120,133],[-201,-40],[-60,158],[-92,-106],[-174,36],[-294,296],[-49,272],[-537,-2],[-319,280],[-237,-14],[-409,441],[6,120]],[[98493,61978],[149,-244],[47,-912],[274,-520],[-300,-836],[226,-509],[-17,-378],[-164,-335],[241,-536],[-807,-2170],[-277,-334],[-800,-568],[-2191,-450],[-661,-393]],[[35636,51558],[-215,-132],[-96,324],[-163,-32],[-323,254],[-129,-99],[-166,45],[-180,144],[-102,-111],[-1242,-162],[-448,362],[-273,-39],[-54,163],[-3716,600]],[[42738,16677],[47,-122],[-165,-85],[-345,-26],[-105,94],[-547,-223],[-130,168],[-252,52],[-212,-56],[-68,-175],[-722,-94],[-138,-198],[-291,62],[-164,-156],[-64,-334],[-113,90],[-86,-110],[-301,78],[-389,-328],[-179,-22],[-1,-120],[-189,-1],[-5,-82],[-130,68],[-160,-130],[6,-108],[-160,-37],[72,-78],[-126,-198],[113,-204],[-113,-15],[-73,-224]],[[36299,11987],[-98,304],[166,49],[150,276],[-274,246],[17,357],[-435,186],[-323,-134],[-40,701],[-244,326],[84,70],[0,423],[-388,315],[151,400],[-75,95],[165,105],[-205,286],[31,140],[-180,76],[-27,853],[-161,127],[-64,431],[230,737],[-43,135],[235,319],[238,40],[-118,143],[187,271],[-8,668]],[[82926,33291],[-314,-633],[-91,-459],[-1632,-1533],[-506,-1594],[-438,-648],[-203,-116]],[[79742,28308],[-17,209],[326,519],[-139,430],[-311,96],[-628,-108],[-295,306],[-393,120],[-335,377],[-700,461],[-494,462],[-353,1222],[-3275,-691],[-1244,281],[-962,72],[-562,249]],[[69281,30340],[212,-6],[254,-536],[128,-910],[-87,-418],[52,-547],[851,-1824],[109,-645],[516,-702],[198,-889],[-196,-48],[745,-703]],[[72063,23112],[-553,-196],[-360,-490],[-821,-408],[-470,-676],[37,-383],[-1156,-1449],[-1911,-617]],[[29734,29080],[71,-220],[-107,-246],[-418,4],[322,-549],[-323,257],[-121,-35],[-25,129],[-153,-32],[-6,119],[-244,-330],[-302,-62],[-155,247],[-234,-601],[-442,-28],[-509,-294],[-1152,198],[-295,-406],[-283,201],[-195,-66]],[[25163,27366],[-262,146],[-111,249],[71,226],[-231,383],[48,85],[-203,150],[95,63],[-62,220],[-521,-179],[-101,86],[-128,-58],[-5,122],[-79,-120],[-242,72],[-73,-204],[-427,-32],[-245,-356],[82,-292],[-290,-92],[95,-173],[-327,-142],[76,-246],[-66,-150],[-187,-158],[-139,48],[-186,-208],[-87,101],[11,-103],[-149,-43],[57,-152],[-294,-210],[-207,37],[74,-280],[-72,-27],[-122,154],[-392,116],[-47,361],[-288,65],[127,-168],[-364,-525],[-365,423],[-69,-161],[-210,37],[56,-110],[-188,-125],[-162,100],[36,177],[-109,-18],[-169,-218],[44,-375],[-548,-262],[-517,346],[62,206],[-178,263],[-238,-308],[-294,242],[-282,-90],[-164,263],[-391,-68],[-128,292],[-180,-193],[-124,66],[-354,-166],[-73,155]],[[27846,49986],[-99,-40],[122,-55],[-70,-224],[106,-153],[-231,-164],[3,-108],[233,-5],[232,-180],[-150,-134],[176,-274],[-88,-198],[251,-49],[-19,-192],[150,15],[300,-373]],[[18070,46103],[2244,9],[194,572],[598,524],[257,-35],[81,94],[-9,648],[199,196],[282,60],[-16,436],[416,319],[-21,127],[259,148],[211,-107],[-21,118],[323,217],[-146,462],[48,172],[182,50],[207,-122],[958,464],[-89,273],[252,310],[-107,123],[148,285],[-71,162],[139,149],[-19,150]],[[73872,51102],[120,25],[686,-495],[367,-509],[-19,-127],[213,-56],[133,-247],[301,-122],[272,-379],[901,-587],[-8,-127],[914,-986],[363,-114],[406,-416],[527,-180],[742,-549],[333,-100]],[[86812,41590],[419,-1134],[-174,-948],[-629,-650],[-292,-1004],[-327,-258],[-214,-408],[-401,-204],[-960,163],[-407,-543],[-86,-402]],[[47376,17098],[-415,-18],[-276,149],[-177,-81],[-15,148],[-172,44]],[[64646,64932],[156,-413],[-115,-226],[56,-83],[-139,23],[100,-132],[-191,-417],[98,-263],[286,-97],[132,-307],[-79,-145],[189,-83],[346,-727]],[[57709,62965],[-155,287],[88,243],[-218,244],[-186,524],[-594,-18],[-430,-377],[-453,-20],[-570,496],[-390,180],[-1223,-104],[-725,164],[-263,176],[-553,37],[-437,620]],[[15447,26608],[-135,38],[6,-180],[-308,-131],[-112,138],[-159,-108],[-157,122],[110,195],[-441,9],[-168,-109],[-119,109],[-370,-146],[-84,277],[-158,92],[-85,-141],[-8,100],[-92,-70],[91,-128],[-96,5],[-38,-203],[-273,-148],[-253,199],[-198,6],[-20,112],[-81,-87],[-205,241],[-247,-140],[-134,-249],[-205,238],[-77,-88],[-236,128],[-37,-107],[-58,90],[-140,-60],[-159,396],[-140,-64],[-17,99],[-239,79],[-140,-123],[0,117],[-140,-40],[-157,180],[-125,-27],[16,-93],[-72,119],[-408,-59],[-58,142],[-171,-52],[-152,168]],[[18693,36246],[152,-275],[27,-572],[76,-8],[-113,-431],[587,-381],[2,-171],[-102,-300],[-217,-90],[85,-182],[-301,-521],[-38,-262],[191,-144],[23,-234],[-209,-49],[-16,-133],[-164,-83],[136,-190],[-179,-145],[27,-140],[-178,-43],[-90,129],[-63,-75],[65,-175],[-82,-188],[82,-61],[-333,-440],[57,-384],[115,-115],[-173,68],[-46,-397],[-169,-39],[234,-134],[88,-574],[-467,-160],[-196,-400],[-153,134],[81,110],[-278,30],[-114,-59],[15,-170],[-212,30],[96,-156],[-269,2],[-250,-250],[-154,180],[103,45],[-55,27],[-190,-72],[-43,-164],[-293,-31],[-44,-104],[206,-36],[-47,-187],[240,24],[-78,-208],[140,-95],[-595,-193],[-63,-186],[200,-488],[-300,-522]],[[79466,77143],[50,-182],[567,-546],[-32,-77],[215,-10],[106,-322],[492,-250],[238,151],[416,15],[98,-151],[258,-67],[750,-63],[415,-638],[583,-102],[60,-375],[253,-157],[-40,-128],[334,-138],[155,115],[165,-70],[44,-145],[316,-52],[28,-266],[199,218],[76,-96],[203,27],[52,-136],[132,73],[-17,139],[246,-203],[152,183],[199,-118],[-6,-120],[403,-142],[85,-334],[455,-475],[214,118],[98,-50],[-113,-154],[364,25],[284,-169],[72,-194],[644,-90],[-47,-111],[274,-202],[226,66],[159,-228],[242,-31],[351,-245],[259,166],[414,-212],[224,206],[213,9],[519,-239]],[[72437,79034],[94,-93],[-34,-296],[615,-85],[355,-302],[291,-79],[225,76],[871,-365],[413,14],[444,200],[711,-261],[154,104],[449,7],[501,447],[288,-5],[295,-244],[858,-256],[499,-753]],[[79466,77143],[-972,-610],[164,-724],[-209,-262],[156,-72],[-59,-121],[-225,-215],[396,-565],[-342,-30],[288,-675],[-649,187],[130,258],[-171,-25],[29,241],[-227,248],[-208,-370],[-599,-493],[-92,-240],[171,7],[105,-122],[-83,-66],[111,-83],[-76,-69],[62,-250],[702,-564],[-196,-2336],[718,-441],[275,-1012],[399,-181]],[[78034,65459],[-85,144],[43,283],[-155,288],[144,143],[-768,787],[-12,337]],[[42585,56711],[45,261],[178,54],[51,340],[-449,919],[-25,365],[-179,223],[-241,85],[-147,186],[-6,210],[-552,-304],[-277,-20],[-313,220],[-104,-96],[-299,40],[-230,-258],[-233,149],[-437,29],[-90,233],[196,324],[-297,283],[-84,700],[-575,464],[-144,253],[-80,450],[228,203],[-59,111],[85,91],[172,-10],[237,196],[-6,321],[345,544],[5,204],[220,207],[286,791],[-47,154],[310,313],[343,933]],[[47574,64782],[-172,-167],[-12,-193],[-372,-180],[136,-79],[103,-556],[213,-177],[-76,-192],[127,-151],[-94,-120],[-20,-728]],[[36299,11987],[263,20],[367,567],[-38,517],[235,527],[323,250],[123,254],[176,41]],[[37748,14163],[168,-530],[525,-739],[148,-426],[198,-167],[242,-610],[1269,-584],[207,-247],[100,54],[258,-334],[104,43],[149,-182],[344,-118],[161,-218],[-21,-140]],[[36005,8483],[-24,99],[260,29],[-20,361],[402,576],[153,450],[-206,193],[-209,461],[-294,247],[93,183],[-54,350],[420,287],[-202,122],[-25,146]],[[38232,79488],[-1779,-5191],[-1420,-1236],[-311,-433],[-204,-32],[-451,-415],[-106,-337],[-279,-290],[-140,-456],[-378,-458],[1,-248],[-272,-388],[-68,-301],[-461,-427],[66,-572],[-101,-195],[-635,-515],[-109,-218],[-126,-8],[-136,-410],[-295,-47],[-463,-646],[-239,18],[-18,2709],[-8380,22],[-534,-3422],[-3215,-1335],[-198,-211],[-135,54],[-103,-92],[-288,188],[-827,-196],[-207,200],[-265,-69],[42,-98]],[[16161,56208],[423,-492]],[[4624,45380],[-148,-147],[-264,-35],[-152,131],[-165,452],[-574,122],[22,120],[684,512],[264,82],[43,220],[-532,651],[-245,27],[-417,-172],[-283,119],[381,676],[913,-50],[-30,347],[-731,883],[-189,-80],[-296,-505],[-409,77],[242,802],[-348,181],[-236,277],[214,583],[-318,907],[322,855],[-17,199],[-328,508],[-626,157],[-232,274],[-263,739],[184,642],[-95,333],[-316,62],[-345,-321],[-205,115],[-58,529],[576,477],[-148,180],[-370,8],[-129,204],[219,207],[498,93],[339,555],[609,42],[220,613],[734,111],[288,469],[335,39],[417,-332],[615,1037],[-3759,3077],[4805,10493],[1006,6],[252,353],[-151,329],[-222,137],[-7,1140],[-648,0],[2876,9544],[1442,144],[-296,200],[-84,280],[-328,-14],[-952,971],[-363,1288],[-1671,3096],[517,0],[0,289],[-487,521],[110,643],[-262,126],[-148,364],[-149,10],[-142,466],[-190,58],[-99,307],[145,336],[-118,-42],[-48,101],[137,147],[-177,73],[148,110],[-200,-8],[140,136],[-267,267],[647,-111],[312,541],[260,-193],[210,-1123],[387,-742],[-164,-189],[-53,-457],[290,-194],[321,181],[391,-477],[-111,-65],[71,-174],[192,-123],[-160,-60],[92,-332],[408,26],[68,-215],[176,-1],[92,-185],[290,-158],[-52,-210],[216,-117],[573,38],[-1,-287],[348,-344],[79,407],[345,294],[152,-56],[169,271],[177,-71],[127,268],[318,-175],[389,126],[237,266],[115,-87],[134,76],[-48,-121],[141,-40],[-6,142],[261,-108],[169,139],[275,-24],[-267,274],[125,-59],[218,214],[316,-94],[406,189],[261,-32],[127,158],[430,-196],[28,135],[207,19],[76,243],[183,66],[81,198],[401,74],[159,516],[195,37],[83,286],[345,190],[61,252],[341,421],[-20,112],[-288,-85],[76,218],[-89,228],[442,168],[75,227],[488,296],[190,-99],[274,92],[200,403],[-7,308],[162,-41],[33,330],[310,74],[-214,244],[293,150],[-308,195],[162,157],[7,233],[578,25],[15,276],[330,143],[-83,287],[161,58],[5,162],[250,17],[68,212],[218,22],[62,-152],[284,19],[-41,-137],[176,151],[271,-323],[109,79],[-97,96],[82,77],[156,-259],[-28,324],[235,-250],[75,176],[402,-152],[267,22],[-39,156],[113,72],[278,-110],[258,144],[71,-119],[70,153],[222,66],[-130,192],[119,-28],[70,122],[49,-180],[347,-163],[77,112],[49,-194],[160,79],[21,-235],[118,-71],[326,281],[146,-61],[346,408],[309,103],[55,200],[189,-87],[-120,-65],[218,-180],[12,109],[162,-47],[134,236],[217,-104],[223,190],[-51,233],[238,-11],[-12,121],[172,-58],[-81,182],[140,-42],[13,219],[420,-142],[-28,138],[196,-116],[-59,242],[330,3],[51,307],[115,-98],[336,152],[178,-83],[-4,169],[384,191],[385,-164],[314,101],[148,-235],[95,225],[532,-475],[-213,-137],[170,-8],[-29,-360],[97,77],[-2,-160],[209,47],[25,-246],[84,171],[175,-116],[224,65],[-54,-90],[201,-311],[135,59],[71,231],[134,-104],[416,17],[-213,-138],[153,16],[59,-181],[153,61],[10,173],[228,-216],[95,62],[131,-318],[199,186],[-8,-264],[98,129],[229,-25],[-9,-145],[240,-278],[96,104],[112,-154],[157,124],[547,-376],[172,172],[107,-240],[112,207],[97,-159],[77,172],[173,-170],[159,180],[165,-303],[63,282],[189,-352],[174,-59],[5,120],[384,-200],[-14,-356],[93,-38],[-93,-37],[-6,-266],[161,43],[7,-230],[337,-178],[-96,-72],[202,-67],[79,-173],[205,-53],[-26,-131],[270,3],[2,-80],[438,74],[399,-441],[-3,89],[535,-98],[316,-189],[72,151],[322,-240],[43,-245],[176,48],[191,-113],[-77,66],[99,87],[387,11],[-29,-136],[175,-16],[-79,-118],[192,-69],[89,121],[70,-307],[139,14],[159,-364],[-11,113],[223,-66],[129,-137],[-108,-15],[58,-112],[230,48],[173,-210],[116,122],[113,-219],[123,11],[-53,-96],[395,22],[42,-124]],[[63333,81587],[293,38],[189,226],[290,31],[38,124],[198,-14],[120,115],[164,-209],[702,449],[-176,494],[249,320],[-424,724],[90,136],[215,220],[542,203],[728,-247],[224,322],[-665,459],[300,133],[389,-226],[211,1],[1265,1136],[-40,940],[-149,215],[-20,636]],[[68066,87813],[538,-186],[114,-232],[189,-76],[1443,110],[-88,-276],[-621,-84],[-270,-333],[186,-1143],[270,-853],[124,-1322],[431,-464],[623,-112],[150,354],[481,310],[433,125],[1029,-271],[938,20],[405,-222],[229,-280],[-36,-336],[-333,-276],[-172,-355],[-1032,-173],[-106,-561],[-356,-290],[-124,-339],[-370,-118],[-274,-344],[-35,-134],[421,-711],[-75,-205],[259,-2]],[[72437,79034],[-547,-537],[-416,-248],[-372,-55],[-67,-404],[-286,-348],[85,-278],[-218,-723],[99,-80]],[[66069,74251],[-257,34],[-208,412],[-282,240],[-272,26],[-96,288],[-364,359]],[[39514,84328],[2308,8695]],[[41822,93023],[26,-34]],[[54743,86596],[256,-151],[585,-833],[26,-1337],[146,-456],[-219,-347],[-829,-622],[425,55],[472,220],[186,-53],[140,-228],[359,-80],[63,-692],[-84,-144],[187,-477],[-98,-264],[136,-461],[-64,-279]],[[55810,30756],[450,-581],[107,-642],[-95,-539],[60,-220],[1297,-543],[-206,-485],[156,-66]],[[39495,43885],[-202,467],[-301,212],[48,110],[-211,274],[-217,123],[49,380],[-267,44],[-179,233],[79,234],[-188,396],[-145,82],[81,254],[-521,275],[22,261],[-204,187],[-96,389],[-780,413],[0,570],[-74,-45],[-276,286],[38,177],[-176,207],[89,218],[-353,272],[-11,712],[81,339],[131,98],[-191,68],[91,277],[-176,160]],[[35636,51558],[277,248],[31,-238],[162,7],[665,760],[286,-177],[95,152],[176,-274],[202,407],[-130,123],[128,28],[65,736],[-217,614],[129,536],[-104,120],[-160,-93],[-65,97],[-164,-23],[-444,391],[-31,445],[272,234],[-160,124],[3,129],[375,617],[51,310],[152,-71],[348,140],[-46,-119],[98,-87],[251,142],[178,-135],[-4,-199],[243,-105],[501,14],[289,223],[75,-173],[1183,-795]],[[48125,29014],[40,-412],[320,27],[228,-130],[198,131],[625,-541],[359,402],[150,664],[423,603],[190,1167]],[[54342,30638],[15,-267],[156,-73],[-16,-263],[178,-90],[90,-215],[-198,-116],[-3,-214],[-376,-633],[49,-104],[-91,-4],[95,-79],[-5,-382],[160,-26],[51,-127],[-202,-194],[-80,41],[-77,-203],[-196,52],[56,-173],[-263,-134],[214,-89],[-44,-155],[-327,-289],[153,-4],[-1,-87],[-400,-148],[76,-107]],[[49605,24118],[-468,-88],[-143,-174],[-74,62],[-117,-253],[-176,-14],[-298,243],[-712,-207],[-37,-110],[-257,117],[117,106],[-156,156],[-164,-242],[-210,182],[-128,-69],[-53,343],[-167,-22],[-156,186],[-118,9],[-97,-152],[-954,318],[-276,-218],[-22,265],[-258,-28],[-72,185],[-120,-126],[-252,105]],[[56838,5526],[-21,-549],[-384,-809],[-48,-1218]],[[49605,24118],[-235,297],[-557,198],[-136,245],[1049,852],[488,-328],[-4,-284],[162,-180],[416,33],[184,139],[195,-21],[44,109],[275,-239],[-36,284],[382,19],[517,702],[-104,4],[19,86],[457,287],[441,-46],[10,169],[184,111]],[[53356,26555],[565,-232],[-250,-587]],[[50568,23335],[-163,152],[-94,584],[-167,-88],[-539,135]],[[64590,75610],[-53,-663],[-815,-487],[-142,12],[-504,-675],[-849,-170],[-356,-220],[-279,102],[66,497],[-399,-412],[-607,-291],[-721,179],[-944,-231],[-837,125],[-50,-177],[-248,-62],[-32,-355],[-106,36],[62,-480],[-588,-384],[-110,75],[-342,-65],[8,165],[-241,243],[-526,293],[-172,487],[-467,52],[-157,-132],[-207,34]],[[52116,77708],[158,156],[-17,236],[354,284],[134,268],[-93,72],[172,70],[-86,132],[273,268],[-110,136],[376,439],[173,-40],[110,98],[139,-317],[201,-67],[526,128],[654,-72],[322,672],[490,74],[94,231],[444,-29]],[[56430,80447],[153,15],[175,190],[-6,181],[89,1],[83,-191],[565,-488],[321,-101],[206,249],[488,45],[118,-104],[303,377],[252,-33],[16,241],[122,120],[108,-42],[-30,111],[205,223],[231,-2],[279,-258],[49,157],[234,-96],[-50,-122],[194,-34],[136,168],[-102,93],[170,-1],[247,265],[152,32],[165,-133],[220,144],[168,-69],[152,77],[476,-185],[1014,310]],[[63333,81587],[266,-206],[13,-273],[584,-632],[242,-110],[388,-811],[22,-283],[111,-75],[-63,-276],[148,-125],[300,-10],[25,-348],[283,3],[546,-377],[60,-231],[-85,-25],[-64,-533],[472,-588],[-1977,-900],[-14,-177]],[[53052,24283],[619,1453]],[[53671,25736],[2287,-915]],[[26799,40240],[382,139]],[[46326,7568],[-376,664],[-94,256],[60,115],[-556,487],[249,468],[384,305],[-47,439],[339,735],[358,11],[247,222],[550,-44],[344,99],[483,-354],[394,530],[-132,157],[-122,710],[102,422],[280,318],[603,113],[436,428],[512,206],[200,391],[509,510]],[[53750,7309],[-415,30],[-273,157],[-78,-44],[-795,-2190],[140,-296],[-460,-634],[-73,-273]],[[92396,59536],[-1125,-94],[-1132,-248],[-49,-177],[-473,-252],[-166,-506]],[[78578,64582],[-257,452],[-226,178],[89,114],[-150,133]],[[78034,65459],[112,-8],[278,326],[34,397],[190,132],[-23,153],[204,328],[-162,62],[-6,211],[105,58],[-122,59],[-31,185],[103,14],[-10,389],[265,196],[-90,62],[151,151],[32,384]],[[79064,68558],[586,42],[985,-470],[846,44],[653,-184],[216,91],[17,324],[229,155],[207,-223],[248,39],[360,-360],[656,744],[-149,256],[-1008,-24],[-525,846],[-305,149],[203,268],[258,-14],[238,327],[597,-251],[691,-638],[309,129],[70,331],[426,414],[298,68],[266,43],[591,-316],[940,-146]],[[48889,31066],[18,-263],[-526,-1130],[20,-314],[-276,-345]],[[48125,29014],[-176,-108],[-157,-352],[-523,-219],[-326,-345],[-838,-547],[-112,48],[-47,-153],[-419,-276],[-743,130],[-432,213],[-321,367],[-528,145],[-378,554],[-650,-269],[-52,167],[126,529],[-264,571],[82,419],[264,339],[794,270],[193,358],[-186,300],[211,299],[-50,159]],[[58093,9057],[-294,-194],[-258,-621],[-114,-715],[-215,-536],[-113,-951],[-261,-514]],[[56838,5526],[-154,105],[-19,237],[122,212],[-86,129],[-627,-19],[-188,213],[-302,4],[-149,203],[-498,163],[-303,387],[-884,149]],[[53750,7309],[290,404],[-22,476],[253,775],[-51,452],[-302,304],[-517,165],[193,198],[-1191,891],[-183,573],[-197,204],[312,500],[-13,577],[178,482],[423,719]],[[57160,22089],[-409,1003],[-638,660],[-193,783],[38,286]],[[55958,24821],[297,388],[1064,2344],[260,127]],[[57579,27680],[268,144],[264,-193],[378,-43],[451,-499],[992,-178],[675,-370],[1288,74],[875,397],[192,207],[265,-74]],[[48585,5078],[207,-208],[449,13],[4,79],[419,-135],[549,30],[522,-294],[325,52],[-13,-109],[227,-29],[-87,-110],[117,-25],[-26,-259],[271,-109],[247,85]],[[51796,4059],[364,-370]],[[51652,1992],[-101,29],[110,194],[-192,165],[-403,95],[-249,-86],[-78,268],[-302,0],[-115,168],[-217,65],[-409,-78],[57,294],[-273,249],[-229,-221],[-124,13],[-94,237],[-417,18],[-313,308],[-198,-261]],[[51897,58477],[543,130],[698,-143],[412,75],[415,-251],[419,100],[582,-343],[203,-414],[673,-139],[321,-258]],[[54980,52206],[-237,-208],[-223,39],[-42,-152],[-149,54],[-332,-189],[-512,38],[-113,196],[-461,31],[-401,259],[-329,485],[-416,73],[-363,361],[-617,68],[-115,852],[-267,702],[-1242,491],[-119,-101],[-403,84],[-76,243],[-360,288],[-581,171],[-88,140],[-223,-107],[-103,115],[-298,34],[-154,271]],[[18693,36246],[-211,-56],[-311,145],[-155,-138],[-714,-161],[-98,-203],[-264,25]],[[19045,37974],[1823,262],[533,-168],[819,251],[377,-191],[631,-52],[388,94],[103,134],[156,-146],[307,21],[648,312],[155,-116],[282,125],[449,-95],[214,202],[-82,151],[84,597],[422,-127],[142,122],[-24,136],[212,59],[110,221],[-95,180],[100,294]],[[26799,40240],[208,-153],[-87,-318],[134,-95],[-39,-155],[129,-45],[-13,-160],[-125,-3],[82,-115],[-107,-50],[56,-95],[-100,-144],[290,-346],[-11,-359],[159,-136],[340,98],[224,-170],[24,-215],[318,-133],[108,-505],[-108,-156],[139,-62],[85,-298],[-428,-592],[251,-132],[-157,-183],[121,-54],[-90,-51],[17,-263],[130,6],[38,-233],[269,-246],[49,-391],[554,-58],[114,-445],[201,30],[38,-142],[115,-17],[63,-243],[417,-473],[-6,-195],[-149,-128],[63,-71],[573,-142],[464,36],[143,122],[103,-59]],[[28736,31501],[-357,329],[-457,-27],[-73,676],[-104,237],[-373,331],[-277,105],[-625,-15],[-431,1683],[-540,152],[-593,411],[-385,-73],[-129,-138],[-530,41],[-171,149],[-92,-93],[-519,87],[-364,310],[-69,715],[-165,437],[-1285,-483],[-388,-417],[-582,653],[-832,-99],[-199,-148],[-503,-78]],[[52737,23552],[3225,-1320],[61,-423],[100,-56],[493,110],[225,216],[319,10]],[[47376,17098],[-12,360],[-168,220],[137,573],[-70,548],[284,290],[145,446],[781,384],[-364,335],[-273,770],[766,-237],[1009,40],[532,353],[506,-37],[37,-172],[201,-5],[65,-163],[323,165]],[[51603,20900],[324,-127],[252,44],[865,681],[1360,-1822],[492,-174],[630,155],[760,-664]],[[51091,14883],[-90,-33],[83,-3],[-35,-91]],[[51049,14756],[-45,149],[-388,201],[-18,144],[-272,225],[85,119],[-209,75],[-11,260],[-344,-123],[10,95],[-239,-17],[-113,75],[-12,201],[-414,336],[-218,122],[-175,-153],[-73,242],[-198,-30],[-19,176],[-333,226],[-114,30],[-80,-119],[-493,108]],[[7265,70897],[-344,112],[-142,433],[225,717],[297,60],[100,750],[171,130],[83,342],[449,-39],[422,-205],[357,105],[206,-149],[609,-118],[91,-478],[-452,-507],[-151,-386],[-60,-1271],[-301,-140],[-327,345],[-370,68],[-249,-138],[-138,215],[-476,154]],[[43943,24792],[294,-100]],[[44237,24692],[-23,-506],[-220,-655],[-599,-853],[-310,-10],[-88,-293],[-213,-215],[-392,-127],[-56,-492],[-357,-358],[12,-504],[710,-431],[478,-60],[244,-331],[315,-52],[173,-175],[20,-200],[303,-88],[-93,-322],[109,4],[77,-161],[133,46],[57,-96],[-14,98],[134,47],[78,-105],[-60,-72],[199,-235],[-149,-25],[-22,-131],[336,36],[28,-270],[195,62],[590,-311],[-26,-107],[418,-125],[-39,-118],[136,-217]],[[46321,17340],[-207,-150],[-86,64],[-93,-172],[-440,199],[-27,-122],[-440,-139],[28,-250],[-127,21],[-126,-219],[-392,-29],[-58,93],[-50,-130],[107,-101],[-236,-164],[-123,47],[-25,231],[-100,26],[49,202],[-107,92],[-191,-118],[-204,56],[-236,-222],[-62,109],[-91,-115],[-121,158],[-225,-30]],[[42738,16677],[111,152],[-170,174],[-274,-117],[-114,153],[-279,-187],[-81,-221],[-436,121],[-45,435],[-422,136],[-73,193],[-184,-36],[-55,214],[-250,59],[-108,249],[151,295],[-306,-82],[-196,286],[57,91],[-274,131],[-13,213],[-308,99],[-21,432],[-87,-87],[-39,92],[-318,-37],[59,162],[-200,-4],[26,119]],[[46093,32410],[-246,-203],[-440,312],[-591,0],[-320,265],[-234,-50],[-308,-211],[-169,-693],[-192,-217]],[[43593,31613],[-323,-184],[-384,30],[-392,-165],[-191,68],[-639,-252],[-381,123],[-681,-190],[-577,114],[-655,313],[-458,37],[-196,209],[-364,-222],[-58,94],[-237,-93]],[[32290,34847],[4,103],[-119,-1],[104,40],[36,207],[-52,113],[-122,-50],[15,107],[125,22],[180,-317],[188,58],[74,152],[-216,-42],[-20,102],[123,62],[-178,78],[69,160],[-206,-11],[178,229],[42,-166],[67,96],[43,-71],[-57,-207],[84,73],[32,-182],[110,43],[-24,171],[111,-131],[93,104],[70,-161],[158,60],[1,-226],[84,97],[200,-237],[-215,402],[-161,25],[5,147],[252,-236],[154,-9],[-90,241],[-151,-37],[-23,261],[129,81],[-132,28],[-86,-222],[-194,-23],[19,101],[-166,-85],[49,153],[162,55],[-290,41],[-64,187],[171,-82],[-14,95],[154,5],[-106,135],[165,-2],[-118,158],[-164,-234],[-131,-8],[-28,183],[97,94],[-186,-25],[-122,233],[127,-91],[80,166],[75,-85],[293,101],[-230,52],[55,196],[-103,-131],[-94,87],[78,222],[-174,-134],[-1,103],[-171,-37],[12,172],[-165,16]],[[37030,44133],[177,43],[258,-229],[161,-7],[247,-308],[864,327],[600,-239],[158,165]],[[39495,43885],[93,260],[360,323],[115,14],[171,-252]],[[16161,56208],[74,473],[-70,133],[151,214],[-226,291],[14,902],[-322,317],[-32,183],[-549,3],[997,5709]],[[16198,64433],[104,3],[-85,-176],[143,-194],[-95,-69],[58,-130],[-121,40],[-71,-134],[83,-268],[484,66],[-87,-47],[84,-135],[250,62],[33,-101],[7,141],[357,-94],[190,142],[127,-258],[206,26],[-85,-84],[69,-224],[59,153],[227,-109],[103,-151],[-104,-54],[-47,-69],[117,53],[56,-285],[58,59],[168,-128],[44,-282],[334,-225],[92,80],[190,-167],[373,344],[216,-36],[77,-254],[117,188],[157,-54],[67,248],[146,26],[123,-123],[164,34],[29,-105],[389,-46],[-31,-345],[150,-88],[110,-310],[757,277],[1103,-28],[889,-762],[445,-139],[93,-218],[370,-183],[212,-302],[396,-6],[446,-726],[394,-147],[103,-273],[-1,-648],[135,-523],[-88,-286],[468,-967],[-320,-345],[219,-702],[-207,-230],[149,-155],[2,-251],[383,-245],[102,-336],[387,17],[222,-287],[-4,-159],[217,74],[352,-321],[72,-607]],[[28529,52875],[-1113,-245],[40,-135],[412,-123],[73,-586],[149,-89],[-78,-653],[147,-884],[-158,-198],[-155,24]],[[27846,49986],[-265,30],[-192,-230],[-250,191],[27,207],[-129,20],[-125,-114],[94,-29],[-71,-268],[102,-222],[-155,58],[-109,-222],[-227,142],[59,109],[-98,-24],[5,93],[-59,-99],[-146,78],[-163,-96],[-3,128],[-111,22],[82,194],[-166,24],[40,93],[-160,97],[75,88],[-103,19],[60,62],[-171,46],[141,225],[-231,-54],[-32,-137],[-100,82],[-107,388],[-197,45],[-62,166],[-53,-54],[27,177],[-166,19],[83,90],[-285,398],[127,133],[-263,46]],[[24569,51907],[-133,332],[176,316],[-236,4],[53,111],[-80,35],[178,251],[-120,178],[132,-39],[10,115],[-67,128],[-191,34],[201,130],[-98,85],[148,176],[-106,136],[131,217],[-375,-19],[30,-141],[-100,-57],[-49,378],[-437,123],[-982,-678],[-2113,41],[8,-403],[-111,9],[-72,-244],[-98,79],[-23,-119],[-211,-75],[-135,141],[-192,-102],[-157,66],[-374,-214],[-293,343],[-201,37],[-138,415],[-90,5],[52,1348],[-691,172],[-124,255],[-253,39],[-297,328],[-51,246],[-227,148],[-702,-29]],[[56385,2950],[48,-381],[-294,-879],[-255,-322],[-751,-403],[-975,-753],[-580,-212],[-313,323],[-196,615],[-305,35],[-78,-91],[-440,303],[-145,312],[-281,103],[-168,392]],[[51652,1992],[609,340],[285,29],[-104,288],[-427,91],[-83,283],[-181,117],[409,549]],[[52160,3689],[402,-71],[361,-266],[417,8],[61,-145],[363,-198],[291,-502],[375,-200],[-41,-96],[98,64],[99,-125],[26,114],[100,-58],[-31,-121],[147,139],[51,-140],[44,133],[65,-192],[429,33],[535,323],[433,561]],[[52923,14029],[-172,105],[-116,-106],[-96,106],[-220,-29],[-119,135],[-294,-60],[-220,83],[10,228],[-129,-131],[76,295],[-278,-29],[-34,152],[-240,105]],[[51091,14883],[488,1201],[21,1052],[197,303],[-132,627],[3571,840],[318,-198],[229,24],[503,261]],[[56286,18993],[1158,-553],[64,-182],[260,-159],[66,-228],[315,-147],[207,-253],[978,-187],[628,-330],[849,-41],[430,-479],[373,34],[221,-124],[222,-326],[180,-16],[49,-251]],[[62596,15433],[-36,-1763],[-327,-426],[6,-164],[-465,-806],[-360,-1104],[-299,-551],[-472,-572],[-559,-153],[-1602,-873],[-389,36]],[[58093,9057],[729,658],[354,453],[-23,136],[212,58],[143,197],[105,-69],[38,223],[244,-22],[-176,184],[92,176],[117,-9],[43,231],[-168,184],[93,99],[-52,160],[-234,92],[-116,591],[-555,215],[91,93],[-63,60],[-139,-76],[-30,104],[-323,-8],[-202,258],[-277,119],[-480,35],[-873,329],[-269,12],[-96,-212],[-386,-54],[-34,-137],[156,67],[-55,-122],[-272,-134],[-639,89],[-52,484],[-123,48],[-151,-180],[-169,58],[-116,-85],[-44,236],[-434,-13],[-347,289],[-11,136],[-296,-12],[-166,162],[-171,-71],[73,-105],[-118,45]],[[32185,37421],[-82,-46],[-492,570],[-584,177],[5,272],[-130,139],[-437,101],[-763,611],[-466,195],[-601,-71],[-653,132],[-427,377],[-233,72],[-141,429]],[[27181,40379],[-40,274],[-163,-4],[-62,150],[167,236],[-273,120],[-38,315],[242,-76],[364,205],[-174,167],[-331,40],[108,178],[-15,334],[-124,122],[7,330],[-123,170],[243,369],[373,-71],[154,186],[-137,139],[3,280],[-171,171],[-181,5],[187,148],[-200,332],[439,435],[-134,138],[-118,-86],[58,410],[127,-12],[129,-218],[247,32],[-430,664],[272,199],[318,-18],[10,110],[-162,-19],[98,185],[-148,95],[8,403],[448,-206],[-14,-161],[217,46],[189,-176],[47,213],[-365,257],[-4,222],[208,92],[-244,262],[25,94],[-104,-43],[-63,101],[297,255],[331,-142],[83,221]],[[28762,47852],[151,46],[109,-97],[148,118],[225,-75],[132,-284],[81,191],[215,-37],[41,-436],[515,-208],[407,-29],[286,193],[425,52],[221,268],[-2,151],[350,302],[2,314],[789,-204],[148,-239],[347,123],[471,-607],[-107,-397],[273,-151],[-68,-161],[246,-375],[97,-663],[492,-275],[413,-556],[410,-151],[87,-170],[194,95],[755,-47],[415,-410]],[[37030,44133],[-225,-250],[186,-219],[-69,-299],[-163,-4],[20,-170],[-208,72],[0,-104],[-217,-119],[98,249],[-94,97],[-270,-163],[31,-96],[-225,-35],[143,246],[75,-25],[-37,155],[170,-58],[-28,213],[335,-161],[-443,356],[41,-253],[-384,-324],[-52,104],[-117,-60],[48,101],[-109,45],[272,118],[-100,28],[111,77],[-118,42],[84,71],[-123,-36],[15,112],[-126,-332],[-269,-34],[-76,174],[13,-122],[-197,-5],[230,-63],[128,-333],[-90,114],[-60,-97],[-153,215],[-124,-12],[134,-101],[-28,-208],[-65,114],[-101,-75],[-39,155],[-297,21],[113,159],[-238,-101],[610,-378],[-264,-76],[-14,-103],[106,38],[-66,-150],[218,199],[29,-160],[194,-33],[-228,-47],[108,-64],[-185,-154],[321,86],[-166,-265],[250,-7],[-52,-123],[214,-73],[-194,-164],[-125,213],[-81,33],[-120,-38],[122,16],[83,-127],[-141,16],[-11,-135],[119,3],[-75,-167],[-211,170],[19,-134],[-145,120],[-59,8],[304,-256],[-54,-248],[81,-66],[129,139],[49,-7],[-210,-203],[187,-81],[-111,3],[-20,-175],[-100,323],[-97,-201],[-103,78],[34,135],[-167,-74],[142,237],[-196,172],[-121,-37],[-20,133],[-164,-85],[315,-209],[-129,-108],[-70,69],[-150,48],[-59,-22],[207,-110],[-211,-93],[267,27],[-65,-135],[174,-42],[-26,-78],[-111,-145],[-30,172],[-170,16],[41,-95],[-114,19],[24,-75],[-64,12],[-178,-123],[349,65],[-215,-212],[59,-121],[116,18],[93,211],[5,-172],[182,129],[135,-85],[-317,-172],[255,-60],[-62,-220],[-347,134],[-242,-188],[465,53],[97,-79],[-95,-90],[149,-32],[-204,-31],[-14,115],[-247,-109],[238,-20],[-243,-213],[360,41],[-374,-232],[140,-63],[-38,-252],[80,2],[43,279],[210,70],[16,110],[292,-79],[-265,-80],[52,-160],[-137,44],[-37,-216],[260,49],[-198,-211],[-448,48],[28,-201],[153,93],[85,-80],[29,117],[167,-94],[317,281],[13,-168],[103,-20],[35,98],[69,9],[-122,-239],[-262,158],[-55,-302],[164,89],[2,-118],[253,21],[-150,-155],[213,-35],[-100,-72],[30,-58],[66,18],[30,-33],[-134,-21],[-194,156],[-163,-80],[111,134],[-265,63],[-19,188],[-133,-119],[-106,66],[30,-130],[277,-101],[-7,-153],[-162,-66],[47,-144],[371,-298],[10,-115],[-181,-14],[137,-210],[-122,-22],[28,-111],[-148,269],[-56,-223],[-91,82],[63,318],[-193,-100],[69,249],[-75,78],[-55,-423],[-112,123],[46,465],[-146,-29],[149,201],[-151,61],[-84,-380],[-79,266],[-97,-36],[-61,135],[169,235],[-167,-23],[85,151],[-151,142],[40,-183],[-96,-136],[-78,63],[108,-164],[-111,-44],[220,-174],[-164,-10],[24,-73],[135,48],[68,-66],[-105,-43],[176,-56],[-100,-113],[71,-158],[-213,-58],[59,122],[-113,179],[-168,-273],[37,133],[-162,171],[183,65],[-15,146],[-180,-200],[-154,37],[124,155],[-176,-67],[-52,331],[-88,-180],[-123,8],[-132,-65],[557,-353],[-109,-7],[3,-124],[-223,67],[64,-46],[41,-140],[-93,152],[-102,-41],[47,108],[-93,-91],[-162,115],[57,114],[-219,-53],[137,-86],[-213,-194],[147,-237],[-199,108],[7,-161]],[[50548,44542],[440,-241],[140,44],[211,-241],[290,19],[-24,-164],[304,-112],[-113,-161],[328,-117],[15,-301],[205,-345],[425,41],[102,-261],[123,87],[172,-238],[345,-120],[-84,-212],[92,-60],[-208,-96],[550,-260],[-107,-187],[196,-126],[-1,-236],[-170,-241],[117,-84],[80,104],[92,-298],[396,-40],[-19,-193],[-131,91],[-66,-76],[57,-283],[263,82],[-82,-176],[284,-20],[-111,-219],[97,-20],[91,-345],[316,-134],[579,-771],[319,-86],[87,-450],[217,-39],[51,-175],[204,-7],[11,-210],[274,12],[143,-262],[312,-230],[65,94],[-29,-201],[230,-73],[179,-332],[222,67],[62,-138],[270,-55],[250,80],[671,-275],[-20,-70],[378,-38],[154,206],[143,-61],[2,151],[82,18],[97,-192],[244,-138],[325,0],[45,145],[107,-322],[46,132],[241,43],[41,-95],[-101,-60],[89,-90],[272,60],[-95,152],[268,63],[98,-206],[42,334],[307,72],[266,-198],[148,71],[65,-269],[152,154],[109,-68]],[[60410,31080],[-84,167],[-201,-114],[-327,332],[-159,-86],[-339,71],[-109,228],[-247,-7]],[[71002,35540],[-203,-113],[45,-963],[-613,-1588],[129,-563]],[[70360,32313],[-1079,-1973]],[[69281,30340],[-2850,-5209]],[[63597,21710],[122,331],[462,185],[40,243],[257,227],[-45,164],[249,513],[-185,294],[-191,15],[-58,450],[-190,103],[-150,303],[30,179],[-230,-11],[236,120],[36,290],[-319,387],[63,224],[-198,226],[-122,429],[188,195],[-376,293],[11,275]],[[63227,27145],[-90,302],[124,166],[-41,140],[-470,124],[-47,310],[-513,165],[-133,548],[-270,278],[82,207],[-868,462],[240,141],[-58,176],[-408,-103],[78,482],[-399,248],[-44,289]],[[60410,31080],[139,776],[754,928],[-129,237],[65,856],[-131,668],[202,287],[-106,625],[1502,76],[233,364]],[[57160,22089],[1571,1612],[499,-421],[294,-560],[700,-472],[1753,-542],[395,13],[432,192],[793,-201]],[[63597,21710],[369,-149],[303,69],[176,-130]],[[63637,20312],[-514,58],[-314,-287],[-37,-193],[-386,-190],[-184,73],[-242,-157],[-289,39],[-1056,-288],[-1876,1009],[-166,-13],[-465,786],[-277,191],[-58,304],[-265,98],[-348,347]],[[77201,67441],[-628,-105],[-479,-1011],[-517,-518],[-163,-416],[-408,156],[-295,346],[-760,-254],[-249,98],[-457,-83],[-366,226],[-208,307],[-302,-2],[-142,237],[-655,300],[-496,476],[-732,166],[-351,-66],[65,-543],[-647,63],[-2587,-587],[-258,682],[-513,-919],[-368,-119],[-1039,-943]],[[64646,64932],[-258,266],[66,331],[-211,84],[-262,829],[-306,346],[112,167],[-203,394],[-17,350],[-230,388],[3,236],[-317,345],[-53,381],[-197,141],[72,91],[-301,288],[366,433],[-68,240],[100,85],[15,451],[1667,-41],[603,112],[203,269],[100,692],[242,175],[125,289],[762,433],[-409,428],[-450,206],[206,365],[63,545]],[[66069,74251],[776,660],[331,150],[35,-109],[112,69],[185,-90],[176,-358],[185,-70],[173,-251],[597,-199],[166,-260],[131,48],[-97,-130],[176,-87],[33,626],[273,307],[54,328],[171,10],[295,266],[660,1038],[214,162]],[[70715,76361],[152,-62],[224,104],[561,-23],[257,159],[835,-4],[308,-1480],[681,-603],[-87,-471],[-670,-1680],[-532,-208],[-250,-221],[-480,-50],[-33,-219],[114,-219],[381,-100],[-12,-426],[142,-43],[-59,-209],[310,-363],[-57,-91],[218,-319],[697,226],[15,-115],[430,-140],[56,69],[46,-167],[263,17],[500,-175],[-25,-84],[536,33],[433,-442],[62,-408],[454,-312],[383,-11],[147,-117],[-76,-113],[392,-147],[137,-298],[168,34],[-135,-242]],[[98493,61978],[-473,-339],[-157,52],[-652,-178],[-366,-504],[-274,-131],[-252,161],[-594,-109],[-545,216],[-370,-94],[-228,119],[-282,-274],[-438,-35],[-273,-415],[-405,-140],[-158,-366],[-345,-203],[-187,-255],[-98,53]],[[92396,59536],[-187,100],[23,236],[-138,-20],[-14,264],[-213,97],[88,178],[-60,228],[-186,-63],[-163,155],[48,114],[-299,160],[-98,510],[-251,145],[-105,-51],[-63,204],[89,196],[-283,-92],[-81,545],[-134,-51],[-372,239],[-242,509],[-268,169],[-88,386],[-383,649],[-1041,848],[233,1195],[-345,627],[-303,284],[-178,1307],[-338,681],[172,279],[-60,269],[-222,107],[-78,191],[111,71]],[[86967,70202],[1003,-218],[183,-158],[409,-101],[127,-168],[125,-7],[117,161],[129,-575],[206,128],[-98,438],[746,-163]],[[89913,69539],[1,0]],[[89914,69539],[-71,-342],[362,131],[150,-74],[11,-146],[82,33],[117,353],[515,374],[230,508],[-8,462],[211,528]],[[91513,71366],[166,55],[183,-167],[168,49],[56,-208],[325,111],[215,-204],[166,130],[109,-181],[256,74],[32,-112],[171,-23],[-84,-74],[181,-205],[272,32],[117,-101],[14,-317],[335,109],[108,-121],[413,61],[4,-305],[123,7],[158,-200],[93,51],[52,-177],[341,-182],[356,213],[241,-104],[62,81],[322,-324],[510,-60],[231,-235],[524,-64],[594,-517],[345,-563],[-72,-238],[282,-31],[53,-210],[177,107],[46,-340],[458,-163],[198,-215],[39,-145],[-378,-208],[-8,-271],[443,-604],[89,-560],[-182,-165],[-334,153],[-356,-112],[-339,-911],[-360,-571],[-109,-635],[251,-304],[-166,-298],[89,-196]],[[36005,8483],[1017,-43],[368,261],[60,162],[282,-11],[256,-511],[301,73],[434,-244],[912,-88],[352,-863]],[[40123,1114],[-768,417],[-254,-435],[-183,-9],[-361,199],[-39,134],[-339,-52],[-236,244],[5,196],[-182,44],[68,209],[-255,136],[149,646],[-83,623],[-170,146],[327,422],[-50,277],[-185,157],[-20,260],[171,369],[-67,97],[-189,-100],[-119,73],[18,406],[-191,126],[18,359],[-129,147],[-363,111],[-11,136],[-290,-103],[-107,75],[23,482],[161,356],[-278,648],[-69,481],[-120,92]],[[60895,92662],[-678,6],[-684,-440],[-1360,-2403],[46,-501],[89,-60],[-97,-123]],[[58211,89141],[-20,-125],[-238,-148],[-57,65],[22,-148],[-137,96],[-74,-127],[-44,95],[-15,-100],[-193,30],[-17,-98],[-419,-148],[26,-215],[-197,-66],[-30,-220],[-126,29],[2,-238],[-202,-75],[101,-73],[13,-394],[-169,3],[190,-276],[-113,99],[-115,-58],[-90,-136],[24,-116],[109,47],[-104,-107],[46,-106],[-241,61],[-30,-293],[-208,129],[-56,-131],[-19,91],[-204,-79],[-205,58],[43,103],[-721,26]],[[54743,86596],[-485,-64],[-169,-122],[11,-116],[-265,25],[-107,-315],[-91,211],[-290,-130],[-18,-146],[-438,73],[-128,-121],[-550,-103],[-145,92],[-15,210],[-462,-119],[-121,-251],[-196,9],[-480,-439],[-494,-127],[-343,-273],[-457,-568],[-134,-448],[-150,397],[111,486],[-62,442],[-180,175],[-575,-145],[-177,399],[-445,459],[292,1812],[15,546],[-160,712]],[[33157,24403],[258,559],[-157,330],[146,531],[586,532],[-74,185],[98,14],[-115,128],[199,363],[136,-25],[67,212],[-120,121],[295,150],[22,120],[153,-11],[-125,90],[124,123],[-110,92],[210,120],[122,-50],[14,122],[-51,-86],[-70,102],[69,112],[-253,105],[35,-128],[-161,-90],[-50,147],[-142,-93],[84,-111],[-128,18],[-69,-135],[-66,244],[-155,113],[-75,-121],[-95,73],[-330,-80],[-107,124],[-256,-230],[6,-158],[-288,-120],[-303,-29],[-305,176],[-544,-141],[-861,778],[-310,48],[-123,-85],[-384,329],[-91,252],[-129,-43]],[[29734,29080],[41,197],[-154,-34],[-132,209],[-190,-12],[-194,159],[373,101],[75,222],[-168,-17],[275,180],[-21,214],[-345,-245],[142,267],[-101,-37],[-34,97],[-66,-89],[-43,102],[-95,-274],[-50,334],[-214,-110],[68,172],[-87,119],[301,-3],[-207,122],[187,94],[23,151],[-302,-23],[168,171],[-55,154],[-543,-271],[387,294],[-200,55],[163,122]],[[28736,31501],[149,-26],[180,163],[-55,-169],[168,-5],[-30,-181],[210,-142],[-35,504],[236,32],[-49,-194],[238,23],[-159,-171],[80,-46],[-38,-195],[173,278],[-12,-104],[282,-56],[-23,-183],[220,17],[-169,96],[140,75],[-29,139],[-312,2],[196,137],[-70,124],[-257,114],[138,101],[291,-109],[31,247],[-457,-50],[114,285],[-413,68],[10,116],[384,-19],[-46,234],[-174,-59],[142,275],[-150,288],[180,5],[-91,-136],[152,-154],[-80,-129],[283,-67],[-42,-315],[96,69],[38,-167],[133,169],[40,-219],[81,-125],[-60,503],[149,25],[15,-151],[123,-36],[-26,-292],[180,92],[-13,-146],[186,-33],[-55,-94],[83,108],[-163,89],[249,100],[-252,106],[168,107],[-192,60],[26,77],[229,75],[163,-74],[-29,127],[187,17]],[[31398,32701],[-66,85],[-339,-102],[-164,129],[-129,-138],[-42,129],[-321,45],[345,-12],[-123,158],[212,74],[222,-128],[-42,96],[92,56],[-245,87],[129,126],[54,-115],[164,60],[-69,45],[53,51],[136,-197],[97,126],[152,-57],[138,-253],[49,209],[220,35],[-105,16],[44,59],[-238,-83],[9,142],[-92,1],[126,68],[-277,-8],[68,130],[115,-28],[11,98],[-159,49],[134,189],[-260,17],[-2,-153],[-159,7],[32,158],[-146,-69],[11,-109],[-191,118],[-134,-90],[6,172],[329,6],[-171,128],[220,50],[50,-86],[52,150],[134,-4],[-72,126],[-252,-106],[-88,230],[-13,-179],[-110,62],[-188,-189],[61,309],[-151,114],[334,23],[-168,68],[69,140],[-166,-57],[-98,301],[-197,-18],[164,101],[-128,136],[112,72],[74,-134],[161,98],[-181,-199],[247,44],[-55,-205],[148,-12],[54,-217],[112,103],[-19,335],[148,61],[-118,-448],[103,-210],[31,92],[105,-37],[-81,145],[90,25],[46,294],[74,-267],[105,236],[72,-43],[-101,-202],[77,-185],[71,309],[166,107],[-43,-539],[120,25],[-101,33],[139,363],[10,-173],[94,46],[87,-126],[9,180],[-95,12],[74,106],[-113,7],[67,87],[-139,29],[15,125],[228,-42],[11,-161],[161,-86]],[[32290,34847],[164,-37],[-48,-94],[376,-324],[-41,-89],[128,-45],[72,-256],[240,-106],[168,-504],[302,-339],[287,474],[433,-129],[402,-312],[524,-21],[311,-314],[268,166],[230,-176],[128,153],[212,-459],[76,106],[194,-129],[-53,-214],[75,-78],[289,95],[-7,-113],[214,-14],[-25,-155],[143,47],[-57,-188],[320,91],[65,-159],[267,161],[110,-390]],[[38057,31495],[-156,-111],[-221,-505],[-542,-275],[-124,-226],[-496,-180],[333,-735],[52,-1211],[412,-94],[251,-336],[20,144],[128,-139],[124,120],[183,-225],[147,47],[-39,172],[209,-86],[70,-224],[140,-66],[-109,-137],[76,-228],[115,-38],[-25,-235],[385,59],[88,179],[124,-310],[85,251],[505,71],[346,-488],[179,56],[283,-100],[205,89],[105,-120],[-84,-146],[223,-77],[443,339],[274,-3],[262,-312],[293,-16],[15,-208],[364,-69],[70,-296],[238,-159],[3,-174],[174,-47],[82,-183],[117,47],[74,-232],[326,-105],[217,66],[63,-151],[-121,-96]],[[43943,24792],[-366,-184],[-447,13],[-167,-416],[37,-216],[-170,-100],[-349,-82],[-309,131],[-74,162],[-797,-500],[-399,-103],[-162,-260],[-214,-67],[-1,-136],[-189,46],[42,-125],[-127,139],[-275,-160],[-317,16],[32,-138],[-198,-77],[-228,237],[-355,-53],[150,-319],[-411,-244],[222,7],[89,-233],[-256,-289],[136,-509],[-182,-821],[174,-60],[95,-241],[-124,-405],[86,-93]],[[38889,19712],[-418,-7],[-105,253],[-322,-7],[-151,-148],[-107,116],[-376,-29],[-601,-395],[-253,33],[38,-417],[-150,-231],[-368,216],[-256,390],[-550,446]],[[35270,19932],[-11,547],[-117,67],[-31,321],[-797,571],[-215,371],[-348,166],[-186,346],[-217,770],[243,230],[-27,692],[-119,108],[-12,284],[-276,-2]],[[4624,45380],[-157,120],[165,75],[-197,93],[158,135],[-91,2],[42,194],[-102,65],[200,51],[62,219],[221,138],[-234,125],[118,117],[-128,56],[43,169],[197,99],[-58,165],[272,2],[-3,144],[113,-8],[-73,71],[168,63],[132,-167],[370,72],[147,229],[-77,159],[130,72],[-43,215],[208,110],[-41,158],[153,101],[438,-81],[296,184],[210,274],[-79,52],[152,298],[-48,150],[400,303],[88,265],[433,-41],[41,222],[136,63],[286,-195],[252,131],[144,-93],[-60,183],[442,251],[234,-25],[-42,168],[125,14],[-8,131],[170,-55],[-118,304],[-48,-112],[-258,223],[-74,-54],[-113,322],[88,218],[217,40],[43,187],[-118,29],[83,15],[-72,58],[94,41],[-17,218],[110,-50],[42,176],[347,180],[-128,98],[140,13],[-70,139],[116,-28],[227,787],[-6,194],[-180,56],[94,124],[100,-118],[276,389],[95,-66],[390,297],[295,-16],[126,169],[9,195],[-152,146],[139,-16],[88,274],[215,-30],[55,859],[-74,99],[98,200],[398,165],[184,-92],[345,-582],[392,-193],[95,112],[302,-54],[384,-217],[207,-328],[386,-75],[310,155],[510,-204],[363,127],[720,719]],[[16584,55716],[136,-335],[-149,-395],[68,-270],[233,-169],[25,-358],[-961,-248],[72,-267],[151,-76],[18,-183],[-79,-17],[165,-171],[46,-288],[-80,-67],[213,-116],[396,243],[189,-208],[-54,-250],[256,-330],[-47,-378],[172,-208],[241,-747],[286,-339],[-59,-226],[120,-622],[-328,-658],[287,-636],[47,-518],[304,-414],[-167,-618],[-211,-326],[196,-418]],[[18070,46103],[-288,-639],[277,-753],[-124,-514],[33,-383],[308,-448],[-195,-557],[381,-551],[479,-1125],[114,-911],[-327,-488],[109,-350],[-151,-753],[158,-471],[201,-186]],[[19045,37974],[-272,-133],[79,-301],[-136,8],[64,-55],[-107,-128],[-75,201],[-145,30],[10,119],[-201,48],[-95,-95],[-2,107],[-152,-113],[49,-146],[-187,-71],[-93,-275],[-161,-42],[-26,-126],[-183,8],[104,-125],[-442,-229],[106,-221],[-174,-41],[45,-266],[-126,-71],[15,-199]],[[16940,35858],[-101,-62],[-53,-487],[-82,101],[-198,-55],[155,-197],[-425,15],[-287,183],[-683,-538],[-357,63],[67,-60],[-139,-70],[1,-126],[-216,-9],[-134,-403],[-329,-31],[68,-267],[-178,-208],[-132,2],[34,-130],[-179,-194],[163,-139],[18,-169],[-454,-586],[-1,-412],[-123,-195],[137,-135],[-84,-27],[31,-124],[-488,-119],[-10,-231],[-184,-105],[-145,-327],[-248,112],[-118,-27],[17,-91],[-270,42],[-93,125],[-487,-482],[-246,60],[-131,-167],[-151,22],[-108,-223],[115,-160],[-273,-107],[-264,-283],[-121,-312],[76,-139],[-180,-94],[47,-130],[-215,7],[-50,-199],[-134,40],[72,-362],[-149,-43],[-20,-346],[-304,-52],[-2,-216],[-147,-94],[77,-110],[-82,-50],[-34,148],[-96,0],[29,-243],[-144,12]],[[8998,27454],[-100,73],[-326,-195],[-456,97],[-105,147],[54,354],[-226,9],[38,140],[-204,96],[4,424],[-550,-181],[-345,80],[-163,188],[-244,-36],[34,-126],[-173,-203],[-179,198],[-106,-37],[-19,-465],[-329,-16],[-227,155],[-301,-372],[-386,444],[-512,-230],[-329,195],[-549,34],[111,171],[-192,96],[-88,274],[-180,-62],[-83,123],[-133,-170],[-337,25],[149,363],[-349,267],[47,203],[431,229],[141,208],[-4,253],[387,807],[-152,399],[166,160],[301,61],[-28,128],[-770,440],[564,309],[312,733],[-439,226],[-75,260],[859,785],[-689,502],[-121,445],[389,441],[-657,406],[-94,502],[576,854],[-8,275],[237,418],[28,266],[648,754],[103,268],[-15,221],[-555,140],[-369,393],[948,767],[56,569],[-221,746],[263,571],[-274,438],[-39,297],[705,951],[-107,222],[76,395],[-193,24]],[[54980,52206],[340,142],[64,142],[210,-163],[178,205],[198,-17],[-70,103],[213,-32],[106,122],[192,-65],[54,127],[254,-33],[24,127],[260,-53],[56,158],[115,-18],[-34,147],[84,28],[9,-142],[184,30],[13,232],[68,-109],[194,145],[80,-91],[237,227],[349,-10],[323,184],[376,-75],[92,165],[-345,151],[-86,166],[-366,24],[-301,346],[-350,96],[60,468],[-156,33],[-19,203],[-131,-55],[-60,414],[-69,-70],[-260,418],[-199,45],[38,173],[-272,279],[-38,443],[-180,75],[-252,343]],[[56163,57234],[561,442],[70,258],[1079,314],[247,248],[101,471],[765,49],[-348,1274],[-380,577],[-205,84],[-123,342],[-67,756],[-207,278],[69,234],[-117,304],[101,100]],[[57709,62965],[306,1],[256,204],[310,-82],[283,171],[642,2489],[488,-301],[387,-437],[163,-514],[847,-687],[151,-246],[853,-385],[202,-466],[464,-458],[290,8],[223,-194],[575,37],[378,-179],[316,89],[221,-143],[421,190]],[[65485,62062],[271,-97],[230,-368],[86,-465],[279,-486],[339,-136],[109,77],[221,-210],[-11,-187],[223,-188],[311,-719],[252,-189],[46,-263],[194,-197],[226,-8],[603,-539],[94,-485],[303,-653],[458,-268],[-25,-99],[340,-423],[96,-241],[-147,-446],[400,-853],[528,-519],[303,-71],[31,-129],[508,-230],[114,-184],[109,24],[154,-442],[131,1],[461,-588],[440,-118],[349,-835],[361,-426]],[[73872,51102],[-1262,-1126],[-781,-383],[-1016,-122],[-627,-393],[-260,91],[-338,-219]],[[71385,35294],[-383,246]],[[71002,35540],[-71,120],[-151,-135],[-223,95],[-356,313],[-308,60],[-201,-120],[-257,253],[-238,-258],[-182,51],[-166,-93],[-125,268],[-257,94],[-296,-161],[-26,-158],[-167,-104],[-65,167],[-198,93],[-200,-152],[-124,127],[-241,-72],[-153,108],[-61,-242],[-274,8],[-83,204],[-99,-38],[-136,142],[-268,-52],[76,58],[-82,124],[-195,-36],[-80,136],[-235,-78],[-128,191],[-150,-47],[-56,-267],[-326,29],[-314,-236],[-57,-168],[-217,189],[-540,-284],[-237,82],[-170,-128],[-246,141],[91,126],[-271,7]],[[62939,35897],[-154,249]],[[62785,36146],[274,278],[-147,86],[100,188],[-198,224],[161,262],[-168,298],[60,70],[-319,119],[-28,103],[94,21],[-97,40],[174,184],[29,136],[-82,11],[188,244],[-81,100],[145,374],[-118,36],[56,277],[-281,330],[62,138],[-97,28],[-105,572],[-441,754],[-106,888],[-546,437],[0,196],[-166,213],[47,147],[-240,65],[-80,326],[-392,159],[-241,-62],[-327,335],[-273,97],[-36,357],[93,34],[-305,521],[-304,30],[-282,305],[-608,-34],[-285,104],[-179,278],[-268,161],[13,397],[-171,204],[-84,382],[-572,267],[-380,556],[-268,187],[-237,-46],[-378,207],[-231,337],[-36,371],[-374,206],[-58,550],[402,1097],[-248,874],[175,679],[-41,362]],[[48889,31066],[-151,121],[-144,-256],[-194,127],[-46,-180],[129,-38],[-401,-60],[4,198],[-200,204],[357,252],[-235,62],[25,441],[-603,-218],[-154,-257],[-250,-120],[-107,104],[-38,354],[-187,88],[55,258],[-128,280],[-117,67],[-187,-155],[-224,72]],[[46093,32410],[24,93],[-129,61],[93,473],[-443,117],[63,96],[-169,123],[-132,-88],[-220,174],[-9,183],[-168,-52],[-197,308],[-163,18],[-74,111],[196,52],[90,240],[-280,-8],[49,255],[-148,-129],[-172,297],[-524,104],[158,215],[-129,78],[109,296],[-107,70],[-190,-95],[-98,11],[-139,204],[112,240],[-107,-10],[-34,121]],[[47862,39308],[25,-192],[-92,-86],[268,-477],[-292,-295],[210,-234],[-61,-110],[401,-191],[38,-232],[-174,6],[-172,-173],[121,-77],[-181,-53],[178,-100],[-56,-143],[124,-141],[312,60],[-133,-136],[144,-150],[429,320],[364,455],[1197,-538],[201,-217],[105,-351],[353,-96],[345,-381],[166,307],[264,118],[398,487],[594,281],[-1,-528],[-297,-382],[168,-496],[237,-268],[183,-29],[144,-247],[136,64],[92,-193],[82,103],[131,-162],[-39,-150],[351,-204],[193,90],[139,-84],[205,-216],[-56,-209],[99,-163],[194,62],[103,-147],[377,23],[271,-200],[267,122],[99,-201],[299,108],[416,-180],[-28,-138],[152,28],[117,-172],[114,80],[331,-182],[227,95],[174,-393],[241,-151],[18,-286],[123,50],[-24,-269],[-109,39],[62,-104],[440,-27],[274,-159],[-38,-101],[139,-121]],[[58944,31671],[109,-321],[-147,-86],[-188,185],[-378,13],[51,-183],[-265,-199],[84,176],[-153,224],[-134,-221],[-243,149],[-157,-108],[-347,167],[-711,-147],[136,-116],[-123,-212],[-269,230],[-155,-13],[-343,-236],[99,-217]],[[55810,30756],[-582,58],[-298,263],[-159,-224],[-165,80],[-28,-240],[-236,-55]],[[54342,30638],[-136,83],[3,-113],[-203,-95],[-59,184],[-107,18],[-84,-252],[-153,481],[-219,-109],[-89,92],[-258,-20],[-118,-238],[-26,88],[-365,-21],[-24,191],[-109,-213],[-66,245],[-255,98],[-188,-135],[-353,140],[114,295],[-266,22],[-275,180],[-408,-266],[-40,-368]],[[50658,30925],[-303,-44],[-58,275],[-111,104],[-178,-38],[-37,180],[-118,-21],[-108,-295],[-145,62],[-111,-176],[-94,129],[-376,-101],[-130,66]],[[40412,65879],[16,301],[239,159],[17,373],[206,328],[35,355],[227,182],[332,11],[197,248],[515,237],[-168,247],[309,260]],[[46571,66835],[-58,-300],[-265,-216],[84,-651],[-166,-837],[-191,-208],[-7,-572],[-748,-70],[-119,-390],[-457,-222],[-485,142],[-298,-71],[-139,-155],[-353,26],[-9,320],[-134,-45],[-145,309],[113,16],[9,285],[-177,117],[257,66],[-106,187],[-224,46],[-384,-315],[-847,236],[-383,282],[-927,1064]],[[46427,70519],[-911,204],[-137,-291],[-148,-16],[-253,-370],[-1083,5],[-275,-269],[77,-192],[-249,-351],[118,-46],[-89,-118],[-90,43],[33,-150],[-336,-270],[-67,-299],[-680,181]],[[42337,68580],[-172,122],[-92,-181],[-224,-105],[-455,188],[-427,656],[-231,124],[-73,-80],[-392,496],[-351,27],[-381,-131],[-75,181],[-270,116],[-304,-189],[-7,-200],[-388,96],[-277,-115],[-303,114],[-162,308],[-431,258],[910,9223]],[[38232,79488],[1282,4840]],[[39514,84328],[203,70],[135,-208],[446,454],[0,-266],[137,-120],[115,436],[235,-225],[188,238],[313,-233],[60,150],[157,-79],[155,175],[137,-252],[434,-108],[258,-471],[183,-31],[130,193],[37,-283],[428,-55],[-165,-51],[-110,-212],[7,-146],[175,15],[-84,-234],[207,59],[44,-269],[214,66],[213,-121],[-121,-104],[282,-179],[-121,-152],[49,-101],[249,-70],[8,-355],[189,89],[84,-191],[265,-176],[318,34],[276,-200],[141,71],[6,222],[142,-142],[114,155],[251,-107],[-69,216],[322,-351],[268,-26],[81,-273],[230,-58],[379,-337],[-116,-187],[109,-220],[-84,-847],[321,756],[-90,-390],[215,-236],[59,-280],[463,-78],[-9,-97],[166,2],[103,-141],[711,-219],[-40,-243],[165,-153],[-15,-254],[560,-600]],[[47407,62239],[295,-72],[127,83],[-7,-87],[31,-11],[302,373],[25,-126],[289,59],[310,-1723],[291,-81],[421,193],[984,-74],[247,115],[208,-202],[259,-19],[119,-658],[-107,-311],[112,-380],[94,-161],[307,-12],[325,-331],[-142,-337]],[[51897,58477],[-1265,458],[-304,-278],[-224,10],[-85,137],[-347,-226],[-128,175],[-611,-7],[-244,185],[-299,-134],[-134,55],[-48,-128],[-454,-7],[-401,-437],[-336,18],[-261,-1854]],[[46756,56444],[-920,78],[-155,-97],[-40,-373],[-236,-130],[-459,30]],[[43162,56679],[-97,174],[71,128],[211,153],[142,-102],[46,163],[235,-99],[34,217],[241,92],[63,196],[264,-19],[-27,191],[280,172],[120,217],[123,-31],[-125,115],[209,79],[-235,37],[36,248],[156,64],[50,246],[106,-51],[91,104],[-120,125],[180,173],[-33,401],[183,18],[-65,274],[128,126],[96,-50],[282,393],[98,-25],[8,182],[105,-7],[-41,627],[277,58],[475,594],[296,157],[-2,108],[384,112]],[[71385,35294],[-231,1208],[-192,434],[73,212],[-69,121],[-179,-53],[63,159],[-348,822],[132,84],[-7,262],[-603,827],[-30,313],[-229,385],[-72,289],[75,204],[-145,110],[-6,405],[-107,97],[72,123],[-161,566],[70,143],[-120,167],[35,250],[-471,426],[-217,616],[-390,284],[-371,746],[-487,271],[-183,372],[465,939],[366,150],[805,796],[121,912],[-167,534],[84,407],[125,114],[502,-39]],[[69588,48950],[180,7],[285,-297],[749,-382],[269,-678],[-17,-450],[333,-663],[497,-195],[418,-523],[624,-478],[649,-305],[760,-732],[773,-514],[657,-767],[929,-673],[312,-598],[330,-188],[207,-673],[316,-309],[692,-1209],[260,-111],[386,-401],[157,22],[494,-290],[361,-387],[78,-275],[387,-324],[494,39],[134,-166],[127,9],[342,-410],[293,-85],[-4,-268],[176,-119],[242,85],[72,-267],[239,-64],[133,-311],[819,202]],[[83741,36202],[460,-410],[267,-652],[-5,-290],[-367,-750],[-364,-440],[-514,-152],[-292,-217]],[[82926,33291],[-174,380],[91,118],[-135,87],[63,340],[-263,275],[-66,266],[-838,532],[-460,-180],[-276,203],[-157,-141],[-217,16],[-658,-295],[-153,-156],[-1293,-252],[-236,-263],[-126,110],[-318,-199],[-1235,65],[-180,-217],[-258,12],[-444,-250],[-572,185],[-1161,847],[-301,-67],[-593,232],[-724,-138],[-232,190],[-368,-2],[-257,305]],[[51600,65417],[-519,195],[-298,-328],[-187,64],[-132,293],[-529,94],[-434,-437],[-618,14],[-162,-253],[-399,-249],[-401,76],[-347,-104]],[[47574,64782],[-84,147],[61,131],[-127,133],[71,131],[-122,99],[81,134],[-250,163],[229,342],[-742,519],[-120,254]],[[46571,66835],[658,1158],[316,883],[188,163],[-528,546],[105,528],[-344,57],[-539,349]],[[46427,70519],[240,423],[425,172],[58,284],[434,613],[0,486],[330,261],[93,325],[552,237],[277,266],[668,220],[225,252],[199,49],[901,-381],[441,85],[211,-153],[57,162],[350,-51],[75,-163],[151,90],[-101,97],[62,353],[-336,16],[-114,304],[-265,138],[82,267],[-247,79],[-316,312],[5,209],[-217,-14],[-309,193],[59,390],[-201,276],[35,245],[-566,319],[48,256],[-185,156],[79,306]],[[49627,77598],[568,-184],[785,-59],[279,128],[129,-127],[292,278],[436,74]],[[52116,77708],[355,-200],[467,-26],[95,-181],[356,-69],[264,-281],[48,-254],[248,-238],[23,-615],[702,-881],[206,-657],[-94,-245],[137,-286],[51,-669]],[[54974,73106],[-230,-118],[-32,-246],[-408,210],[-324,-105],[229,-183],[-173,-373],[336,-136],[-168,-299],[211,-167],[294,-6],[-151,-86],[-60,-444],[173,-175],[-156,-222],[317,-133],[-176,-43],[-44,-182],[270,-148],[-169,-109],[106,-132],[-180,-80],[61,-161],[-616,-68],[-36,-193],[-295,-283],[-15,-339],[-311,9],[-268,-160],[13,-1255],[-162,-1],[-17,-90],[-302,117],[-45,-129],[-309,40],[79,-159],[-245,-508],[-560,-217],[-107,-688],[96,-427]],[[40123,1114],[-126,957],[479,75],[-123,308],[-13,201],[99,33],[-483,497],[-79,327],[436,303],[665,40],[108,157],[837,340]],[[47748,4812],[357,-1363]],[[48105,3449],[-204,-166],[9,-229],[-100,-99],[-554,-59],[-191,173],[-68,-137],[-442,-54],[-252,-297],[-303,94],[-186,-189],[-2,-163],[-326,-15],[-160,178],[-117,-200],[-208,-8],[-64,-157],[-187,-38],[22,-514],[-219,-119],[-793,158],[-654,-385],[-74,52],[-152,-184],[-145,193],[-242,-38],[-232,299],[-427,-362],[-246,55],[-314,-155],[-273,103],[-117,-245],[-305,-150],[-456,323]],[[89451,58259],[268,-182],[234,-397],[330,-205],[59,-276],[378,-465],[210,-80],[263,-447],[837,-748],[679,-242],[495,-500],[748,-412],[261,-512]],[[94213,53793],[-907,-1506],[-485,-280],[-268,-327],[-503,-967],[-930,-726]],[[83491,57054],[88,86]],[[83579,57140],[296,580],[482,163],[341,453],[825,305],[1064,-53],[351,312],[317,-38],[927,1348],[315,-1106],[-61,-418],[134,-211],[881,-216]],[[83579,57140],[0,0]],[[83579,57140],[0,0]],[[46276,48213],[646,677],[247,34],[280,-200],[259,-319],[-113,-241],[347,-398],[-177,-302],[154,-43],[-58,-164],[110,-61],[-235,-271],[216,45],[-150,-100],[176,-168],[-28,-213],[115,-6],[38,-190],[135,46],[-130,-278],[541,-70],[92,77],[10,-235],[103,-69],[336,100],[0,-198],[205,-26],[333,-459],[389,-241],[139,133],[-14,-227],[189,-117],[-57,-209],[174,22]],[[50548,44542],[339,-1860],[-271,-121],[-272,54],[-517,-307],[591,-886],[-791,-429],[-135,-303],[-224,-41],[-619,-576],[-391,-32],[-111,-583],[-285,-150]],[[47862,39308],[-949,-329],[-25,118],[-182,40],[30,288],[-113,85],[-135,-90],[-317,136],[-173,-207],[-386,227],[-389,-11],[-1667,-2128],[-64,-1093],[-137,-376]],[[43355,35968],[-224,286],[-7,-222],[-204,-69],[-66,424],[-334,-27],[21,-100],[-134,-79],[0,160],[-121,89],[28,214],[-500,80],[270,185],[-86,225],[-156,-92],[-129,120],[116,64],[-15,284],[-134,70],[-84,-156],[-240,74],[77,284],[-332,205],[-45,-193],[-224,260],[-19,205],[-382,150],[45,134],[-272,-12],[-184,115],[30,143],[-239,354],[-5,185],[-169,116],[226,399],[-304,231],[127,538],[-93,240],[-263,98],[81,472],[-206,165],[108,287],[-136,52],[201,87],[133,439],[-211,278],[195,196],[11,374],[176,166],[-5,198],[210,276],[87,352],[260,-62]],[[40234,44230],[639,-287],[-8,470],[346,182],[-257,381],[-2,989],[126,264],[391,247],[-82,276],[196,142],[63,267],[-332,1101],[-402,225],[-52,373],[-189,74],[169,313],[-108,248],[131,296],[-48,162],[165,170],[-134,193],[60,155]],[[60895,92662],[-286,68],[-149,248],[-287,-37],[-122,-166],[-166,411],[-281,-92],[-30,-140],[-157,51],[-95,-170],[-344,150],[-189,-308],[299,-20],[105,-124],[-130,-98],[208,-55],[-219,-139],[-105,36],[-93,332],[-137,-262],[-182,9],[120,316],[-359,-11],[209,23],[38,129],[-147,33],[123,119],[-260,-30],[35,118],[-147,8],[-24,158],[-206,-239],[-7,107],[-253,90],[-77,-157],[95,-49],[-179,-111],[141,-32],[55,-162],[-458,31],[98,68],[-74,135],[113,53],[-42,106],[-140,-101],[-71,151],[-175,-60],[-27,109],[-80,7],[-77,-444],[-144,82],[48,201],[-174,-26],[-18,-112],[-84,65],[143,-219],[-390,63],[232,-261],[-41,-148],[-225,164],[-233,-48],[-24,-195],[123,-27],[29,-174],[-157,-21],[24,-130],[-437,290],[180,-575],[-199,-18],[-42,-205],[264,-132],[-282,-89],[-193,201],[-394,-51],[-97,-208],[-127,-14],[63,-225],[-249,127],[-101,-385],[-124,126],[-86,-319],[-350,-219],[253,334],[-283,51],[-37,99],[-166,-68],[21,449],[-232,17],[-44,202],[-202,-113],[-177,89],[-319,-344],[-24,391],[-223,-120],[-101,185],[-154,-377],[-313,-126],[41,192],[145,72],[-130,183],[-212,-56],[-45,176],[112,102],[-191,1],[30,150],[-160,285],[-68,-374],[-222,94],[-163,-223],[-245,235],[-313,-382],[-133,802],[-306,-68],[-999,192],[-535,-243],[-994,-133],[-205,-112],[123,-688],[243,-559],[357,-454],[212,-943]],[[48035,89157],[-544,-191],[-143,-128],[-132,-476],[-334,-181],[-314,29],[-124,-53],[-21,-161],[-375,10],[-87,-120],[-515,89],[-844,694],[-123,299],[58,179],[-316,329],[-91,-61],[-231,213],[-342,44],[-79,-147],[-240,2],[-85,183],[-263,-32],[-215,245],[-97,-24],[9,177],[-239,78],[-127,238],[-228,-10],[-115,426],[13,626],[-253,34],[-101,201],[101,112],[-19,470],[125,29],[104,709]],[[41848,92989],[262,20],[93,255],[179,53],[70,-123],[286,64],[121,-157],[439,28],[294,162],[261,-131],[242,309],[109,-56],[-9,77],[326,95],[402,9],[269,-189],[196,67],[273,-101],[128,156],[367,49],[51,178],[284,214],[579,245],[25,452],[139,211],[388,23],[251,175],[12,129],[208,-142],[231,52],[179,195],[261,-81],[258,77],[493,325],[379,-300],[247,161],[759,-146],[199,-600],[627,-108],[245,-406],[287,-101],[-23,-432],[141,-105],[-170,-388],[706,-382],[842,111],[425,365],[897,377],[339,-44],[277,-186],[478,81],[205,-85],[114,47],[44,405],[298,363],[79,370],[-168,349],[233,183],[49,203],[589,262],[303,-56],[287,187],[1019,1219],[650,293],[-50,279],[206,596],[474,103],[368,642],[744,218],[346,-369],[-328,-5907],[-737,-166]],[[41923,4352],[21,314],[-368,70],[-257,290],[18,321],[-138,264],[-501,242],[-321,341],[4,394],[-363,377],[-31,254]],[[39987,7219],[944,2469],[519,325],[150,-48]],[[41600,9965],[133,-418],[497,-430],[290,-461],[935,-371],[709,-658],[658,-357],[554,240],[636,-44],[314,102]],[[46326,7568],[555,-427],[334,-41],[818,-773],[262,-308],[-54,-68],[128,-110],[71,-517],[145,-246]],[[48585,5078],[-226,-159],[-480,15],[-131,-122]],[[47748,4812],[-118,37],[-313,-432],[-229,10],[-396,-293],[-61,77],[-93,-221],[-993,-382],[-137,-215],[-286,152],[-332,-287],[-251,62],[-123,-199],[-160,81],[-38,-257],[-271,-131],[-172,-265],[-96,62],[75,203],[-355,307],[-127,-50],[-152,252],[-431,-37],[-63,281],[-348,366],[-61,223],[-320,108],[26,88]],[[66431,25131],[238,-365],[101,-1637],[245,-386],[79,-574],[364,-528],[12,-973],[88,-107],[-15,-519],[-243,-551],[-534,-103],[-209,-255],[272,-240]],[[66829,18893],[-444,-218],[-248,-343],[-368,-80],[-352,-350],[-1549,-772],[-399,-612],[-506,-331],[-367,-754]],[[62596,15433],[-92,-15],[-218,333]],[[62286,15751],[101,356],[-34,553],[403,241],[137,610],[610,357],[115,362],[485,244],[264,445],[258,65],[-92,170],[-432,-135],[76,177],[-76,105],[-219,-106],[82,367],[-193,152],[30,248],[-208,137],[44,213]],[[63637,20312],[70,248],[171,-47],[395,302],[-164,322],[139,137],[212,-62],[-15,288]],[[64445,21500],[1986,3631]],[[46276,48213],[-98,-544],[-613,-79],[-147,283],[-228,-29],[-181,-244],[-382,2],[-257,208],[-289,-108],[-306,266],[-936,215],[-87,305],[-164,93],[103,239],[-124,46],[71,94],[-128,204],[92,68],[-130,255],[-193,62],[-118,326],[-324,83],[-307,269],[-218,-33],[-237,281],[-169,-4]],[[40906,50471],[-157,399],[43,129],[-284,180],[-89,129],[66,127],[-284,217],[59,326],[-246,36],[-20,407],[-174,20],[-287,275],[-28,240],[-240,128],[-161,-67],[-146,-352],[-137,57],[42,-255],[-95,141],[-263,-147],[-164,224],[47,328],[253,107],[264,363],[-110,171],[36,263],[195,-1],[-113,314],[59,149],[356,-159],[-1,-155],[158,-60],[184,53],[-19,218],[239,2],[206,-234],[237,222],[-89,185],[143,128],[-66,235],[-325,-15],[102,195],[-122,399],[246,-17],[-2,227],[127,63]],[[40346,55666],[222,348],[179,17],[-7,195],[223,-33],[-2,174],[756,438],[155,44],[41,-174],[366,114],[306,-78]],[[42585,56711],[87,-93],[114,91],[93,-167],[283,137]],[[43162,56679],[456,15],[130,-106],[67,77],[2,-102],[288,-126],[176,97],[207,-116],[153,-311],[270,-5],[35,-150]],[[44946,55952],[-146,-600],[252,2],[210,-286],[141,26],[343,-216],[473,-28],[59,-290],[326,-117],[200,75],[-24,-141],[142,-8],[93,-149],[0,-2249],[-398,-307],[-118,-258],[50,-742],[402,-625],[-241,-230],[-165,-460],[-244,17],[-387,-385],[216,-768],[146,0]],[[78578,64582],[315,-59],[225,-333],[179,145],[484,-76],[261,-137],[-36,-134],[326,-153],[116,-229],[-26,-326],[168,-230],[-59,-181],[428,-295],[139,-560],[1123,-1188],[-48,-343],[77,-127],[-135,-245],[98,-214],[-110,-118],[6,-268],[337,-814],[-63,-227],[232,-286],[230,-84],[-7,-192],[197,-120],[92,-402],[245,-101],[119,-231]],[[83491,57054],[488,-945],[-94,-206],[90,-198],[-148,-414],[191,-233],[-130,-181],[223,-118],[-71,-239],[147,-304],[27,-500],[166,-62],[118,-327],[578,-627],[-98,-435],[365,-150],[-1,-162],[262,-18],[233,-413],[316,-172],[371,586],[368,16],[198,313],[369,257],[603,-83],[522,194],[397,-276],[319,-519],[322,-26],[219,-219],[493,-670],[143,-375],[428,-240],[27,-369],[188,48]],[[91120,49987],[-366,-370],[-550,-1501],[160,-426],[-146,-647],[45,-578],[224,-415],[-140,-788],[-497,-348],[-874,-130],[-629,-856],[-292,-950],[-468,-358],[-722,-135],[-53,-895]],[[86812,41590],[-132,-13],[-51,247],[-717,-46],[-115,223],[-205,28],[-341,277],[22,264],[-207,257],[-289,109],[-562,610],[-746,384],[-1116,808],[-345,132],[-311,-133],[-800,383],[-774,1013]],[[80123,46133],[53,190],[-87,97],[166,215],[-5,312],[-165,52],[98,337],[-265,278],[62,51],[-123,267],[-387,213],[35,199],[-235,646],[-227,256],[-310,912],[-360,362],[-150,459],[-377,240],[-503,872],[-252,68],[-548,882],[-735,556],[-644,1082],[-173,685],[476,730],[-346,605],[-122,608],[80,172],[427,286],[81,280],[-310,330],[45,445],[-183,813],[14,619],[-198,148],[-68,232],[-558,-60],[-239,189],[333,111],[998,863],[822,42],[422,156],[90,468],[188,296],[56,627],[263,283],[263,551],[756,201],[297,223]],[[53052,24283],[-315,-731]],[[52737,23552],[-1134,-2652]],[[51603,20900],[-328,68]],[[51275,20968],[-250,437],[6,1209],[-463,721]],[[50568,23335],[585,1373],[340,-138],[127,295],[1432,-582]]]}