{"type":"Topology","objects":{"data":{"geometries":[{"properties":{"cd_mun_ibge":"2200053"},"type":"MultiPolygon","arcs":[[[0,-387,-330,-12]]],"id":0},{"properties":{"cd_mun_ibge":"2200103"},"type":"MultiPolygon","arcs":[[[-553,-224,-177]]],"id":1},{"properties":{"cd_mun_ibge":"2200202"},"type":"MultiPolygon","arcs":[[[-123,-470,-547,-176,-280]]],"id":2},{"properties":{"cd_mun_ibge":"2200251"},"type":"MultiPolygon","arcs":[[[-516,-658,-31,-236,-357]]],"id":3},{"properties":{"cd_mun_ibge":"2200277"},"type":"MultiPolygon","arcs":[[[-519,-110,-28,-105,-281,-660]]],"id":4},{"properties":{"cd_mun_ibge":"2200301"},"type":"MultiPolygon","arcs":[[[-37,-265,-480,-543,-384,-527,-11,-323,-60]]],"id":5},{"properties":{"cd_mun_ibge":"2200400"},"type":"MultiPolygon","arcs":[[[-614,-164,-35,-61,-326]]],"id":6},{"properties":{"cd_mun_ibge":"2200459"},"type":"MultiPolygon","arcs":[[[-63,-39,-69,-288,-634,-204]]],"id":7},{"properties":{"cd_mun_ibge":"2200509"},"type":"MultiPolygon","arcs":[[[-295,-3,-398,-6,-103,-98,1]]],"id":8},{"properties":{"cd_mun_ibge":"2200608"},"type":"MultiPolygon","arcs":[[[-440,-144,-393,2,-294,-549,-469]]],"id":9},{"properties":{"cd_mun_ibge":"2200707"},"type":"MultiPolygon","arcs":[[[-447,-17,-644,3,-175]]],"id":10},{"properties":{"cd_mun_ibge":"2200806"},"type":"MultiPolygon","arcs":[[[-382,-187,-566,-631,4]]],"id":11},{"properties":{"cd_mun_ibge":"2200905"},"type":"MultiPolygon","arcs":[[[-86,-421,-540,-351,-641]]],"id":12},{"properties":{"cd_mun_ibge":"2200954"},"type":"MultiPolygon","arcs":[[[-417,-298,-346,-111,-131]]],"id":13},{"properties":{"cd_mun_ibge":"2201002"},"type":"MultiPolygon","arcs":[[[-101,-647,-610,-26,-250,-104,5,-397]]],"id":14},{"properties":{"cd_mun_ibge":"2201051"},"type":"MultiPolygon","arcs":[[[-352,-538,6]]],"id":15},{"properties":{"cd_mun_ibge":"2201101"},"type":"MultiPolygon","arcs":[[[-71,-242,7,-170]]],"id":16},{"properties":{"cd_mun_ibge":"2201150"},"type":"MultiPolygon","arcs":[[[-628,-291,-73,-15,-115,-424,-408]]],"id":17},{"properties":{"cd_mun_ibge":"2201176"},"type":"MultiPolygon","arcs":[[[-270,-649,-100,-85,-263]]],"id":18},{"properties":{"cd_mun_ibge":"2201200"},"type":"MultiPolygon","arcs":[[[-219,-261,-34,-91,-10,-369,-14,-23]]],"id":19},{"properties":{"cd_mun_ibge":"2201309"},"type":"MultiPolygon","arcs":[[[-464,8,-113]]],"id":20},{"properties":{"cd_mun_ibge":"2201408"},"type":"MultiPolygon","arcs":[[[-232,-315,-278]]],"id":21},{"properties":{"cd_mun_ibge":"2201507"},"type":"MultiPolygon","arcs":[[[-93,-161,-503,-361,-19,-370,9]]],"id":22},{"properties":{"cd_mun_ibge":"2201556"},"type":"MultiPolygon","arcs":[[[-586,-64,-451,-30,-344]]],"id":23},{"properties":{"cd_mun_ibge":"2201572"},"type":"MultiPolygon","arcs":[[[-32,-656,-284,-578,-212,-143]]],"id":24},{"properties":{"cd_mun_ibge":"2201606"},"type":"MultiPolygon","arcs":[[[-231,-185,-77,-324,10,-526,-310]]],"id":25},{"properties":{"cd_mun_ibge":"2201705"},"type":"MultiPolygon","arcs":[[[-38,-90,-201,-569]]],"id":26},{"properties":{"cd_mun_ibge":"2201739"},"type":"MultiPolygon","arcs":[[[11,-329,-76,12]]],"id":27},{"properties":{"cd_mun_ibge":"2201770"},"type":"MultiPolygon","arcs":[[[-368,-42,-18,-24,13]]],"id":28},{"properties":{"cd_mun_ibge":"2201804"},"type":"MultiPolygon","arcs":[[[-511,-474,-524,-435,-601]]],"id":29},{"properties":{"cd_mun_ibge":"2201903"},"type":"MultiPolygon","arcs":[[[-237,-116,14,-72,-430,-119,15,-240,-390]]],"id":30},{"properties":{"cd_mun_ibge":"2201919"},"type":"MultiPolygon","arcs":[[[-51,-21,-303,-194]]],"id":31},{"properties":{"cd_mun_ibge":"2201929"},"type":"MultiPolygon","arcs":[[[16,-446,-557,-645]]],"id":32},{"properties":{"cd_mun_ibge":"2201945"},"type":"MultiPolygon","arcs":[[[-25,17,-41,-55,-258]]],"id":33},{"properties":{"cd_mun_ibge":"2201960"},"type":"MultiPolygon","arcs":[[[18,-365,-475,-81,-371]]],"id":34},{"properties":{"cd_mun_ibge":"2201988"},"type":"MultiPolygon","arcs":[[[-406,-157,-559,-445,-174,-608,-40,-286]]],"id":35},{"properties":{"cd_mun_ibge":"2202000"},"type":"MultiPolygon","arcs":[[[-247,19,-304,20,-50,-46,-49]]],"id":36},{"properties":{"cd_mun_ibge":"2202026"},"type":"MultiPolygon","arcs":[[[-47,-167,-227,-340,21,-536]]],"id":37},{"properties":{"cd_mun_ibge":"2202059"},"type":"MultiPolygon","arcs":[[[-178,-220,22,23,24,-257,-36,-165]]],"id":38},{"properties":{"cd_mun_ibge":"2202075"},"type":"MultiPolygon","arcs":[[[-609,-433,-269,-251,25]]],"id":39},{"properties":{"cd_mun_ibge":"2202083"},"type":"MultiPolygon","arcs":[[[-191,26]]],"id":40},{"properties":{"cd_mun_ibge":"2202091"},"type":"MultiPolygon","arcs":[[[-106,27,-109,28,-206]]],"id":41},{"properties":{"cd_mun_ibge":"2202109"},"type":"MultiPolygon","arcs":[[[-441,-96,-128,-592]]],"id":42},{"properties":{"cd_mun_ibge":"2202117"},"type":"MultiPolygon","arcs":[[[-496,-345,29,-457,-183,-43]]],"id":43},{"properties":{"cd_mun_ibge":"2202133"},"type":"MultiPolygon","arcs":[[[30,-657,31,-142,-107,-234]]],"id":44},{"properties":{"cd_mun_ibge":"2202174"},"type":"MultiPolygon","arcs":[[[-376,32,-217,-492,-92,33,-260]]],"id":45},{"properties":{"cd_mun_ibge":"2202208"},"type":"MultiPolygon","arcs":[[[34,-166,35,-256,-54,-149,-574,-266,36,-59]]],"id":46},{"properties":{"cd_mun_ibge":"2202251"},"type":"MultiPolygon","arcs":[[[-568,-189,-154,-133,-334,-87,37]]],"id":47},{"properties":{"cd_mun_ibge":"2202307"},"type":"MultiPolygon","arcs":[[[-607,-44,-121,-70,38,-62,-88,-332,-413,-287,39]]],"id":48},{"properties":{"cd_mun_ibge":"2202406"},"type":"MultiPolygon","arcs":[[[40,41,-367,-336,-226,-148,-56]]],"id":49},{"properties":{"cd_mun_ibge":"2202455"},"type":"MultiPolygon","arcs":[[[-497,42,-182,-83]]],"id":50},{"properties":{"cd_mun_ibge":"2202505"},"type":"MultiPolygon","arcs":[[[-122,43,-606,-173,44]]],"id":51},{"properties":{"cd_mun_ibge":"2202539"},"type":"MultiPolygon","arcs":[[[45,-53,-362,-501,-160,-48]]],"id":52},{"properties":{"cd_mun_ibge":"2202554"},"type":"MultiPolygon","arcs":[[[-74,-137,-316,-213,-583]]],"id":53},{"properties":{"cd_mun_ibge":"2202604"},"type":"MultiPolygon","arcs":[[[-482,-267,-572,-168,46,-545]]],"id":54},{"properties":{"cd_mun_ibge":"2202653"},"type":"MultiPolygon","arcs":[[[47,-159,-248,48]]],"id":55},{"properties":{"cd_mun_ibge":"2202703"},"type":"MultiPolygon","arcs":[[[49,50,-193,51,-57,-363,52]]],"id":56},{"properties":{"cd_mun_ibge":"2202711"},"type":"MultiPolygon","arcs":[[[-147,53,-255,54,55]]],"id":57},{"properties":{"cd_mun_ibge":"2202729"},"type":"MultiPolygon","arcs":[[[56,57,-477,-364]]],"id":58},{"properties":{"cd_mun_ibge":"2202737"},"type":"MultiPolygon","arcs":[[[58,59,-327,60]]],"id":59},{"properties":{"cd_mun_ibge":"2202752"},"type":"MultiPolygon","arcs":[[[-89,61,62,-203]]],"id":60},{"properties":{"cd_mun_ibge":"2202778"},"type":"MultiPolygon","arcs":[[[-509,-460,-274,-661,-442,-534]]],"id":61},{"properties":{"cd_mun_ibge":"2202802"},"type":"MultiPolygon","arcs":[[[-452,63,-585,-127,-318,-136]]],"id":62},{"properties":{"cd_mun_ibge":"2202851"},"type":"MultiPolygon","arcs":[[[-520,-561,-156,-82,64,-78]]],"id":63},{"properties":{"cd_mun_ibge":"2202901"},"type":"MultiPolygon","arcs":[[[65,-462,-404,-300,-565,-67]]],"id":64},{"properties":{"cd_mun_ibge":"2203008"},"type":"MultiPolygon","arcs":[[[66,-564,67]]],"id":65},{"properties":{"cd_mun_ibge":"2203107"},"type":"MultiPolygon","arcs":[[[68,69,-120,-428,-289]]],"id":66},{"properties":{"cd_mun_ibge":"2203206"},"type":"MultiPolygon","arcs":[[[70,-169,-301,-402,-392,-239]]],"id":67},{"properties":{"cd_mun_ibge":"2203230"},"type":"MultiPolygon","arcs":[[[-427,71,72,-290]]],"id":68},{"properties":{"cd_mun_ibge":"2203255"},"type":"MultiPolygon","arcs":[[[-229,-222,-551,-293,-619]]],"id":69},{"properties":{"cd_mun_ibge":"2203271"},"type":"MultiPolygon","arcs":[[[-138,73,-582,74,75,-328]]],"id":70},{"properties":{"cd_mun_ibge":"2203305"},"type":"MultiPolygon","arcs":[[[-325,76,-184,-616]]],"id":71},{"properties":{"cd_mun_ibge":"2203354"},"type":"MultiPolygon","arcs":[[[77,78,-94,-555,-521]]],"id":72},{"properties":{"cd_mun_ibge":"2203404"},"type":"MultiPolygon","arcs":[[[-484,-125,-348,-297]]],"id":73},{"properties":{"cd_mun_ibge":"2203420"},"type":"MultiPolygon","arcs":[[[-479,79,-338,-372,80]]],"id":74},{"properties":{"cd_mun_ibge":"2203453"},"type":"MultiPolygon","arcs":[[[81,-155,-498,82,-181,83]]],"id":75},{"properties":{"cd_mun_ibge":"2203503"},"type":"MultiPolygon","arcs":[[[-264,84,-99,-395,-146,-311,-530,-450,85,-640]]],"id":76},{"properties":{"cd_mun_ibge":"2203602"},"type":"MultiPolygon","arcs":[[[86,-333,87,88,-202,89]]],"id":77},{"properties":{"cd_mun_ibge":"2203701"},"type":"MultiPolygon","arcs":[[[90,91,-491,-244,-162,92]]],"id":78},{"properties":{"cd_mun_ibge":"2203750"},"type":"MultiPolygon","arcs":[[[-642,-556,93,94]]],"id":79},{"properties":{"cd_mun_ibge":"2203800"},"type":"MultiPolygon","arcs":[[[-504,-405,-285,-411,-135]]],"id":80},{"properties":{"cd_mun_ibge":"2203859"},"type":"MultiPolygon","arcs":[[[-664,-420,-129,95,-443]]],"id":81},{"properties":{"cd_mun_ibge":"2203909"},"type":"MultiPolygon","arcs":[[[-152,96,97,-102,-252,-506,-134]]],"id":82},{"properties":{"cd_mun_ibge":"2204006"},"type":"MultiPolygon","arcs":[[[98,99,-648,100,-396]]],"id":83},{"properties":{"cd_mun_ibge":"2204105"},"type":"MultiPolygon","arcs":[[[101,102,103,-253]]],"id":84},{"properties":{"cd_mun_ibge":"2204154"},"type":"MultiPolygon","arcs":[[[104,105,-205,-282]]],"id":85},{"properties":{"cd_mun_ibge":"2204204"},"type":"MultiPolygon","arcs":[[[106,-141,-112,-437,-354,-235]]],"id":86},{"properties":{"cd_mun_ibge":"2204303"},"type":"MultiPolygon","arcs":[[[107,108,109,-518,-356]]],"id":87},{"properties":{"cd_mun_ibge":"2204352"},"type":"MultiPolygon","arcs":[[[-140,-132,110,-350,-603,-438,111]]],"id":88},{"properties":{"cd_mun_ibge":"2204402"},"type":"MultiPolygon","arcs":[[[112,113,-425,114,115,-238,-399,-465]]],"id":89},{"properties":{"cd_mun_ibge":"2204501"},"type":"MultiPolygon","arcs":[[[-150,-208,-379,116]]],"id":90},{"properties":{"cd_mun_ibge":"2204550"},"type":"MultiPolygon","arcs":[[[117,118,-429,119,120,121]]],"id":91},{"properties":{"cd_mun_ibge":"2204600"},"type":"MultiPolygon","arcs":[[[122,-279,-313,-145,-466]]],"id":92},{"properties":{"cd_mun_ibge":"2204659"},"type":"MultiPolygon","arcs":[[[-306,123]]],"id":93},{"properties":{"cd_mun_ibge":"2204709"},"type":"MultiPolygon","arcs":[[[-272,-262,-638,-186,-471,-514,-126]]],"id":94},{"properties":{"cd_mun_ibge":"2204808"},"type":"MultiPolygon","arcs":[[[-513,-432,-349,124,-483,-273,125]]],"id":95},{"properties":{"cd_mun_ibge":"2204907"},"type":"MultiPolygon","arcs":[[[-319,126,-584,127,128,-419,-130,-654]]],"id":96},{"properties":{"cd_mun_ibge":"2205003"},"type":"MultiPolygon","arcs":[[[-320,-652,129,-418,130,131,-139]]],"id":97},{"properties":{"cd_mun_ibge":"2205102"},"type":"MultiPolygon","arcs":[[[-335,132,-153,133,-505,134,-410]]],"id":98},{"properties":{"cd_mun_ibge":"2205151"},"type":"MultiPolygon","arcs":[[[-453,135,-317,136,137,-331]]],"id":99},{"properties":{"cd_mun_ibge":"2205201"},"type":"MultiPolygon","arcs":[[[-211,-321,138,139,140,141,142]]],"id":100},{"properties":{"cd_mun_ibge":"2205250"},"type":"MultiPolygon","arcs":[[[143,-439,-467,144,-312,145,-394]]],"id":101},{"properties":{"cd_mun_ibge":"2205276"},"type":"MultiPolygon","arcs":[[[146,147,-225,-575,148]]],"id":102},{"properties":{"cd_mun_ibge":"2205300"},"type":"MultiPolygon","arcs":[[[-188,-209,149,150,151,152,153]]],"id":103},{"properties":{"cd_mun_ibge":"2205359"},"type":"MultiPolygon","arcs":[[[154,155,-560,156,-499]]],"id":104},{"properties":{"cd_mun_ibge":"2205409"},"type":"MultiPolygon","arcs":[[[-243,-196,157,-249,158,159,-500,160,161]]],"id":105},{"properties":{"cd_mun_ibge":"2205458"},"type":"MultiPolygon","arcs":[[[-198,162,-197]]],"id":106},{"properties":{"cd_mun_ibge":"2205508"},"type":"MultiPolygon","arcs":[[[163,-613,-624,-179,164,165]]],"id":107},{"properties":{"cd_mun_ibge":"2205516"},"type":"MultiPolygon","arcs":[[[-571,-228,166,167]]],"id":108},{"properties":{"cd_mun_ibge":"2205524"},"type":"MultiPolygon","arcs":[[[-302,168,169,170]]],"id":109},{"properties":{"cd_mun_ibge":"2205532"},"type":"MultiPolygon","arcs":[[[171,172,-605,173,-444,174]]],"id":110},{"properties":{"cd_mun_ibge":"2205540"},"type":"MultiPolygon","arcs":[[[-223,-275,175,-546,176]]],"id":111},{"properties":{"cd_mun_ibge":"2205557"},"type":"MultiPolygon","arcs":[[[-221,177,178,-623]]],"id":112},{"properties":{"cd_mun_ibge":"2205565"},"type":"MultiPolygon","arcs":[[[179,180,181,182,-456,-385]]],"id":113},{"properties":{"cd_mun_ibge":"2205573"},"type":"MultiPolygon","arcs":[[[-374,-337]]],"id":114},{"properties":{"cd_mun_ibge":"2205581"},"type":"MultiPolygon","arcs":[[[-617,183,184,-230]]],"id":115},{"properties":{"cd_mun_ibge":"2205599"},"type":"MultiPolygon","arcs":[[[-637,-355,-472,185]]],"id":116},{"properties":{"cd_mun_ibge":"2205607"},"type":"MultiPolygon","arcs":[[[-567,186,-381,-210,187,188]]],"id":117},{"properties":{"cd_mun_ibge":"2205706"},"type":"MultiPolygon","arcs":[[[-308,189,190,191,192,193]]],"id":118},{"properties":{"cd_mun_ibge":"2205805"},"type":"MultiPolygon","arcs":[[[194,195,-245,-489,-216,-199,196]]],"id":119},{"properties":{"cd_mun_ibge":"2205854"},"type":"MultiPolygon","arcs":[[[197,198,-215,199]]],"id":120},{"properties":{"cd_mun_ibge":"2205904"},"type":"MultiPolygon","arcs":[[[200,201,202,203,-633,-570]]],"id":121},{"properties":{"cd_mun_ibge":"2205953"},"type":"MultiPolygon","arcs":[[[-580,-283,204,205,206]]],"id":122},{"properties":{"cd_mun_ibge":"2206001"},"type":"MultiPolygon","arcs":[[[207,208,209,-380]]],"id":123},{"properties":{"cd_mun_ibge":"2206050"},"type":"MultiPolygon","arcs":[[[210,211,-577,212,-322]]],"id":124},{"properties":{"cd_mun_ibge":"2206100"},"type":"MultiPolygon","arcs":[[[213,214,215,-488,216]]],"id":125},{"properties":{"cd_mun_ibge":"2206209"},"type":"MultiPolygon","arcs":[[[217,-378,-259,218,219,220,-627]]],"id":126},{"properties":{"cd_mun_ibge":"2206308"},"type":"MultiPolygon","arcs":[[[221,-233,-276,222,223,-552]]],"id":127},{"properties":{"cd_mun_ibge":"2206357"},"type":"MultiPolygon","arcs":[[[-576,224,225,-341,226,227]]],"id":128},{"properties":{"cd_mun_ibge":"2206407"},"type":"MultiPolygon","arcs":[[[228,-618,229,230,-309,231,-277,232]]],"id":129},{"properties":{"cd_mun_ibge":"2206506"},"type":"MultiPolygon","arcs":[[[233,234,-358,235]]],"id":130},{"properties":{"cd_mun_ibge":"2206605"},"type":"MultiPolygon","arcs":[[[236,-389,-400,237]]],"id":131},{"properties":{"cd_mun_ibge":"2206654"},"type":"MultiPolygon","arcs":[[[238,-391,239,240,241]]],"id":132},{"properties":{"cd_mun_ibge":"2206670"},"type":"MultiPolygon","arcs":[[[242,243,-490,244]]],"id":133},{"properties":{"cd_mun_ibge":"2206696"},"type":"MultiPolygon","arcs":[[[245,246,247,248]]],"id":134},{"properties":{"cd_mun_ibge":"2206704"},"type":"MultiPolygon","arcs":[[[249,250,-268,-458,-507,251,252]]],"id":135},{"properties":{"cd_mun_ibge":"2206720"},"type":"MultiPolygon","arcs":[[[-621,-292,253]]],"id":136},{"properties":{"cd_mun_ibge":"2206753"},"type":"MultiPolygon","arcs":[[[254,255,256,257]]],"id":137},{"properties":{"cd_mun_ibge":"2206803"},"type":"MultiPolygon","arcs":[[[258,-377,259,260]]],"id":138},{"properties":{"cd_mun_ibge":"2206902"},"type":"MultiPolygon","arcs":[[[261,-271,262,263,-639]]],"id":139},{"properties":{"cd_mun_ibge":"2206951"},"type":"MultiPolygon","arcs":[[[-481,264,265,-573,266]]],"id":140},{"properties":{"cd_mun_ibge":"2207009"},"type":"MultiPolygon","arcs":[[[-459,267,268,-434,-611,-650,269,270,271,272,-487,-415,-662,273]]],"id":141},{"properties":{"cd_mun_ibge":"2207108"},"type":"MultiPolygon","arcs":[[[274,275,276,277,-314,278,279]]],"id":142},{"properties":{"cd_mun_ibge":"2207207"},"type":"MultiPolygon","arcs":[[[-655,280,281,282,-579,283]]],"id":143},{"properties":{"cd_mun_ibge":"2207306"},"type":"MultiPolygon","arcs":[[[-342,-598,-532,-589]]],"id":144},{"properties":{"cd_mun_ibge":"2207355"},"type":"MultiPolygon","arcs":[[[-412,284,-407,285,286]]],"id":145},{"properties":{"cd_mun_ibge":"2207405"},"type":"MultiPolygon","arcs":[[[-635,287,288,289,290]]],"id":146},{"properties":{"cd_mun_ibge":"2207504"},"type":"MultiPolygon","arcs":[[[291,-620,292,-550,293,294,295]]],"id":147},{"properties":{"cd_mun_ibge":"2207553"},"type":"MultiPolygon","arcs":[[[-485,296,-347,297,-416]]],"id":148},{"properties":{"cd_mun_ibge":"2207603"},"type":"MultiPolygon","arcs":[[[298,-562,299,-403,300,301]]],"id":149},{"properties":{"cd_mun_ibge":"2207702"},"type":"MultiPolygon","arcs":[[[302,303,304,305,306,307]]],"id":150},{"properties":{"cd_mun_ibge":"2207751"},"type":"MultiPolygon","arcs":[[[308,309,-531,310,311,312,313,314]]],"id":151},{"properties":{"cd_mun_ibge":"2207777"},"type":"MultiPolygon","arcs":[[[315,316,317,318,-653,319,320,321]]],"id":152},{"properties":{"cd_mun_ibge":"2207793"},"type":"MultiPolygon","arcs":[[[322,323,324,-615,325,326]]],"id":153},{"properties":{"cd_mun_ibge":"2207801"},"type":"MultiPolygon","arcs":[[[327,328,329,-386,-454,330]]],"id":154},{"properties":{"cd_mun_ibge":"2207850"},"type":"MultiPolygon","arcs":[[[331,332,333,334,-414]]],"id":155},{"properties":{"cd_mun_ibge":"2207900"},"type":"MultiPolygon","arcs":[[[335,-366,336,-373,337,338,339,340]]],"id":156},{"properties":{"cd_mun_ibge":"2207934"},"type":"MultiPolygon","arcs":[[[-593,341,-588,-343,-494]]],"id":157},{"properties":{"cd_mun_ibge":"2207959"},"type":"MultiPolygon","arcs":[[[342,-587,343,344,-495]]],"id":158},{"properties":{"cd_mun_ibge":"2208007"},"type":"MultiPolygon","arcs":[[[345,346,347,348,-431,-604,349]]],"id":159},{"properties":{"cd_mun_ibge":"2208106"},"type":"MultiPolygon","arcs":[[[-636,350,-539,351,352,-359,353,-436,-522,-473,354]]],"id":160},{"properties":{"cd_mun_ibge":"2208205"},"type":"MultiPolygon","arcs":[[[355,-517,356,357,358,359]]],"id":161},{"properties":{"cd_mun_ibge":"2208304"},"type":"MultiPolygon","arcs":[[[360,-502,361,362,363,-476,364]]],"id":162},{"properties":{"cd_mun_ibge":"2208403"},"type":"MultiPolygon","arcs":[[[365,366,367,368,369,370,371,372,373]]],"id":163},{"properties":{"cd_mun_ibge":"2208502"},"type":"MultiPolygon","arcs":[[[374,375,376,377]]],"id":164},{"properties":{"cd_mun_ibge":"2208551"},"type":"MultiPolygon","arcs":[[[378,379,380,381,382]]],"id":165},{"properties":{"cd_mun_ibge":"2208601"},"type":"MultiPolygon","arcs":[[[-542,-422,-448,-528,383]]],"id":166},{"properties":{"cd_mun_ibge":"2208650"},"type":"MultiPolygon","arcs":[[[384,-455,385,386,387]]],"id":167},{"properties":{"cd_mun_ibge":"2208700"},"type":"MultiPolygon","arcs":[[[388,389,390,391,-401]]],"id":168},{"properties":{"cd_mun_ibge":"2208809"},"type":"MultiPolygon","arcs":[[[392,393,394,395,396,397]]],"id":169},{"properties":{"cd_mun_ibge":"2208858"},"type":"MultiPolygon","arcs":[[[-461,398,399,400,401,402,403]]],"id":170},{"properties":{"cd_mun_ibge":"2208874"},"type":"MultiPolygon","arcs":[[[404,-510,-595,-493,405,406]]],"id":171},{"properties":{"cd_mun_ibge":"2208908"},"type":"MultiPolygon","arcs":[[[407,-423,408,-629]]],"id":172},{"properties":{"cd_mun_ibge":"2209005"},"type":"MultiPolygon","arcs":[[[409,410,411,412,413]]],"id":173},{"properties":{"cd_mun_ibge":"2209104"},"type":"MultiPolygon","arcs":[[[414,-486,415,416,417,418,419,-663]]],"id":174},{"properties":{"cd_mun_ibge":"2209153"},"type":"MultiPolygon","arcs":[[[420,-449,421,-541]]],"id":175},{"properties":{"cd_mun_ibge":"2209203"},"type":"MultiPolygon","arcs":[[[422,423,424,425]]],"id":176},{"properties":{"cd_mun_ibge":"2209302"},"type":"MultiPolygon","arcs":[[[426,427,428,429]]],"id":177},{"properties":{"cd_mun_ibge":"2209351"},"type":"MultiPolygon","arcs":[[[430,431,-512,-599]]],"id":178},{"properties":{"cd_mun_ibge":"2209377"},"type":"MultiPolygon","arcs":[[[432,-612,433]]],"id":179},{"properties":{"cd_mun_ibge":"2209401"},"type":"MultiPolygon","arcs":[[[-602,434,-523,435,436,437]]],"id":180},{"properties":{"cd_mun_ibge":"2209450"},"type":"MultiPolygon","arcs":[[[438,439,-468]]],"id":181},{"properties":{"cd_mun_ibge":"2209500"},"type":"MultiPolygon","arcs":[[[440,-591,-535,441,-665,442]]],"id":182},{"properties":{"cd_mun_ibge":"2209559"},"type":"MultiPolygon","arcs":[[[443,444,-558,445,446]]],"id":183},{"properties":{"cd_mun_ibge":"2209609"},"type":"MultiPolygon","arcs":[[[-529,447,448,449]]],"id":184},{"properties":{"cd_mun_ibge":"2209658"},"type":"MultiPolygon","arcs":[[[450,451,452,453,454,455,456]]],"id":185},{"properties":{"cd_mun_ibge":"2209708"},"type":"MultiPolygon","arcs":[[[457,458,459,-508]]],"id":186},{"properties":{"cd_mun_ibge":"2209757"},"type":"MultiPolygon","arcs":[[[460,461,462,463,464]]],"id":187},{"properties":{"cd_mun_ibge":"2209807"},"type":"MultiPolygon","arcs":[[[465,466,467,468,-548,469]]],"id":188},{"properties":{"cd_mun_ibge":"2209856"},"type":"MultiPolygon","arcs":[[[470,471,472,-525,473,-515]]],"id":189},{"properties":{"cd_mun_ibge":"2209872"},"type":"MultiPolygon","arcs":[[[474,475,476,477,478]]],"id":190},{"properties":{"cd_mun_ibge":"2209906"},"type":"MultiPolygon","arcs":[[[479,480,481,-544]]],"id":191},{"properties":{"cd_mun_ibge":"2209955"},"type":"MultiPolygon","arcs":[[[482,483,484,485,486]]],"id":192},{"properties":{"cd_mun_ibge":"2209971"},"type":"MultiPolygon","arcs":[[[487,488,489,490,491]]],"id":193},{"properties":{"cd_mun_ibge":"2210003"},"type":"MultiPolygon","arcs":[[[492,-594,493,494,495,496,497,498]]],"id":194},{"properties":{"cd_mun_ibge":"2210052"},"type":"MultiPolygon","arcs":[[[499,500,501,502]]],"id":195},{"properties":{"cd_mun_ibge":"2210102"},"type":"MultiPolygon","arcs":[[[503,504,505,506,507,508,-533,-596,509]]],"id":196},{"properties":{"cd_mun_ibge":"2210201"},"type":"MultiPolygon","arcs":[[[510,-600,511,512,513,514]]],"id":197},{"properties":{"cd_mun_ibge":"2210300"},"type":"MultiPolygon","arcs":[[[-659,515,516,517,518]]],"id":198},{"properties":{"cd_mun_ibge":"2210359"},"type":"MultiPolygon","arcs":[[[519,520,-554]]],"id":199},{"properties":{"cd_mun_ibge":"2210375"},"type":"MultiPolygon","arcs":[[[521,522,523,524]]],"id":200},{"properties":{"cd_mun_ibge":"2210383"},"type":"MultiPolygon","arcs":[[[525,526,527,528,529,530]]],"id":201},{"properties":{"cd_mun_ibge":"2210391"},"type":"MultiPolygon","arcs":[[[531,-597,532,533,534,-590]]],"id":202},{"properties":{"cd_mun_ibge":"2210409"},"type":"MultiPolygon","arcs":[[[535,536,537,538,539,540,541,542,543,544]]],"id":203},{"properties":{"cd_mun_ibge":"2210508"},"type":"MultiPolygon","arcs":[[[545,546,547,548,549,550,551,552]]],"id":204},{"properties":{"cd_mun_ibge":"2210607"},"type":"MultiPolygon","arcs":[[[553,554,555,-646,556,557,558,559,560]]],"id":205},{"properties":{"cd_mun_ibge":"2210623"},"type":"MultiPolygon","arcs":[[[561,562,563,564]]],"id":206},{"properties":{"cd_mun_ibge":"2210631"},"type":"MultiPolygon","arcs":[[[565,566,567,568,569,-632]]],"id":207},{"properties":{"cd_mun_ibge":"2210656"},"type":"MultiPolygon","arcs":[[[570,571,572,573,574,575]]],"id":208},{"properties":{"cd_mun_ibge":"2210706"},"type":"MultiPolygon","arcs":[[[576,577,578,579,580,581,582]]],"id":209},{"properties":{"cd_mun_ibge":"2210805"},"type":"MultiPolygon","arcs":[[[583,584,585,586,587,588,589,590,591]]],"id":210},{"properties":{"cd_mun_ibge":"2210904"},"type":"MultiPolygon","arcs":[[[592,593,594,595,596,597]]],"id":211},{"properties":{"cd_mun_ibge":"2210938"},"type":"MultiPolygon","arcs":[[[598,599,600,601,602,603]]],"id":212},{"properties":{"cd_mun_ibge":"2210953"},"type":"MultiPolygon","arcs":[[[604,605,606,607]]],"id":213},{"properties":{"cd_mun_ibge":"2210979"},"type":"MultiPolygon","arcs":[[[608,609,-651,610,611]]],"id":214},{"properties":{"cd_mun_ibge":"2211001"},"type":"MultiPolygon","arcs":[[[-625,612,613,614,615,616,617,618,619,620,621]]],"id":215},{"properties":{"cd_mun_ibge":"2211100"},"type":"MultiPolygon","arcs":[[[622,623,624,625,626]]],"id":216},{"properties":{"cd_mun_ibge":"2211209"},"type":"MultiPolygon","arcs":[[[627,628,629,630,631,632,633,634]]],"id":217},{"properties":{"cd_mun_ibge":"2211308"},"type":"MultiPolygon","arcs":[[[635,636,637,638,639,640]]],"id":218},{"properties":{"cd_mun_ibge":"2211357"},"type":"MultiPolygon","arcs":[[[641,642,643,644,645]]],"id":219},{"properties":{"cd_mun_ibge":"2211407"},"type":"MultiPolygon","arcs":[[[646,647,648,649,650]]],"id":220},{"properties":{"cd_mun_ibge":"2211506"},"type":"MultiPolygon","arcs":[[[651,652,653]]],"id":221},{"properties":{"cd_mun_ibge":"2211605"},"type":"MultiPolygon","arcs":[[[654,655,656,657,658,659]]],"id":222},{"properties":{"cd_mun_ibge":"2211704"},"type":"MultiPolygon","arcs":[[[660,661,662,663,664]]],"id":223}],"type":"GeometryCollection"}},"bbox":[-46.0282068,-10.9287563,-40.3705098,-2.7504314579859592],"transform":{"scale":[5.6577535775357745e-05,8.178406626080301e-05],"translate":[-46.0282068,-10.9287563]},"arcs":[[[93039,32827],[-341,-139],[65,-569],[-228,-221],[-472,-23],[3,-495],[-305,-225],[-389,14],[-246,272],[-370,1],[-76,-130],[139,-230],[-313,-150],[107,-277],[-417,-302],[-944,583],[-378,-20],[-132,-252],[-642,-192],[-130,-536],[-492,97],[-205,-490],[-370,-257],[-270,-102],[-140,103],[-262,-5]],[[55024,52343],[154,561],[381,389],[-59,411],[283,283],[-249,58],[35,144],[326,160],[-214,800],[371,342],[95,390],[352,170],[38,128],[-107,113],[-429,-61],[235,594],[-266,517],[-267,168],[-664,132],[-361,281],[-623,174],[-150,475]],[[58479,57636],[-119,488],[-768,-139],[-329,-196],[-225,680],[137,572]],[[52475,18730],[-269,-37]],[[30318,46588],[136,10],[520,529],[-4,200]],[[59654,54092],[1058,175]],[[90503,64639],[-61,-174],[-487,-205],[446,-653],[-74,-221],[140,-245],[74,-1033],[212,-422],[-69,-214],[306,-200],[117,-677],[-536,-585],[-42,-313]],[[41280,10630],[-4,-220],[-654,63],[-638,-96],[-126,-229],[116,-433],[-221,-565],[-1028,-851],[-19,-668],[-1004,-609],[-348,-363],[-25,-520],[-363,-115],[-637,42],[-307,179]],[[8336,8704],[-261,367],[69,579],[-291,276],[-341,110],[-805,-237],[-636,-317],[-741,-44],[-151,-284],[129,-405],[-188,-259],[-392,-198],[-584,-209],[-1361,216],[-459,-174],[-334,-592],[503,-340],[-420,-374],[-1064,148],[-192,170],[-1,232],[-270,114],[-45,246],[-501,239],[279,323],[148,-134],[138,139],[394,23],[489,-124],[-173,458],[185,301],[255,69],[122,240],[429,225],[174,386],[205,134],[152,501],[-181,131],[670,1431],[-424,866],[363,760],[430,433],[-129,841],[-174,98],[157,201]],[[71258,81722],[-6,457],[-958,327],[-454,-296],[-335,25],[-285,-108],[-80,62],[-705,-162],[-648,42],[-288,-152],[-99,112],[-387,-63],[-67,206],[116,165],[-137,331],[-126,74],[-244,-106],[-82,94],[294,428],[-161,66],[-74,423],[172,116],[-222,742],[130,151],[416,106],[-1,228],[224,8],[-165,114],[-198,504]],[[64686,68577],[344,-521],[-110,-243],[374,-153],[297,-562],[274,-205],[80,-348],[552,-839],[-133,-105],[203,-220],[97,-480],[364,-242],[132,-374]],[[93039,32827],[-358,119],[-248,249],[-40,342],[-265,145],[-534,-16],[-182,349],[-816,-86],[-707,394]],[[96372,35439],[-484,-794],[237,-531],[-205,-139],[-577,131],[-170,-221],[-405,-50],[-45,-194],[-558,-308],[-118,-255],[-388,-17],[-270,-186],[-350,-48]],[[67736,80062],[229,-21],[157,136],[-149,284],[80,283],[-273,314],[133,239],[-168,106],[1240,-27],[72,96],[1010,-100],[591,87],[531,-67]],[[12660,20614],[933,550],[328,431],[555,303],[465,623],[1732,1111]],[[39698,18049],[-70,-61]],[[53952,21662],[-335,254],[225,83]],[[68537,78824],[1583,589]],[[72590,82469],[-204,-158],[631,1361],[-666,201],[260,89],[118,332],[340,-138],[189,81],[487,-13]],[[71555,94307],[128,277],[322,201],[130,36],[208,-112],[-84,320],[263,214],[31,358],[489,198],[470,411]],[[75236,95472],[1856,-1562],[-479,-723]],[[84750,74815],[-175,-223],[57,-343],[-172,-149],[381,-274],[-120,-181],[221,-372],[329,-166],[92,151],[234,-73],[608,-596],[237,88],[307,-442],[-210,-336],[619,-56],[293,-312],[-15,-140],[486,-160],[350,148],[134,-228],[218,48],[40,-218],[410,-185],[109,-180],[315,42],[271,-206],[262,-6],[157,-116],[-113,-298],[176,-308],[-357,-172],[539,-320],[-221,-100],[-47,-270],[261,-211],[-424,-633],[434,-506],[-109,-109],[-437,-42],[97,-232]],[[61512,80501],[1156,13],[614,117],[4454,-569]],[[67736,80062],[333,-237],[-64,-177],[244,-125],[10,-305],[-205,-170],[182,-3],[109,-155],[129,46],[63,-112]],[[68537,78824],[-1773,-648]],[[60479,50379],[463,262],[181,-12],[112,404],[266,190],[-173,202],[484,208],[267,-180],[466,149],[316,351],[-133,28],[31,123],[747,-7],[121,77],[191,-116],[170,112],[574,-179]],[[81162,98097],[678,23],[1017,-285],[313,75],[126,-493],[791,-118],[404,-681],[-229,-329]],[[93645,45046],[524,223]],[[97602,45460],[-171,-656],[64,-456],[-518,-373],[-123,-738],[-1836,-497]],[[74027,34359],[1107,22],[660,348]],[[88853,46952],[62,-593]],[[89020,44951],[-873,-42],[-41,-256]],[[59330,87268],[-222,323],[253,450],[-243,415]],[[64328,84891],[-895,213],[-299,-344],[-998,-557]],[[65668,73244],[-1017,1303]],[[65971,77982],[321,25]],[[71291,70440],[-771,110],[-725,434],[-720,-179],[-360,165],[-337,-49],[-569,108]],[[39982,39194],[202,46],[-15,142],[177,-1],[89,271],[435,333],[100,-31],[31,102],[-126,-2],[235,114],[-909,849]],[[41443,28485],[934,4100]],[[56046,34863],[-324,-251],[-103,-291],[128,-272],[-230,-394],[-481,-121],[193,-173],[-146,-302]],[[70587,78249],[-374,18],[-30,779],[137,137],[-200,230]],[[70120,79413],[46,374],[-369,357],[925,245]],[[71948,31253],[140,-7],[221,-323],[3715,-7]],[[45270,26886],[3773,21]],[[49659,18685],[-419,-138],[-430,0],[-263,-143],[-265,324],[-327,94],[-258,215],[-560,91],[-1086,1061],[-371,165],[-737,-14],[-980,-526]],[[75701,91284],[228,-98],[364,44],[389,181],[271,-356]],[[80070,72323],[469,-118],[-86,-300],[615,-609],[-50,-442],[875,-251],[335,54],[-52,-103],[268,-29],[134,-149],[7,-153],[-282,-63],[-461,-350],[-6,-190],[-194,-169],[166,-140],[-27,-148],[338,49],[359,-173],[231,47],[482,-488],[380,-84],[203,-451],[594,-282],[172,-268]],[[75701,91284],[-478,-79],[-701,166],[-925,-51],[61,-180],[-455,-47],[344,-627],[-114,-37],[-393,163],[-300,-104]],[[72480,92956],[24,-85],[766,-5],[0,328],[502,156],[-36,187],[273,13],[-2,147],[164,-38],[628,195],[948,-835],[-132,-153],[342,-5],[-256,-1577]],[[76953,91055],[210,1253],[-262,761],[-288,118]],[[76613,93187],[1379,171],[-7,184],[1085,578],[672,231],[-16,293],[106,33]],[[81549,92669],[-162,-221],[432,54],[-20,-265],[233,-58],[1,-236],[710,291],[402,-5],[-51,-739],[128,-462],[295,-99],[-374,-136],[-26,-404],[-198,-214],[-537,-95]],[[75677,89777],[798,496],[478,782]],[[72807,76387],[-661,109],[-194,-242],[-809,-101],[-552,158],[-165,229],[-321,101]],[[70153,76867],[516,232],[-104,244],[363,425],[-514,127],[173,354]],[[70587,78249],[1247,0],[746,-179],[467,-310],[975,-677],[-295,-226],[-130,-458],[-277,1]],[[79608,89540],[133,497],[1518,328],[-214,67],[377,137],[469,-319],[491,-170]],[[82382,90080],[-60,-162],[455,-169],[240,-440],[-219,-627],[168,-98]],[[65668,73244],[2861,-1547],[-391,-55],[28,-207],[-229,-105],[-128,-301]],[[67809,71029],[-119,-329],[-983,-541],[-463,-542],[-563,1],[-159,-421],[68,-153],[-163,-186]],[[64495,70628],[-191,162],[1364,2454]],[[44354,34004],[-55,-245],[-1022,-1078],[-900,-96]],[[42377,32585],[-299,144],[-3099,-18]],[[76620,34968],[-389,161],[-212,346],[-206,489],[150,328]],[[69975,20435],[-535,-286],[-620,-77],[-795,24],[-476,-92],[-347,116]],[[10848,3468],[-378,274],[-17,562],[-186,250],[162,376],[-161,222],[831,542],[75,221],[-503,226],[-103,820],[-1067,715]],[[10848,3468],[1945,464],[2002,212],[2956,-797]],[[20581,532],[-1192,-532],[-806,482],[-703,58],[-249,219],[-752,321],[-567,-78],[-1764,170],[-227,49],[-22,141],[-510,-56],[-361,559],[-953,195],[-633,343],[-334,845],[-232,181],[-428,39]],[[35353,28343],[60,86],[4531,241],[681,-181],[818,-4]],[[41443,28485],[-327,-1443]],[[34293,10739],[-1216,-984],[1122,-748]],[[30477,24274],[-518,-470],[-388,-718],[-350,112],[-12149,33],[-399,401]],[[16673,23632],[499,330],[719,197],[528,331],[492,537],[-41,98],[312,95],[531,526],[460,973],[48,1008],[-98,72],[275,1113],[-64,338],[517,454],[-17,194],[387,697]],[[89730,37951],[312,429],[323,193],[253,494],[851,38],[460,-139],[350,-302]],[[96934,36281],[-562,-842]],[[96372,35439],[-858,-65],[-1439,126]],[[60612,68219],[1,-11]],[[65389,21322],[2100,-215],[-287,-987]],[[67202,20120],[-757,-332],[-849,-82],[-158,-199],[-551,-234],[-44,-307],[-1121,-441],[-94,-319],[-217,-200],[-857,-72],[54,-266],[-125,-136],[-516,-99],[-1135,76],[-290,-245]],[[87139,82514],[-668,-649],[291,-1110]],[[80083,82514],[725,-72],[113,-88],[317,149],[95,251],[297,152],[308,-161],[803,303],[267,-178],[333,50]],[[69975,20435],[-1295,1278],[-657,235],[-800,1482],[-212,1043],[24,784],[246,203],[427,55],[-84,122],[1286,1267],[-1425,969]],[[68976,28883],[253,-194],[583,117],[33,-140],[217,30],[194,-194],[247,155],[270,-12],[279,-192],[236,34],[477,-451],[677,-106],[215,-162],[152,65],[214,-259],[308,22],[525,-343],[594,51],[170,131],[553,-436],[241,-4],[24,-135],[400,-8]],[[81602,26342],[-228,-344],[-184,42],[-663,-538],[-277,-10],[-263,-246],[-147,-166],[64,-181],[-661,-557],[-17,-290],[-344,-106],[-85,187],[-632,-29],[-410,-336],[-714,-63],[-9,-164],[-186,-108],[-814,-50],[-153,-957],[-1147,-652],[-1,-210],[-349,-291],[-320,-652],[-575,59],[-904,-505],[-895,368],[-488,-212],[-390,199],[-835,-95]],[[69551,54678],[-145,278],[-458,37]],[[70126,59627],[423,-740],[-334,-38],[257,-502],[-66,-110],[140,-77],[-201,-159],[233,-60],[-1,-176],[230,-38]],[[39982,39194],[3821,-1953],[220,-485]],[[44822,34336],[-468,-332]],[[44354,34004],[-931,-120],[-250,275],[-472,-175],[-1972,-96],[-171,1386],[-1090,-298]],[[39509,36030],[88,-12],[-132,222],[192,245],[-234,348],[129,75],[-102,326],[120,39],[-101,158],[210,196],[2,258],[-26,154],[-214,56],[-36,174],[130,102],[-194,185],[641,638]],[[66888,85616],[-32,-109],[-378,-49],[-172,-477],[-260,22],[-305,-265],[-888,297],[-525,-144]],[[64328,84891],[-184,1071]],[[70308,88630],[0,-1358],[272,-1],[267,-230],[439,130],[346,-56],[-242,-317],[209,-140],[-4,-216],[-307,-159],[-814,-40],[-194,-127],[-279,-3],[93,-122],[-205,-279],[-427,99],[-121,-72],[-221,73],[-62,155],[-443,-89],[-411,191],[-132,-292],[-231,95],[-353,-161],[16,164],[-158,88],[-469,-195],[11,-152]],[[58423,19410],[623,-511],[257,0],[137,-229],[-208,-4],[884,-526],[426,-876]],[[60542,17264],[-333,-300],[-805,-83],[-408,29],[-522,185],[53,-313],[-722,-404],[-131,-336],[-889,-64],[-253,498],[28,254],[-158,124],[-640,-165],[-542,454],[-432,-6],[-315,108],[-281,594],[62,506]],[[75565,41204],[-1343,83],[-255,178],[-304,23]],[[46609,50065],[49,202],[409,-25],[284,259],[1227,32],[618,355],[1176,-5],[543,-200],[753,164],[379,257],[323,-9],[306,-146],[652,24],[322,138],[272,376],[465,157],[551,417],[86,282]],[[55024,52343],[1028,-175],[273,-530]],[[66071,56280],[2894,-795],[-17,-492]],[[68948,54993],[-12,-317],[-170,-193],[-652,283],[-274,-140]],[[65722,54064],[-693,2]],[[57177,50795],[-852,843]],[[56325,51638],[890,2247],[2439,207]],[[59654,54092],[147,-1274],[574,-674],[-626,-1188],[431,-447]],[[91555,44549],[866,297],[813,78],[92,141],[319,-19]],[[93645,45046],[273,-16],[-275,-541],[44,-729]],[[87017,46509],[-471,36],[-207,-535],[2,-497]],[[99036,48830],[-86,-710],[417,-147],[-384,-161],[-189,25],[194,-213],[-1096,-1037],[95,-177],[-385,-950]],[[97602,45460],[-2918,14],[-515,-205]],[[94169,45269],[-296,226],[451,590]],[[81854,44823],[-1155,923]],[[85466,46628],[-1260,-1349],[1043,-394]],[[11473,11592],[-236,358],[81,256],[-122,163],[-176,130],[-239,-48],[-114,76],[71,96],[-336,74],[81,101],[-309,139],[105,-3],[-35,150],[-346,67],[4,132],[-229,158],[-242,-106],[61,121],[-243,121],[-139,-106],[-20,191],[-238,17],[71,126],[-147,206],[-179,-35],[-133,223],[215,119],[-30,98],[-238,20],[-86,107],[-1910,-775],[-1225,620],[-862,577],[-819,305]],[[3509,15270],[-68,338],[232,420],[-289,193],[55,179],[-147,301],[231,189],[-61,132],[202,239],[527,419]],[[9131,21481],[3529,-867]],[[12660,20614],[3484,-1072]],[[37077,50838],[295,224],[599,-62],[462,271],[806,188],[231,222],[358,-157],[249,153],[809,45],[291,-132],[456,40],[527,-126],[1034,-501],[402,115],[354,-502],[646,-143],[292,-252]],[[43963,19814],[-674,-148],[-753,-625],[-1134,-566],[-1160,-199],[-544,-227]],[[39698,18049],[-1548,1699]],[[38160,23357],[1355,2499],[1601,1186]],[[41116,27042],[-40,-179],[4194,23]],[[45270,26886],[690,-428],[195,-265],[-46,-258],[-559,-844],[-38,-442],[146,-743],[-91,-587],[594,-628],[-52,-801],[-695,153],[-1457,-1362],[6,-867]],[[60948,60905],[567,48]],[[74125,97979],[-559,558],[369,686],[-42,469],[380,223],[76,-48],[330,132],[376,-96]],[[78023,49173],[-152,100],[-1374,-195],[-50,170],[-1012,-147],[-60,-100],[-835,4],[45,-98]],[[72578,52359],[164,-46],[2,-221],[253,-218],[496,-29],[951,-322],[890,-920],[1864,-71],[-2,-415],[955,-43]],[[80775,38474],[-866,-271],[-820,549],[-744,9],[-273,-110],[-132,-352],[-908,-491]],[[75202,38054],[302,1],[-22,1083],[556,429],[-132,398],[63,817],[-404,422]],[[75565,41204],[445,431],[-245,765],[-686,449]],[[77774,41347],[-11,640],[-273,1041],[260,194]],[[78030,44033],[148,451],[625,-19],[261,-165],[1511,-89],[734,464],[545,148]],[[81854,44823],[121,34],[1410,-572]],[[48152,39338],[-3595,391],[598,1534],[2625,1835]],[[49537,44573],[1376,750],[1284,-1127],[3359,-545],[754,54]],[[57088,43314],[-449,-584],[343,-1558],[-1011,-705],[-442,-13],[-2631,-1393]],[[80191,35549],[-64,122],[484,263],[-509,411],[-390,4],[-136,174],[81,266],[240,142],[432,-24],[146,122],[705,29],[404,354],[564,283],[35,399]],[[87115,39007],[137,-382],[537,-22],[311,-192],[469,-65],[1161,-395]],[[89730,37951],[-132,-282]],[[82176,41734],[1209,2551]],[[83385,44285],[11,241],[467,247],[1324,-102],[62,214]],[[85249,44885],[153,486],[939,142]],[[86341,45513],[-65,-651],[232,-173],[497,31],[366,-159],[312,148],[423,-56]],[[88106,44653],[654,-1809]],[[59093,58087],[-102,181],[144,298],[-108,328],[-258,147],[-33,246]],[[60761,60075],[254,-331],[890,-71],[425,-137],[23,-379],[1140,-729],[679,46],[65,111]],[[64390,58370],[262,-281],[676,-332],[228,-407]],[[72807,76387],[513,13]],[[73320,76400],[1080,-203],[744,101]],[[72154,72155],[-636,356],[-1083,194],[15,586],[-134,295],[-689,785],[1153,-249],[268,140],[138,323],[-248,109],[9,197],[425,197],[200,309],[850,10],[767,579],[-382,401]],[[40721,48595],[1113,-323],[1404,-59],[1650,2008]],[[44888,50221],[130,-170],[418,-131],[236,99],[443,-74],[494,120]],[[46609,50065],[-134,-488],[-321,-189],[-436,-674],[2396,-570],[-885,-2605],[2308,-966]],[[49537,44573],[-1757,-1475]],[[47780,43098],[-1394,622],[329,496],[-138,359],[-2217,-12],[-1233,290],[-591,-18],[-356,-124],[-251,330],[-334,-26],[-313,-217],[-447,18]],[[68391,28594],[-541,76],[-365,-797]],[[67485,27873],[-1438,233],[-341,-397],[-2906,65],[-2276,-875]],[[58366,27437],[468,1528],[1087,813],[-81,1047],[267,392],[102,674],[242,221]],[[67632,91673],[134,404],[672,75],[195,473],[342,87]],[[71646,90755],[8,-184],[1086,-83]],[[72740,90488],[37,-204],[-405,-293],[107,-175],[-240,-371],[12,-242],[269,-63],[13,-471]],[[71869,88642],[-1561,-12]],[[70308,88630],[-1169,88],[4,1002],[-752,-185]],[[62885,91032],[390,67],[416,304],[188,-52],[48,-204],[202,-4]],[[64651,74547],[-4090,-884]],[[63503,78880],[2468,-898]],[[65971,77982],[-704,-1487],[-616,-1948]],[[82085,73912],[-356,-215],[-486,-99],[51,-197],[-157,-91],[102,-106],[-104,-126],[136,-108],[-239,-49],[56,-176],[-149,-60],[-143,107],[-8,-147],[-243,-178],[-156,140],[-108,-211],[-211,-73]],[[80070,72323],[-246,-306],[27,-280],[-408,63],[-368,-67],[-189,-144],[-573,-70],[3,-131],[-344,-137],[-38,-219],[-360,-101],[-311,-348],[-572,-194],[-244,-235],[-485,22],[-203,416],[166,464],[-120,475]],[[30414,7810],[3785,1197]],[[34199,9007],[471,-313],[1352,-2449]],[[36022,6245],[-310,155],[-355,-87],[-141,-394],[175,-376],[-444,-377],[-373,-901],[-681,-211],[-506,-522],[-465,-37],[-858,348],[-411,-148],[-471,23],[-893,823],[-528,94]],[[52206,18693],[-797,343],[-240,-188],[-450,125],[-270,-418],[-314,-112],[-262,224],[-214,18]],[[49659,18685],[90,548],[147,41],[7,425],[-325,52],[223,345],[-137,17],[44,465],[481,621],[-1602,2383],[-74,3062],[400,35]],[[52474,27281],[695,-41]],[[51704,22407],[-146,-64],[67,-554],[376,-248],[54,-381],[-422,-549],[341,-555],[232,-1363]],[[60561,62058],[-1019,-133],[-41,-371],[-261,-25]],[[59604,62316],[220,561],[335,151],[139,192]],[[61354,80240],[196,44],[1276,-874],[511,-77],[430,-337],[-264,-116]],[[63503,78880],[-786,-323],[-40,-212],[-1049,-320],[-208,-506],[-1079,-212]],[[82134,27163],[-532,-821]],[[81602,26342],[-326,218],[-283,30],[-463,-306],[-294,-57],[-189,-283],[-271,37],[0,167],[-406,13],[-188,121],[-201,4],[-354,-245],[-598,156],[9,98],[-178,13],[-145,195],[-418,28],[-68,93],[-283,-75],[-152,129],[-250,-46],[-119,259],[-262,-107],[-325,68]],[[75838,26852],[-236,1560],[683,1282],[-751,943],[599,232],[-109,47]],[[76024,30916],[944,96],[69,516],[-130,266],[352,361]],[[57970,67306],[385,-45],[1134,448],[548,-9],[576,508]],[[60613,68208],[1439,-656],[-45,-231],[415,-432],[476,-36],[-1,-232],[301,-271],[-122,-35],[-52,-369],[-730,-237]],[[79839,52828],[-3152,938]],[[32588,42929],[1997,1823],[-343,611],[387,239]],[[40088,46893],[347,-238],[992,-244],[-592,-1595]],[[40835,44816],[-259,-453],[-916,-798]],[[77390,98606],[360,-271],[766,-242],[500,109],[833,-173],[542,190],[771,-122]],[[81162,98097],[-160,-280],[263,-205],[-258,-215],[280,-930],[-138,-66],[-68,-414],[2114,392],[1067,-90]],[[84262,96289],[90,-412],[-518,-171],[-1,-149],[-595,-380],[-154,-186],[89,-242],[-1297,-1520],[-37,-287],[-290,-273]],[[81549,92669],[-560,117],[-704,302],[46,173],[-362,262],[387,569],[-524,585]],[[79832,94677],[856,308],[-27,435],[-2359,35],[-94,725],[-292,204],[-927,425],[-438,-335]],[[64129,91143],[221,333],[558,-39],[432,210],[260,-8],[379,-243],[1111,313],[542,-36]],[[67632,91673],[-388,-189],[3,-1169],[-312,-505],[-318,-150]],[[62708,89597],[352,-95],[114,-191],[351,-52],[873,194],[136,224],[-96,676],[269,403],[-334,134],[-244,253]],[[62885,91032],[-434,-390],[360,-84],[362,-522],[-277,-95],[-188,-344]],[[62708,89597],[-1140,-320],[-238,-262],[71,-213]],[[60298,89480],[87,288],[824,242],[197,358],[420,326],[-13,273],[385,153],[104,318],[329,40],[-46,-364],[300,-82]],[[36290,35772],[1921,332],[1298,-74]],[[39509,36030],[82,-157],[-131,-55],[-83,-296],[142,-41],[-160,-56],[95,-130],[-124,-238],[138,-81]],[[39468,34976],[-221,-211],[57,-218],[-198,-248],[198,-186],[-124,34],[-114,-215],[88,-82],[-105,-180],[147,-47],[-155,-148],[189,-79],[-194,-318],[107,-226],[-164,-141]],[[38979,32711],[204,-279],[-35,-74],[-174,34],[-104,-163],[68,-270],[-953,18],[-710,-902],[-1662,-192],[-1651,411],[-4892,40]],[[92508,42884],[1179,876]],[[93687,43760],[327,-458],[260,-65],[744,-497]],[[95018,42740],[-237,-216],[-692,-95],[-178,-267]],[[37357,48459],[110,-34],[51,99],[654,193],[204,-79],[570,112],[108,101],[1667,-256]],[[40721,48595],[-1286,-1368],[653,-334]],[[40088,46893],[-338,-252],[94,-305],[-1194,50],[-695,-771],[-2777,-402],[-184,130]],[[84855,41028],[-2,566],[-192,518],[871,89],[549,370],[39,239],[873,95],[343,-73],[1424,12]],[[88760,42844],[-193,-146],[158,-591],[371,-574]],[[89894,40726],[-367,-184],[-549,-2],[-211,-264],[-1029,-131]],[[59118,88456],[234,349],[826,480],[120,195]],[[60298,89480],[1103,-678]],[[61401,88802],[640,-207],[523,-907]],[[61508,87115],[-765,559],[-1143,438],[-482,344]],[[54153,80310],[15,409],[-376,534],[-4,819],[927,729],[779,42],[-223,432],[554,172],[610,1037],[330,320],[380,-2],[79,174]],[[59768,83120],[543,-1309],[1201,-1310]],[[61512,80501],[-158,-261]],[[61354,80240],[-499,-354],[63,-388]],[[56810,64198],[1414,209]],[[60439,63569],[-141,-349]],[[60298,63220],[-103,126],[-319,24],[127,219],[-202,-85],[-109,66],[-335,-48],[-144,-111],[-363,176],[217,176],[291,-40],[-52,153],[-393,-21],[-79,-112],[-124,83],[9,-180],[-130,143],[-109,-295],[-5,332],[-363,-38],[182,-99],[-260,28]],[[75677,76121],[-533,177]],[[75144,76298],[556,1203]],[[84137,74797],[-184,-512],[-178,-84],[-256,134],[-193,-228],[-724,24],[-517,-219]],[[82085,73912],[-898,279],[-285,435],[-388,-97],[-925,64],[-318,843],[-224,34],[-74,141],[-1674,-382]],[[58224,64407],[-17,330],[-465,107],[224,1031]],[[57980,66006],[633,-156],[304,341],[440,-182],[46,144],[328,-72],[53,127],[827,-15],[463,287],[1220,-771]],[[62294,65709],[470,-323],[-105,-320],[515,-124],[157,-261]],[[61979,63611],[-391,21],[-286,-189],[-216,50]],[[60534,63776],[-2310,631]],[[88853,46952],[-1150,233],[-686,-676]],[[87017,46509],[427,1560],[-257,2944]],[[89200,50822],[-50,-2364],[-297,-1506]],[[16144,19542],[5251,-1612]],[[18944,13511],[-485,68],[-116,109],[-312,-48],[-31,80],[-479,-155],[-357,119],[-78,-187],[-121,146],[-145,-17],[72,98],[-143,-40],[-495,189],[-822,-126],[-456,43],[-1165,-269],[-540,256],[-130,-85],[-332,130],[-83,217],[-318,109],[-92,387],[555,575],[-616,163],[3889,4269]],[[34293,10739],[-410,311],[-146,-36],[139,953],[-247,-1],[-108,132],[610,706],[-401,154],[-514,435],[494,92],[260,184],[-225,312],[90,605],[-1309,934]],[[35080,16417],[4548,1571]],[[39628,17988],[-571,-448],[-581,-708],[153,-740],[154,-64],[-141,-239],[790,-722],[-7,-381],[225,-424],[1122,-379],[64,-111],[430,-35],[711,-413],[-428,-580],[-303,-58],[-255,-269],[328,-199],[-220,-447],[715,-390],[-124,-401],[-367,-170],[-43,-180]],[[41280,10630],[-585,106],[-457,283],[-308,44],[-713,-129],[-531,14],[-758,-228],[6,-68],[-651,-96],[-686,451],[-200,605],[-404,-206],[-357,50],[-490,-134],[-74,-270],[-298,104],[-481,-417]],[[66617,89660],[645,-122],[292,146],[261,494],[659,-427],[-83,-216]],[[68391,89535],[-344,-984],[-539,-97],[321,-351],[-329,-171],[42,-182],[-379,-145],[-343,-3],[-166,-246],[-636,-16],[-948,-632],[-818,58]],[[64697,87561],[702,301],[-7,236],[561,775],[643,255],[21,532]],[[68975,92712],[-9,393],[429,-49],[106,226],[-33,81],[-517,84],[62,238],[966,30],[495,211],[498,-12],[583,393]],[[71555,94307],[370,-198],[524,-40],[31,-273],[287,-260],[-41,-243],[169,-159],[-112,-38],[-389,193],[86,-333]],[[72480,92956],[-1359,-143],[472,-299],[383,3],[184,-168],[-103,-267],[229,16],[399,-192],[170,-305],[-30,-204],[-217,-161],[-627,208],[-367,-3],[32,-686]],[[71646,90755],[-836,30],[-564,166],[166,203],[-106,308],[-512,-28],[-316,132],[597,547],[-1100,599]],[[60180,50509],[299,-130]],[[60479,50379],[42,-350],[209,-133],[130,31],[323,-289]],[[56783,44617],[-652,797],[-1381,264],[-248,729],[2576,2669],[99,1719]],[[57177,50795],[2252,-950],[751,664]],[[53449,65857],[157,421],[376,273],[152,449],[614,123],[374,546],[504,54],[291,261],[590,201],[273,419]],[[70153,76867],[146,-128],[-194,-98]],[[70105,76641],[-283,-148],[-184,-448],[-263,-189],[-770,308],[44,-263],[-286,-67],[-459,254],[-89,-215],[-245,-35],[-222,287],[13,376],[-152,83],[-357,-15],[16,167],[-467,0],[337,-482],[-11,-530],[-188,-123],[-340,-4],[-173,198],[-434,29],[617,594],[45,1038],[366,299],[-328,252]],[[66292,78007],[472,169]],[[66764,78176],[88,-199],[520,90],[114,-150],[255,79],[122,-127],[244,10],[487,392],[31,-537],[-512,60],[-106,-205],[110,-244],[496,0],[1,157],[167,0],[79,-139],[827,-57],[231,-342],[235,-97]],[[59768,83120],[-215,649],[-445,-192]],[[60191,85895],[179,78],[1404,-833],[131,-646],[231,-291]],[[62136,84203],[143,-154],[-280,-107],[-289,-476],[-341,-26],[-669,-372],[-476,101],[-456,-49]],[[73654,52871],[-79,-90],[-400,45],[-698,-440]],[[69033,52388],[154,134],[470,-39],[97,316],[432,103],[-67,921],[426,191],[-205,21],[-48,168],[663,261],[0,374],[-945,-17],[-341,-289],[-118,146]],[[69551,54678],[992,817],[375,972]],[[72186,67520],[-321,213],[-291,-87],[-202,100],[-250,380],[36,136],[-422,-44],[-156,143],[85,377],[655,245],[-78,138],[-310,102],[256,333],[-346,80],[376,407],[73,397]],[[71291,70440],[243,-23]],[[74702,70044],[-294,-182],[-571,-789],[907,-300],[7,-214],[-359,-122],[-285,39],[-53,-142],[-260,-6],[-152,-247]],[[60144,48068],[430,361],[609,1209]],[[61183,49638],[450,78],[695,-219],[155,42],[412,-213],[-70,-126],[430,-56],[290,97],[701,858],[422,114],[168,204]],[[68631,52410],[402,-22]],[[69033,52388],[1020,76],[1178,257],[1246,-335]],[[72477,52386],[101,-27]],[[72578,52359],[-194,-286],[287,-858],[8,-1101]],[[71339,44786],[-530,-439],[-529,-203],[-785,2004],[-1274,608],[-1112,-408],[-315,-395],[-289,-76],[-202,63],[-227,-102],[-119,64],[-242,-594]],[[60561,62058],[273,285],[-405,509],[183,290],[-173,427]],[[60439,63569],[95,207]],[[60534,63776],[552,-283]],[[61086,63493],[-61,-376],[642,-396],[-152,-205],[47,-321],[1050,-356],[342,-287]],[[62543,61040],[-1028,-87]],[[61515,60953],[-4,131],[-647,156],[-22,209],[-488,185],[207,424]],[[91123,44838],[432,-289]],[[91555,44549],[3,-750],[910,-545],[40,-370]],[[92508,42884],[-192,-162],[15,-605]],[[90013,41968],[235,383],[-341,1296],[189,96],[-712,382],[-20,180]],[[52475,36903],[2842,324],[1682,2872],[832,-644]],[[58615,35568],[-377,37],[-406,-295],[-528,-57],[-717,-309],[-541,-81]],[[56046,34863],[-1379,175],[-540,213],[-521,768],[-809,481],[-389,108]],[[28629,30164],[3588,-1123],[-54,-898],[3190,200]],[[35353,28343],[150,-150],[-307,-137],[83,-66],[-255,-137],[108,-37],[-151,-99],[-606,-71],[-603,-378],[-316,20],[-362,-616],[-545,-161],[-91,-152],[-187,25],[-651,-339],[-1162,-7]],[[30458,26038],[-7472,3267],[-1765,1290]],[[21221,30595],[243,572],[-94,504],[-446,352],[41,547]],[[53449,65857],[593,-232]],[[54552,65320],[481,-482],[-1009,-30],[329,-289],[-396,-374],[690,-266]],[[57406,60712],[-549,-375],[-155,29],[502,-937],[-29,-388]],[[57175,59041],[-3270,-469]],[[53905,58572],[-315,280],[-888,124],[-497,587],[-20,199],[409,246],[88,290],[-647,489],[-49,467],[-223,191],[436,438],[-382,464],[108,268],[-190,602],[124,200],[253,3],[71,133],[-225,728],[143,337],[-305,270],[278,274],[862,91],[156,371],[357,233]],[[75946,47833],[274,207],[959,-382],[817,-30]],[[78099,45301],[-45,-119],[-676,-69],[-125,-430],[165,-228],[-545,-130]],[[29761,4635],[-949,-687],[-452,-90],[-577,63],[-425,-409],[-677,-114],[-498,253],[-547,41],[-719,-541],[-809,-107],[-45,-967]],[[21601,6112],[105,68],[-146,154],[156,56],[-563,802],[655,152]],[[25678,13027],[384,-483],[482,-23],[713,-240],[-59,-374],[849,-285],[-125,-142],[105,-265],[560,-467],[-187,-647],[508,-125],[1,-342],[528,-337],[-22,-590],[509,-273],[453,-444],[37,-180]],[[30414,7810],[380,-459],[-1089,-1771],[56,-945]],[[76551,96474],[-1315,-1002]],[[75236,95472],[-1724,738]],[[73512,96210],[817,518],[469,714],[-176,259],[-497,278]],[[74125,97979],[416,220],[-84,173],[534,127],[170,239],[359,137],[-521,886],[56,142]],[[75055,99903],[536,-518],[271,-100],[128,69],[851,-544],[549,-204]],[[77390,98606],[-360,-165],[-55,-198],[199,-288],[-218,-318],[-161,-47],[56,-376],[-129,-24],[-64,-227],[-275,-15],[-115,-111],[3,-205],[280,-158]],[[61979,63611],[-51,571],[509,170],[194,278],[279,-98],[282,176],[139,-27]],[[63331,64681],[80,-376],[566,-91],[70,-309],[442,-251],[969,-101]],[[64621,60979],[-342,-394],[1557,-764],[-184,-419],[-726,14],[-667,-466],[385,-353],[-254,-227]],[[64390,58370],[-153,215]],[[64237,58585],[-431,348],[-307,921],[-1137,685],[67,235],[-105,177],[219,89]],[[62543,61040],[473,328],[-62,184]],[[62954,61552],[259,287],[190,29],[-282,183],[-3,298],[262,360],[-2,359],[-121,133],[-983,99],[-351,195],[56,116]],[[87738,40145],[-59,-355],[-536,-504],[-28,-279]],[[87115,39007],[-449,-29],[-450,-242],[-673,183],[117,92],[-309,71],[-89,169],[-454,-206],[-477,103],[-956,-87],[-149,-706],[-1043,-261]],[[82183,38094],[-559,113],[-351,211],[-498,56]],[[80775,38474],[-342,392],[141,640]],[[81821,41306],[355,428]],[[82176,41734],[658,-141],[272,-179],[476,4],[117,-114],[-86,-294],[363,-51],[-13,-246],[196,-172],[466,220],[230,267]],[[84855,41028],[569,-29],[392,-410],[492,-236],[1430,-208]],[[65427,68858],[-741,-281]],[[64686,68577],[-465,24],[-282,186],[-713,-88],[-195,116],[-532,-225],[-7,146],[-170,-22],[-102,136],[-501,-131],[-111,82],[-120,-144],[-198,90],[-113,-112],[-311,-4],[-49,-256],[-205,-156]],[[60612,68219],[-46,1194]],[[60611,70117],[346,308],[1721,10],[294,-413],[343,-157],[299,319],[571,185],[310,259]],[[64495,70628],[502,-409],[430,-1361]],[[89598,37669],[318,-388],[574,-289],[944,-235],[55,-221],[1031,-479],[501,-61],[1054,-496]],[[94075,35500],[-1542,28],[-605,-124],[-674,-201],[130,-283],[-282,-245],[-526,197],[-448,-252],[-524,111],[-19,-272],[304,-136]],[[89889,34323],[-626,-196],[-126,233],[-512,-13],[-243,-196],[-345,-4],[-820,-784],[-1497,-800],[5,-270],[263,-110],[50,-302],[319,-223],[-629,-8],[-38,-188],[-322,-29],[87,-208],[-220,-183]],[[80840,34640],[505,-122],[551,112],[242,176],[2,437],[1266,338],[727,-36],[738,129],[545,-113],[192,77],[399,-69],[348,528],[518,-38],[640,505],[406,-41],[401,285],[-212,268],[-113,-25],[25,155],[223,108],[-22,161],[355,155],[440,-174],[582,213]],[[51089,36582],[203,-396],[-3441,-1339],[-1620,491],[-1409,-1002]],[[44822,34336],[-13,691],[-786,1729]],[[44023,36756],[4129,2582]],[[48152,39338],[310,194]],[[75700,77501],[106,250]],[[78174,79714],[-2,62],[268,-22],[47,-127],[701,151],[362,-83],[473,349],[-98,84],[87,216],[-206,321],[-304,0],[-117,130],[-87,-96],[-312,122],[-25,105]],[[79593,81582],[532,-218],[129,-357],[187,-124],[-19,121],[440,32],[670,-118],[-216,-124],[705,-1363],[124,-11],[313,1162],[2165,-456],[202,432],[1937,197]],[[86762,80755],[-717,-700],[5,-355],[-308,-375],[-241,-908],[-544,-636],[-366,-29],[372,-111],[-216,-364],[72,-139],[981,-573],[-1352,-1096],[748,-247],[-446,-407]],[[84750,74815],[-350,121],[-263,-139]],[[84137,74797],[-481,-41],[29,3164],[-3866,-300],[-4119,-119]],[[65220,36435],[438,32],[780,308],[102,142],[673,43]],[[68769,33295],[-93,128],[-635,-35],[-125,104],[467,663],[-102,484],[352,572],[-46,197],[-286,113],[0,206],[534,224],[95,367]],[[70813,36587],[-178,-475],[666,-137],[812,-324],[809,-6],[812,-635],[-56,-591],[349,-60]],[[74027,34359],[-914,-192],[-573,-1495]],[[80699,45746],[-518,135],[-127,188],[-399,35],[-266,-176],[-263,73],[-451,-341],[-251,-413],[-325,54]],[[78099,45301],[-445,623],[629,879],[338,59],[-202,255],[118,516],[-541,-5]],[[77996,47628],[-251,550],[278,995]],[[78023,49173],[22,341]],[[82983,46825],[-957,-100],[-240,-271],[-995,173],[-92,-881]],[[77670,56943],[-1787,757],[328,610],[1350,1064]],[[84293,58915],[6236,782]],[[90529,59697],[390,-16],[201,-108],[479,-958],[-139,-346],[113,-486],[-88,-259],[1241,-1129],[16,-429],[-425,-507],[269,-1315]],[[87187,51013],[-844,76]],[[83890,52304],[310,470],[-97,59],[110,19],[-204,480],[-427,153],[-54,286],[-258,57],[43,320],[-1055,-35],[-562,824],[305,857],[-1022,210],[-1431,-333],[-69,166],[-548,-236],[-216,520]],[[99036,48830],[-422,-112],[-242,94],[-471,-193],[-278,165],[-386,-46],[-225,88],[-171,-180],[-857,-34],[-471,-498],[-348,-50],[-185,-169],[-352,-30],[-324,-199],[-510,105],[-164,137],[-191,-57],[-241,79],[-291,257],[-321,-169]],[[91516,48219],[392,696],[-197,1618],[-144,136],[-623,-98],[-254,282],[-1490,-31]],[[89200,50822],[-2013,191]],[[87187,51013],[5399,3131]],[[92586,54144],[39,-281],[740,-513],[212,-496],[209,-141],[-181,-459],[256,-198],[1213,-91],[296,-245],[534,-209],[2214,-206],[791,-980],[767,195],[323,-74],[-293,-330],[-762,-462],[-66,-419],[158,-405]],[[73745,84224],[147,817],[-1117,403],[136,659]],[[73556,88133],[1278,1184],[377,628],[466,-168]],[[75677,89777],[19,-1054],[1193,97],[512,302],[2207,418]],[[79608,89540],[652,-588],[524,-194],[158,-399],[-20,-488],[561,-137],[746,507],[270,28],[144,121],[295,-17],[19,120]],[[80303,84213],[-1246,-195],[-1180,-36],[-173,-920],[-2521,430],[244,36],[402,313],[2,326],[-599,138],[-1487,-81]],[[78174,79714],[-590,-658],[-1618,-1028],[-160,-277]],[[75806,77751],[-307,247],[19,137],[-311,4],[-246,285],[-562,137],[-412,486],[-196,61],[-200,-75],[-671,456],[-398,-61],[-292,116],[-302,-24],[-162,251],[-400,194],[-308,99],[-140,-59],[-103,165],[86,87],[-179,132]],[[70722,80389],[467,123],[0,880]],[[71189,81392],[69,330]],[[71258,81722],[313,-13],[434,312],[626,-39],[-41,487]],[[72590,82469],[2063,-222],[82,352],[683,-432],[1845,-134],[1401,906],[61,-173],[688,-8],[670,-244]],[[80083,82514],[-490,-932]],[[79593,81582],[-632,-656]],[[78961,80926],[-315,12],[-323,171],[-347,-277],[-11,-255],[-340,-137],[-574,23],[198,-437],[-72,-238],[313,91],[47,-162],[637,-3]],[[57224,84976],[165,300],[908,467],[268,647],[483,674],[282,204]],[[59330,87268],[210,-50],[62,-125],[-256,-666],[425,-431],[420,-101]],[[60191,85895],[-54,-285],[-1245,-703],[153,-665],[-240,-375],[208,-74],[-32,-146],[127,-70]],[[59108,83577],[-113,-49],[-343,105],[-688,439],[-740,904]],[[37077,50838],[539,-84],[327,-309],[865,-483],[-523,-413],[-658,-293],[-387,-401],[117,-396]],[[37357,48459],[-364,-10],[1,-294],[-816,1],[0,142],[-163,-74],[-293,-1290],[-728,-1591]],[[34994,45343],[-365,259]],[[34629,45602],[-1448,1006],[-448,-2],[-429,351],[-566,71],[-498,414],[-171,3],[-99,-118]],[[30970,47327],[-41,244],[259,235],[24,216],[466,32],[491,352],[169,491],[417,56],[-15,362],[219,257],[429,128],[341,383],[101,-246],[123,-60],[116,81],[35,137],[-312,306],[41,140],[444,2],[339,-221],[188,158],[101,491],[1160,135],[469,188],[285,-289],[258,-67]],[[67169,64282],[495,227],[769,16]],[[82134,27163],[-341,23],[-454,462],[-1127,-811],[-249,-20],[-244,130],[156,801],[460,709],[261,851],[-482,326],[170,367],[-168,742],[158,567]],[[81499,32190],[268,-69],[186,-394],[822,24],[58,-148],[902,-58],[415,-194],[-28,-143],[236,83],[45,-186],[239,-31],[61,-268],[532,236]],[[85235,31042],[20,-361],[-251,-249],[174,-81],[32,-167],[796,-150],[338,-590],[-113,-162]],[[86231,29282],[-341,-601],[-769,-229],[101,-385],[-123,-132],[-358,-43],[-332,-174],[-617,13],[-368,-369],[-506,-212],[-784,13]],[[24075,16700],[-139,159],[-2541,1071]],[[21395,17930],[1616,2365],[3593,-1336],[177,230],[14,103],[-115,11],[198,416],[5112,-1384],[3090,-1918]],[[35080,16417],[-2554,-897]],[[32526,15520],[-2494,-806],[-342,-50],[-393,118],[-685,22],[-552,234],[-786,-403],[-1603,-277],[-365,-145],[-492,-9]],[[58479,57636],[636,11],[-98,176],[213,118],[-137,146]],[[59093,58087],[1113,58],[1352,-361],[169,-216],[1642,25],[64,-443],[2123,200]],[[65556,57350],[137,-719],[514,-84],[-136,-267]],[[66071,56280],[-8,-864],[-1034,-1350]],[[65029,54066],[-100,-138],[-4024,-11],[-193,350]],[[60712,54267],[-1351,2449],[-793,333],[-89,587]],[[17686,11668],[1258,1843]],[[18944,13511],[466,324],[119,-64],[143,97],[202,-43],[-33,227],[458,-5],[86,254],[184,-19],[-81,217],[323,103],[96,145],[71,267],[-131,355],[192,32],[9,160],[232,78],[311,-376],[2615,1192],[-131,245]],[[24075,16700],[253,136],[741,96],[-251,-444],[45,-312],[-261,-217],[282,-546],[-20,-327],[-206,-171],[240,-145],[-232,-184],[148,-382]],[[24814,14204],[-35,-272],[390,-455],[-94,-113],[603,-337]],[[25678,13027],[-426,-289],[-33,-272],[260,-129],[-9,-185],[-453,-355],[-10,-215],[-336,34],[-87,-89],[355,-405],[-404,-145],[-312,-445],[-377,24],[-469,212],[-431,17],[-740,430],[-833,34],[734,-1653],[-331,-817],[32,-1435]],[[21808,7344],[-3648,2413],[-1863,-93]],[[57831,39455],[485,579],[26,257],[431,-120],[419,245],[13,390]],[[60451,32112],[422,864],[-163,441],[177,876],[-455,143],[-886,991],[-931,141]],[[58615,35568],[453,2945],[-1237,942]],[[19615,37400],[-3606,479],[-726,-34],[-657,559],[-811,-165],[-1034,-1339],[1302,-529],[-42,-363],[-418,-166],[-1027,-739],[-693,-221],[-526,195],[-1117,-2675],[376,-873],[1707,80],[-1344,-3537]],[[5689,31071],[2,232],[248,116],[32,284],[411,578],[62,467],[952,551],[-58,231],[518,362],[-72,330],[202,186],[-175,224],[286,275],[125,346],[-259,211],[246,173],[224,-4],[-301,250],[364,319],[30,126],[-188,49],[236,235],[-24,176],[234,-28],[133,142],[-346,165],[404,143],[-359,263],[277,93],[-35,208],[280,195],[10,271],[214,50],[-50,132],[209,2],[-49,144],[139,143],[-212,184],[253,-23],[-90,257],[86,156],[252,37],[-35,281],[376,55],[-191,154],[391,-65],[88,202],[319,76],[-19,126],[288,49],[67,324],[411,-47],[529,306],[134,192],[633,30],[238,107],[419,-58],[519,270],[245,-238],[1112,681],[298,-117],[961,248],[620,-135],[524,206],[283,-6],[323,194]],[[48462,39532],[1590,994],[1928,-696],[918,-769]],[[52898,39061],[-116,-61],[-125,-1655],[-144,47],[-38,-489]],[[52475,36903],[-67,-295]],[[52408,36608],[-152,-272],[-1167,246]],[[51089,36582],[533,395],[-1208,619],[-423,-162],[-652,-26],[-877,2124]],[[72617,45780],[354,738],[-331,755],[359,135]],[[74459,47231],[894,-500],[278,-562],[399,-160],[-45,-292],[546,-213],[-407,-1124],[202,-324],[547,269]],[[76873,44325],[150,-200],[1007,-92]],[[78030,44033],[111,-397],[-391,-414]],[[77750,43222],[-2671,-373]],[[75079,42849],[-692,816]],[[77074,60603],[-1694,-700],[-636,676],[-448,-204],[-1023,-845],[-1576,-336],[-1571,433]],[[69545,62987],[-221,429]],[[5689,31071],[155,-275],[274,16],[355,-267],[75,-264],[313,-137],[7,-239],[169,11],[172,-174],[654,50],[153,-125],[128,34],[-23,-87],[136,56],[15,-93],[333,-33],[-1,-101],[112,49],[367,-228],[52,58],[138,-207],[712,-139],[1014,-904]],[[10999,28072],[368,-284],[65,-328],[-290,-683],[97,-621],[-113,-102],[135,-320],[-125,-490],[-1281,-868],[-249,-367],[-280,-80],[-265,-493],[-471,-324],[-252,-3],[-110,-151],[162,-318],[448,-342],[-106,-437],[399,-380]],[[9131,21481],[1796,-3508],[-1828,1],[-38,-297],[-274,-158],[-594,-212],[-868,0],[-462,-219],[-489,-49],[-516,-275],[-265,16],[102,73],[-99,75],[-445,89],[149,19],[-293,171],[-59,97],[120,35],[-458,80],[-71,232],[-348,29]],[[4191,17680],[135,41],[-221,241],[129,22],[-229,268],[43,241],[-441,502],[-422,237],[-284,-38],[-534,213],[51,133],[-292,412],[203,204],[-141,172],[109,50],[23,331],[-124,55],[90,265],[-128,216],[149,73],[-549,583],[98,582],[-175,54],[67,189],[-206,184],[90,188],[-178,178],[38,123],[-747,674],[-160,403],[273,285],[-64,185],[282,149],[-90,166],[248,274],[216,-15],[1,133],[-258,157],[385,278],[22,170],[512,274],[297,-48],[36,288],[463,113],[-10,177],[248,65],[173,-65],[494,722],[-169,97],[107,193],[321,242],[360,-55],[199,97],[-506,217],[4,99],[579,267],[145,249],[-61,178],[325,321],[-163,80],[53,550],[255,239],[-81,129],[221,168],[-37,128],[324,88]],[[30477,24274],[-884,1353],[149,165],[716,246]],[[30458,26038],[625,-291],[-548,-293],[568,-185],[111,-254],[306,-1],[6640,-1657]],[[38160,23357],[-1546,-1902],[1536,-1707]],[[38150,19748],[-6507,2694],[-1387,871],[64,209],[96,-14],[-142,173],[170,77],[84,-76],[173,229],[-224,363]],[[81113,48045],[-20,98],[-601,-54],[-727,210],[-570,515],[117,452],[-1252,358],[-15,-110]],[[78045,49514],[83,490]],[[64836,50417],[458,77],[267,361],[15,110],[-269,148],[-27,232]],[[68766,51314],[93,-153],[369,-125],[3,-493],[-262,-192],[215,-156],[-31,-127],[-378,-203],[-420,-36],[128,-146],[-335,-107],[-68,-312],[-488,-118],[-31,-158],[-614,231],[57,413],[-353,64],[-589,-172],[28,535],[-213,121],[-172,-198],[-108,142],[-263,-64],[-481,196],[-17,161]],[[83372,48163],[394,150],[80,215],[724,125],[63,252],[692,480],[-88,558],[-141,319],[-119,-23]],[[85393,51957],[121,193],[1055,104],[-226,-1165]],[[86343,51089],[-270,-1394],[-512,-1568],[-95,-1499]],[[85466,46628],[-708,54]],[[59677,59271],[-941,16]],[[58736,59287],[-520,391],[-45,151]],[[73663,41488],[-511,58],[-359,-238],[-356,-57],[-264,23],[-317,256],[-771,-86],[-702,-191],[-256,-330]],[[67336,42683],[537,-26],[4161,1430]],[[74188,43834],[-548,-891],[137,-164],[-206,-465],[-19,-272],[158,-142],[-162,-142],[115,-270]],[[51704,22407],[-193,1263],[602,2208],[1112,-38],[-56,1400]],[[53169,27240],[120,-102],[531,-11]],[[56254,22729],[-2412,-730]],[[53842,21999],[-619,508],[-536,75],[51,-90],[-839,1],[-195,-86]],[[67604,62714],[9,162],[2055,-17],[-123,128]],[[69545,62987],[687,-242],[-253,-461],[440,-335],[-81,-211],[148,-255],[508,-53],[366,-262],[293,146],[140,-158],[-94,-1436],[-493,-31],[5,-76],[-1085,14]],[[70126,59627],[-428,-180],[-1012,242],[-2032,1122]],[[75794,34729],[826,239]],[[76620,34968],[1064,-105],[2170,676],[337,10]],[[80191,35549],[428,-134],[151,-288],[279,-131],[114,-235],[-323,-121]],[[80840,34640],[317,-353],[-346,-190],[-355,-423],[418,-62],[147,-146],[796,-115],[325,-224],[178,67],[-46,-400],[-558,-263],[115,-122],[-215,-9],[-117,-210]],[[81499,32190],[-596,197],[-410,-204],[-62,-336],[185,-175],[-342,-362]],[[80274,31310],[-644,-65],[-398,324],[-319,96],[-174,181],[149,147],[-620,-108],[-1009,270]],[[77259,32155],[-507,304],[-1125,-464],[-390,269],[-212,832],[965,618],[-112,116],[-357,16],[-375,486],[648,397]],[[60514,43395],[-1022,2167],[433,536],[-304,785],[198,1327],[325,-142]],[[60144,48068],[3616,372],[77,-1077],[173,-503],[-89,-568],[139,-330],[1655,-654]],[[65715,45308],[-892,-2378]],[[17686,11668],[-1389,-2004]],[[16297,9664],[-1521,-76],[-1653,-697],[-1816,-526],[-1806,-689]],[[9501,7676],[-471,178],[-157,605],[-537,245]],[[8336,8704],[171,488],[594,169],[192,171],[-244,165],[112,169],[-266,714],[-413,319],[-167,288],[105,483],[3053,-78]],[[11473,11592],[1899,-52],[106,71],[-166,149],[332,130],[-117,190],[102,63],[2071,-1],[1986,-474]],[[60948,60905],[-187,-830]],[[60761,60075],[-696,-300],[-186,-608],[-202,104]],[[59677,59271],[-330,123],[-187,-32],[-133,636],[-638,13],[-218,-182]],[[58171,59829],[10,292]],[[59070,60770],[1878,135]],[[80118,52100],[-279,728]],[[79839,52828],[47,628],[1449,-110],[2555,-1042]],[[83890,52304],[-197,-287],[337,-44]],[[82818,49700],[-396,-109],[-248,148],[-316,-4]],[[83341,82920],[-406,1171],[-2632,122]],[[80303,84213],[3646,3319],[-613,374],[-379,587]],[[82957,88493],[9,91]],[[82966,88584],[767,-70],[928,-318],[-357,-208],[-48,-303],[125,-214],[-825,-627],[423,8],[161,-443],[687,-610],[153,-364],[-154,-325],[-358,-266],[184,-312],[-317,-238],[1259,216],[242,-187],[1042,-113],[-253,-240],[87,-194],[-369,-575],[265,-184],[173,-317],[485,-63],[-127,-123]],[[87139,82514],[-653,44],[-133,-108],[-377,-32],[-572,498],[-229,11],[-266,-145],[-432,245],[-189,-74],[-65,-211],[-315,-101],[-243,24],[-132,255],[-192,0]],[[69129,65157],[1120,478],[434,65],[427,319],[261,437],[367,359],[257,99],[-47,157],[238,449]],[[72186,67520],[102,213],[217,97],[649,40],[181,217],[307,-6]],[[73642,68081],[570,81],[-232,-97],[150,-152],[258,3],[466,-307],[243,156],[204,-152],[-103,-57],[407,-41],[-61,-113],[547,-67],[-131,-145],[152,15],[257,-271],[208,-48],[66,273],[301,-75],[-418,-488],[-635,-269],[-321,-364],[121,-112]],[[72679,50114],[701,-348],[1132,-994],[73,135]],[[74585,48907],[201,-718],[290,291],[870,-647]],[[75946,47833],[-832,-243],[-655,-359]],[[74459,47231],[-796,259],[-664,-82]],[[72999,47408],[347,257],[-24,95],[-1650,104],[167,301],[-686,463],[217,72],[-15,323],[461,469],[30,258],[483,203],[120,162],[230,-1]],[[61508,87115],[347,217],[21,169],[688,187]],[[62564,87688],[427,-149],[333,117],[45,188],[283,-53],[135,65],[295,-147],[448,48],[167,-196]],[[64697,87561],[-340,-173],[-105,-622]],[[64252,86766],[295,-533],[-403,-271]],[[64144,85962],[-272,-9],[-1335,331],[-63,160],[-483,239],[-483,432]],[[60451,32112],[617,-27],[633,174],[21,231],[-184,299],[235,273],[726,-214],[551,95],[-148,1580],[-951,296]],[[63387,35005],[65,-106],[400,-59],[338,-175],[-423,-168],[170,-306],[257,-6],[2019,-742],[621,-317],[-294,-261],[21,-249],[732,-2],[645,-183],[334,39],[409,319],[-122,163],[210,343]],[[68769,33295],[1583,-864],[1067,-233],[1121,474]],[[72540,32672],[-592,-1419]],[[71948,31253],[-484,566],[-865,-1654],[-2106,-132],[483,-1150]],[[68976,28883],[-585,-289]],[[68391,28594],[-566,997],[-1864,733],[-656,617],[-4854,1171]],[[71869,88642],[664,27]],[[72533,88669],[1023,-536]],[[73556,88133],[651,-398],[2062,-215],[469,-128],[2,-190],[-2634,-628],[-532,2],[-663,-473]],[[72911,86103],[83,1103],[-1462,155],[100,1066],[237,215]],[[59205,40806],[-66,1486],[-2051,1022]],[[57088,43314],[-778,391]],[[56310,43705],[473,912]],[[56783,44617],[540,-187],[1039,1268],[358,-9],[311,-872],[-166,-352],[407,-220],[261,-513],[656,-6],[325,-331]],[[60514,43395],[629,-159],[656,219],[3024,-525]],[[64823,42930],[859,-168]],[[60873,39722],[57,1176],[-1725,-92]],[[81858,49735],[-258,-220],[-1,-282]],[[81063,49113],[-1197,5],[-1288,502],[-450,384]],[[78128,50004],[23,70]],[[78151,50074],[1129,1164],[1116,-81],[-278,943]],[[80118,52100],[947,-39],[-293,-883],[580,-57],[374,-367],[-189,-242],[321,-777]],[[89581,46722],[824,379],[1041,689],[-100,360],[170,69]],[[91516,48219],[644,-53],[145,104],[281,-252]],[[92586,48018],[500,-255],[570,-980],[637,-504],[31,-194]],[[94324,46085],[-671,-7],[-815,313],[-1214,102],[-198,-38],[-13,-224],[-447,-116]],[[65238,23163],[-366,-562],[-185,-75],[22,-224],[-166,-189],[117,-55],[-142,-31],[135,-43],[5,-182],[150,-17],[-85,-40],[166,-38],[-37,-214],[513,-80],[24,-91]],[[65389,21322],[-728,-31],[-1645,185],[-547,-1029],[-2623,-920]],[[84030,51973],[1363,-16]],[[85393,51957],[142,-662],[-171,-157],[18,-268],[-571,-299],[166,-332]],[[84977,50239],[-655,-128],[-152,-258],[-924,-14],[-45,-177],[-383,38]],[[82818,49700],[135,636],[559,142],[-100,397],[-313,214],[931,884]],[[65458,63553],[-89,294],[189,248],[290,57],[-27,350],[313,-59],[294,158],[508,-300],[224,-16]],[[67160,64285],[9,-3]],[[67169,64282],[16,-587],[-143,-23],[146,-308],[-143,-203],[42,-135],[517,-312]],[[67604,62714],[-16,-313],[811,-121],[186,-260],[-144,-295],[-127,56],[-125,-108],[-1020,-88],[-78,-321],[-437,-453]],[[66654,60811],[-2033,168]],[[64621,60979],[45,371],[1027,871],[-564,235],[86,91],[-246,276],[109,218],[286,109],[94,403]],[[67854,39205],[-2937,-19],[-668,-332],[-400,-74]],[[62776,39458],[-216,2149],[711,-115],[507,134],[236,-143],[411,67],[639,616],[491,293],[127,303]],[[65682,42762],[1654,-79]],[[67336,42683],[851,-1021],[-813,-1240]],[[84540,67513],[1007,144],[898,-352],[1596,238],[694,-158],[530,99],[341,-355],[381,0]],[[89987,67129],[254,-117],[120,-219],[-236,-210],[5,-422],[-134,-104],[622,-1046],[-115,-372]],[[90503,64639],[-4597,14],[-3,-1770],[-1607,-1094],[-3,-2874]],[[84293,58915],[-1261,-277],[214,-312],[-793,-231],[-86,372],[-854,226],[-1639,-259],[159,450],[-1685,262],[-8,146],[-176,-92],[-603,174]],[[77561,59374],[-676,490],[189,739]],[[77074,60603],[204,451],[-1107,1810],[-403,-12],[-622,-198],[-131,114],[-518,-257],[-1141,-33],[-433,215],[-524,-35],[-49,110],[-162,-138],[-197,105],[-297,-36],[-154,316],[-316,151],[-401,-87],[-525,233],[-420,61],[-176,-130],[-98,166],[-280,7]],[[69324,63416],[140,487],[-255,208],[40,117],[-816,297]],[[68433,64525],[262,100],[199,499],[235,33]],[[69129,65157],[3585,-1152],[1766,-147],[812,-404],[32,1304],[-626,671],[810,253],[183,169]],[[75691,65851],[673,-199],[781,-80],[867,-379],[901,86],[717,-113],[65,276],[1279,483],[339,695],[957,141],[101,151],[734,45],[286,170],[350,459],[223,-150],[576,77]],[[59604,62316],[-364,-787]],[[59240,61529],[-170,-759]],[[59070,60770],[-507,-92],[-142,-544],[-240,-13]],[[58181,60121],[-856,-47],[81,638]],[[57406,60712],[635,1390],[-585,29],[-1305,-278],[-44,268],[-1550,1567],[90,191]],[[54647,63879],[2163,319]],[[56810,64198],[109,-235],[723,103],[392,-349]],[[58034,63717],[128,-242],[225,-113],[83,-860],[1134,-186]],[[65238,23163],[-722,197],[-619,-195],[-460,-606],[-242,-777],[-448,803],[-56,355],[-907,-369],[-110,113],[-929,95],[-84,-607],[-619,348],[-733,-776],[-241,-589],[169,-998],[-149,-153],[758,-477]],[[59846,19527],[-1423,-117]],[[58423,19410],[-170,28],[25,-239],[-802,-87]],[[56447,20513],[637,692],[-227,326],[282,376],[-413,563],[-472,259]],[[56254,22729],[-971,516],[-397,569],[-612,428],[76,342],[-197,903],[-222,411],[-111,1229]],[[53820,27127],[475,-41],[1109,183],[2962,168]],[[58366,27437],[-132,-1416],[2290,878]],[[60524,26899],[529,-2183],[271,-380],[641,381],[568,-278],[961,-181],[488,1],[84,-105],[643,544],[444,-442],[348,-623],[-179,-124],[-84,-346]],[[21601,6112],[1728,-970],[-1084,-708],[878,-1365],[940,-992]],[[24063,2077],[-361,-126],[-484,91],[-557,-194],[-216,-139],[-11,-194],[-515,-45],[-393,-465],[-15,-292],[-636,-375],[-139,203],[-155,-9]],[[20581,532],[-325,1625],[-1971,1052],[-534,138]],[[17751,3347],[-88,486],[1127,-8],[1344,1334],[737,149],[-41,236],[355,121],[24,204],[304,8],[-134,245],[222,-10]],[[30589,44816],[556,248],[1443,-2135]],[[32588,42929],[885,-1422],[198,411],[1534,942],[3602,863],[853,-158]],[[39660,43565],[1625,471],[518,-1319],[-1369,-994],[-233,-706]],[[40201,41017],[-1159,444],[-109,594],[-519,-311],[-560,214],[-249,-126],[-599,-602],[-306,-146],[-232,-415],[-339,114],[-426,-10],[587,-5001]],[[36290,35772],[-2193,-319],[-541,-2999],[-4117,-256]],[[77299,75229],[205,-421],[-801,-2208],[-566,2],[-392,-827],[60,-244]],[[75805,71531],[-679,-197],[-165,-824],[78,-380],[-337,-86]],[[74702,70044],[17,75],[-3185,298]],[[71534,70417],[620,1738]],[[72154,72155],[1269,1535],[44,258],[369,163],[143,-28],[39,150],[219,14],[302,656],[626,194],[132,280],[-104,187],[313,190],[-65,171],[236,196]],[[75677,76121],[904,-766],[718,-126]],[[89894,40726],[-406,83],[-87,118],[103,79],[-281,154],[-127,373]],[[89096,41533],[582,191],[335,244]],[[90013,41968],[565,114],[267,350],[308,129],[1178,-444]],[[92331,42117],[686,107],[894,-62]],[[93911,42162],[348,-688],[1035,-876],[260,-524],[-208,-557],[-673,-473],[-31,-319],[502,-307],[1357,-269],[369,-229],[166,-360],[-102,-1279]],[[96934,36281],[-187,171],[-277,-75],[-185,89],[-335,-103],[-320,41],[-259,224],[-421,-62],[-154,204],[-182,-86],[-292,383],[250,344],[-311,200],[36,671],[-184,144],[-528,107],[-793,0],[-513,131]],[[92279,38664],[175,902],[-550,317],[-418,496],[-588,39],[-261,277],[-743,31]],[[75202,38054],[1830,-246]],[[77032,37808],[-812,-198],[199,-1050],[-456,-268]],[[75963,36292],[-789,331],[-794,29],[-650,-103],[-414,532],[-598,251],[-403,-354],[-1542,-52],[40,-339]],[[70813,36587],[-611,-464],[-697,300],[-266,-263],[-309,158]],[[68930,36318],[48,175],[-491,87],[-327,227],[-947,153]],[[67213,36960],[181,141],[-226,116],[520,1083],[665,605],[-499,300]],[[67854,39205],[-1944,1161],[1412,-24],[52,80]],[[67374,40422],[2753,501]],[[70127,40923],[-92,-119],[1712,-1389],[323,-460],[319,-173],[1110,-204],[301,-344],[740,-322],[227,147],[435,-5]],[[65220,36435],[-432,-21],[-266,-510],[-808,-116],[-327,-783]],[[63387,35005],[-1436,-186]],[[61951,34819],[-580,181],[-484,2129],[743,-5],[-303,338],[-527,35],[-132,593],[-65,1462],[270,170]],[[60873,39722],[1334,-1985],[465,79],[104,1642]],[[62776,39458],[1073,-678]],[[63849,38780],[1028,-659],[343,-1686]],[[81113,48045],[392,4],[-419,694],[-23,370]],[[81063,49113],[536,120]],[[81599,49233],[220,-43],[126,-568],[794,-413],[633,-46]],[[83372,48163],[-107,-210],[1493,-1271]],[[84758,46682],[-1775,143]],[[82983,46825],[23,460],[-704,-75],[-558,157],[-44,177],[-560,367],[-27,134]],[[52474,27281],[-306,-521],[-3255,-81]],[[48913,26679],[130,228]],[[49043,26907],[-224,603],[101,533],[-220,217],[222,338],[-271,591],[544,562],[145,1456],[188,180],[3982,1122],[1091,543],[482,7]],[[55083,33059],[10,-293],[557,-345],[-198,-425],[-49,-549],[438,-785],[532,-363],[-40,-447],[-222,-284],[-917,37],[-885,-136],[-697,110],[-641,-721],[-232,-117],[-312,-502],[47,-958]],[[65280,51345],[-531,194],[54,407],[-241,45]],[[64562,51991],[335,1812],[831,178]],[[68614,52409],[152,-1095]],[[68766,51314],[-483,-290],[30,-132],[-1612,199],[-1107,551],[-314,-297]],[[57259,74723],[1012,-76],[327,-1000],[1392,-93],[571,109]],[[60561,73663],[50,-3546]],[[60611,70117],[-45,-704]],[[60566,69413],[-569,62],[-467,-361],[-335,44],[-1233,-811],[8,-1041]],[[57970,67306],[10,-1300]],[[57980,66006],[-14,-131]],[[57966,65875],[-1103,489],[-147,-281],[-476,-143],[-11,-130],[-260,-169],[103,-124],[-1040,177],[-480,-374]],[[54552,65320],[-235,236],[-275,69]],[[54042,65625],[482,320],[589,-86],[307,199],[807,12],[-75,421],[711,-85],[634,578],[387,1199],[-162,188],[-942,233]],[[56780,68604],[62,436],[-305,527],[527,531],[-85,527],[-243,675],[-377,409],[-375,1043],[121,508],[-259,127],[-427,475]],[[60918,79498],[-1599,-606],[-152,-800],[1174,-785]],[[60341,77307],[-1822,-1179],[74,-170],[-164,54],[-988,-631],[-182,-658]],[[57259,74723],[-481,383],[-1359,-1244]],[[55419,73862],[-82,555],[-729,409],[-165,252],[-18,271],[402,192],[95,228],[-67,158],[-396,197],[-104,246],[650,385],[763,853],[114,188],[-151,364],[405,373],[31,263],[-56,124],[-419,155],[110,387],[-158,173],[-834,375],[-513,12],[-144,288]],[[54153,80310],[16,82],[1365,-122],[1309,-422],[1783,9],[2292,-359]],[[20965,32570],[-1350,4830]],[[19615,37400],[-1182,4757]],[[18433,42157],[1069,128],[431,552],[543,28],[384,447],[484,133],[73,180],[639,-215],[678,206],[213,-356],[333,-90],[380,33],[475,784],[828,277],[913,990],[690,70],[352,431],[763,326],[556,104],[788,375],[406,-7],[541,157],[346,-122]],[[30318,46588],[-282,-523],[76,-110],[-149,-463],[-331,-239],[957,-437]],[[30589,44816],[-734,-432],[-287,-367],[34,-1174],[3691,-1458],[-3854,-9187]],[[29439,32198],[-369,-864]],[[29070,31334],[-441,-1170]],[[28629,30164],[-7664,2406]],[[77670,56943],[143,-53],[309,200],[184,-73],[99,97],[321,5],[298,-57],[-81,-133],[462,-136],[155,76],[87,-105],[168,43],[-150,-366],[-950,-320]],[[78715,56121],[-58,-156],[-276,-119],[-1267,-1210],[14,-331],[-434,-391],[-7,-148]],[[76687,53766],[-604,32],[-91,-372],[-1959,-127],[-379,-428]],[[73654,52871],[-274,202],[-48,181],[-684,497],[432,-97],[-87,1589],[-2075,1224]],[[70918,56467],[-248,145],[158,174],[-468,53],[240,200],[-45,76],[237,90],[-103,113],[118,409]],[[70807,57727],[252,174],[966,156],[688,-238],[87,130],[350,-177],[288,21],[129,-189],[695,-186],[507,-299],[824,73],[93,-91],[293,-6],[98,-135],[713,59],[200,-124],[377,-34],[80,90],[223,-8]],[[57476,19112],[-82,-138],[-830,87],[-690,-191],[-137,62],[-225,-327],[-960,-52],[-298,-208]],[[54254,18345],[-205,231],[-311,100],[-1221,-217],[-42,271]],[[52475,18730],[112,767],[536,190],[1008,130],[-360,521],[-59,576],[403,437],[-163,311]],[[53952,21662],[118,127],[533,-665],[675,-192],[-223,-160],[-48,-226],[308,-126],[-35,-180],[618,-408],[164,430],[385,251]],[[56447,20513],[146,-383],[1039,-73],[-156,-945]],[[65728,53981],[-6,83]],[[65722,54064],[2118,562]],[[67840,54626],[62,-329],[721,-745],[-335,-99],[187,-713],[-75,-243],[231,-87]],[[68631,52410],[-17,-1]],[[68614,52409],[-646,-57],[-403,273],[-1766,428],[-71,928]],[[77774,41347],[1433,341],[168,-224],[267,-36],[118,-151],[440,327],[1621,-298]],[[81821,41306],[234,-74],[-798,-792],[-484,-907],[-199,-27]],[[80574,39506],[-757,302],[-2372,620],[329,919]],[[91123,44838],[-1759,-533]],[[89364,44305],[-344,646]],[[89020,44951],[205,447],[-201,190],[-109,771]],[[88915,46359],[666,363]],[[89581,46722],[856,-217],[529,-390]],[[90966,46115],[316,-222],[-343,-803],[184,-252]],[[72034,44087],[-695,699]],[[71339,44786],[-239,210],[1049,329],[468,455]],[[72617,45780],[1389,-186],[971,-570],[-124,-352],[304,-359],[-106,-95],[71,-326],[-166,-184],[-569,-43]],[[74387,43665],[-199,169]],[[74188,43834],[-745,637],[-1409,-384]]]}