{"type":"Topology","objects":{"data":{"geometries":[{"properties":{"cd_mun_ibge":"2500106"},"type":"MultiPolygon","arcs":[[[0,-162,-236,-128]]],"id":0},{"properties":{"cd_mun_ibge":"2500205"},"type":"MultiPolygon","arcs":[[[-80,-27,-133,-455,-470,-53,-228,-451]]],"id":1},{"properties":{"cd_mun_ibge":"2500304"},"type":"MultiPolygon","arcs":[[[-2,-9,-3,-223,-122,-155,-536,-194,-198]]],"id":2},{"properties":{"cd_mun_ibge":"2500403"},"type":"MultiPolygon","arcs":[[[-502,-111,-10,1,-201]]],"id":3},{"properties":{"cd_mun_ibge":"2500502"},"type":"MultiPolygon","arcs":[[[-8,-284,-88,-120,-218,2]]],"id":4},{"properties":{"cd_mun_ibge":"2500536"},"type":"MultiPolygon","arcs":[[[3,-16,-353,-14,-374]]],"id":5},{"properties":{"cd_mun_ibge":"2500577"},"type":"MultiPolygon","arcs":[[[-55,-6,-11,-340,-306,-15]]],"id":6},{"properties":{"cd_mun_ibge":"2500601"},"type":"MultiPolygon","arcs":[[[-266,-416,-75,-298,-33]]],"id":7},{"properties":{"cd_mun_ibge":"2500700"},"type":"MultiPolygon","arcs":[[[-49,-383,-623,-311,-625,-640,-574,-191,-231]]],"id":8},{"properties":{"cd_mun_ibge":"2500734"},"type":"MultiPolygon","arcs":[[[-319,-242,4,-581]]],"id":9},{"properties":{"cd_mun_ibge":"2500775"},"type":"MultiPolygon","arcs":[[[-438,-315,-434,-314,-448,-578]]],"id":10},{"properties":{"cd_mun_ibge":"2500809"},"type":"MultiPolygon","arcs":[[[-291,-545,-107,-91,-136,-89,-189,-220,-119]]],"id":11},{"properties":{"cd_mun_ibge":"2500908"},"type":"MultiPolygon","arcs":[[[5,-54,-555,-540,-286,-12]]],"id":12},{"properties":{"cd_mun_ibge":"2501005"},"type":"MultiPolygon","arcs":[[[-85,6,-589,-347,-105,-42]]],"id":13},{"properties":{"cd_mun_ibge":"2501104"},"type":"MultiPolygon","arcs":[[[-285,7,8,9,-113,-341,10,11]]],"id":14},{"properties":{"cd_mun_ibge":"2501153"},"type":"MultiPolygon","arcs":[[[-493,-389,-365,-598,-246]]],"id":15},{"properties":{"cd_mun_ibge":"2501203"},"type":"MultiPolygon","arcs":[[[-500,-212,-308,-112]]],"id":16},{"properties":{"cd_mun_ibge":"2501302"},"type":"MultiPolygon","arcs":[[[-333,-115,-140,-226,-632,-118]]],"id":17},{"properties":{"cd_mun_ibge":"2501351"},"type":"MultiPolygon","arcs":[[[-158,-614,-156,-600,-367]]],"id":18},{"properties":{"cd_mun_ibge":"2501401"},"type":"MultiPolygon","arcs":[[[-187,-359,-196,12]]],"id":19},{"properties":{"cd_mun_ibge":"2501500"},"type":"MultiPolygon","arcs":[[[-103,-594,-18,-295,-28,-559]]],"id":20},{"properties":{"cd_mun_ibge":"2501534"},"type":"MultiPolygon","arcs":[[[-83,-566,-262,-279]]],"id":21},{"properties":{"cd_mun_ibge":"2501575"},"type":"MultiPolygon","arcs":[[[-352,-24,-62,-335,-117,-375,13]]],"id":22},{"properties":{"cd_mun_ibge":"2501609"},"type":"MultiPolygon","arcs":[[[-56,14,-305,-240,-568,-87,-94]]],"id":23},{"properties":{"cd_mun_ibge":"2501708"},"type":"MultiPolygon","arcs":[[[-354,15,16,-51,-432,-35,-25]]],"id":24},{"properties":{"cd_mun_ibge":"2501807"},"type":"MultiPolygon","arcs":[[[-149,-413]]],"id":25},{"properties":{"cd_mun_ibge":"2501906"},"type":"MultiPolygon","arcs":[[[17,-593,-45,-527,-542,-296]]],"id":26},{"properties":{"cd_mun_ibge":"2502003"},"type":"MultiPolygon","arcs":[[[-30,-60,18,-480]]],"id":27},{"properties":{"cd_mun_ibge":"2502052"},"type":"MultiPolygon","arcs":[[[-620,19,-309,-402]]],"id":28},{"properties":{"cd_mun_ibge":"2502102"},"type":"MultiPolygon","arcs":[[[-256,-92,-102,-135]]],"id":29},{"properties":{"cd_mun_ibge":"2502151"},"type":"MultiPolygon","arcs":[[[-124,-562,-303,-50,-26,-36]]],"id":30},{"properties":{"cd_mun_ibge":"2502201"},"type":"MultiPolygon","arcs":[[[20,-381,-48,-41]]],"id":31},{"properties":{"cd_mun_ibge":"2502300"},"type":"MultiPolygon","arcs":[[[-379,21,-31,-146,-164]]],"id":32},{"properties":{"cd_mun_ibge":"2502409"},"type":"MultiPolygon","arcs":[[[22,-214,-531,-454,-66]]],"id":33},{"properties":{"cd_mun_ibge":"2502508"},"type":"MultiPolygon","arcs":[[[23,-351,24,-37,25,-63]]],"id":34},{"properties":{"cd_mun_ibge":"2502607"},"type":"MultiPolygon","arcs":[[[-134,26,-270]]],"id":35},{"properties":{"cd_mun_ibge":"2502706"},"type":"MultiPolygon","arcs":[[[-294,-541,-553,27]]],"id":36},{"properties":{"cd_mun_ibge":"2502805"},"type":"MultiPolygon","arcs":[[[-482,28,-426,-61,29]]],"id":37},{"properties":{"cd_mun_ibge":"2502904"},"type":"MultiPolygon","arcs":[[[-147,30,31,-58]]],"id":38},{"properties":{"cd_mun_ibge":"2503001"},"type":"MultiPolygon","arcs":[[[-267,32,-297,33]]],"id":39},{"properties":{"cd_mun_ibge":"2503100"},"type":"MultiPolygon","arcs":[[[34,-431,-441,35,36]]],"id":40},{"properties":{"cd_mun_ibge":"2503209"},"type":"MultiPolygon","arcs":[[[-150,-411,37]],[[38]]],"id":41},{"properties":{"cd_mun_ibge":"2503308"},"type":"MultiPolygon","arcs":[[[39,40,-47]]],"id":42},{"properties":{"cd_mun_ibge":"2503407"},"type":"MultiPolygon","arcs":[[[-248,-43,-610,-479,-250,-338]]],"id":43},{"properties":{"cd_mun_ibge":"2503506"},"type":"MultiPolygon","arcs":[[[-57,-96,-86,41,-104,-557]]],"id":44},{"properties":{"cd_mun_ibge":"2503555"},"type":"MultiPolygon","arcs":[[[-611,42,-247,-597,-97]]],"id":45},{"properties":{"cd_mun_ibge":"2503605"},"type":"MultiPolygon","arcs":[[[-174,43,-143,-166,-525,44,-592]]],"id":46},{"properties":{"cd_mun_ibge":"2503704"},"type":"MultiPolygon","arcs":[[[-230,-467,45,46,47,48]]],"id":47},{"properties":{"cd_mun_ibge":"2503753"},"type":"MultiPolygon","arcs":[[[-430,-69,-109,-312]]],"id":48},{"properties":{"cd_mun_ibge":"2503803"},"type":"MultiPolygon","arcs":[[[-190,-350,-549,-463,-123]]],"id":49},{"properties":{"cd_mun_ibge":"2503902"},"type":"MultiPolygon","arcs":[[[-506,-217,-586,-79,-445]]],"id":50},{"properties":{"cd_mun_ibge":"2504009"},"type":"MultiPolygon","arcs":[[[-192,-130,-114,-331,-64,49,-302,-329,-169]]],"id":51},{"properties":{"cd_mun_ibge":"2504033"},"type":"MultiPolygon","arcs":[[[-138,-180,-363,-407,-512,-90]]],"id":52},{"properties":{"cd_mun_ibge":"2504074"},"type":"MultiPolygon","arcs":[[[-77,-81,-443,-433,50,51]]],"id":53},{"properties":{"cd_mun_ibge":"2504108"},"type":"MultiPolygon","arcs":[[[52,-469,-229]]],"id":54},{"properties":{"cd_mun_ibge":"2504157"},"type":"MultiPolygon","arcs":[[[53,54,55,-93,56,-556]]],"id":55},{"properties":{"cd_mun_ibge":"2504207"},"type":"MultiPolygon","arcs":[[[-110,-68,-418,-177,-239]]],"id":56},{"properties":{"cd_mun_ibge":"2504306"},"type":"MultiPolygon","arcs":[[[-425,-356,-148,57,58,59,60]]],"id":57},{"properties":{"cd_mun_ibge":"2504355"},"type":"MultiPolygon","arcs":[[[61,62,63,-330]]],"id":58},{"properties":{"cd_mun_ibge":"2504405"},"type":"MultiPolygon","arcs":[[[64,65,-101,-125,-390,66,-385]]],"id":59},{"properties":{"cd_mun_ibge":"2504504"},"type":"MultiPolygon","arcs":[[[67,68,-429,-318,-255,-99,-179]]],"id":60},{"properties":{"cd_mun_ibge":"2504603"},"type":"MultiPolygon","arcs":[[[69]],[[70]],[[71]],[[72]],[[73]],[[74,-415,-152,75,-299]]],"id":61},{"properties":{"cd_mun_ibge":"2504702"},"type":"MultiPolygon","arcs":[[[-585,-521,-82,76,77,78]]],"id":62},{"properties":{"cd_mun_ibge":"2504801"},"type":"MultiPolygon","arcs":[[[-108,-271,79,-450,-313]]],"id":63},{"properties":{"cd_mun_ibge":"2504850"},"type":"MultiPolygon","arcs":[[[-520,-444,80,81]]],"id":64},{"properties":{"cd_mun_ibge":"2504900"},"type":"MultiPolygon","arcs":[[[-265,-497,-514,-406]]],"id":65},{"properties":{"cd_mun_ibge":"2505006"},"type":"MultiPolygon","arcs":[[[-263,-569,-241,-519]]],"id":66},{"properties":{"cd_mun_ibge":"2505105"},"type":"MultiPolygon","arcs":[[[82,-278,-232,83,84,85,-95,86,-567]]],"id":67},{"properties":{"cd_mun_ibge":"2505204"},"type":"MultiPolygon","arcs":[[[-287,-289,-121,87]]],"id":68},{"properties":{"cd_mun_ibge":"2505238"},"type":"MultiPolygon","arcs":[[[88,-139,89,-511]]],"id":69},{"properties":{"cd_mun_ibge":"2505279"},"type":"MultiPolygon","arcs":[[[-145,-182,-137,90,-106,-167,-343]]],"id":70},{"properties":{"cd_mun_ibge":"2505303"},"type":"MultiPolygon","arcs":[[[-259,-186,-393,-100,91]]],"id":71},{"properties":{"cd_mun_ibge":"2505352"},"type":"MultiPolygon","arcs":[[[92,93,94,95]]],"id":72},{"properties":{"cd_mun_ibge":"2505402"},"type":"MultiPolygon","arcs":[[[-612,96,-172,97]]],"id":73},{"properties":{"cd_mun_ibge":"2505501"},"type":"MultiPolygon","arcs":[[[-254,-458,-178,98]]],"id":74},{"properties":{"cd_mun_ibge":"2505600"},"type":"MultiPolygon","arcs":[[[99,-392,-126,100,-453,-132,101]]],"id":75},{"properties":{"cd_mun_ibge":"2505709"},"type":"MultiPolygon","arcs":[[[-587,102,-558,103,104,-346]]],"id":76},{"properties":{"cd_mun_ibge":"2505808"},"type":"MultiPolygon","arcs":[[[-526,-168,105,106,-544]]],"id":77},{"properties":{"cd_mun_ibge":"2505907"},"type":"MultiPolygon","arcs":[[[107,108,109,-238,-272]]],"id":78},{"properties":{"cd_mun_ibge":"2506004"},"type":"MultiPolygon","arcs":[[[110,-501,111,-307,-342,112]]],"id":79},{"properties":{"cd_mun_ibge":"2506103"},"type":"MultiPolygon","arcs":[[[-332,113,-129,-141,114]]],"id":80},{"properties":{"cd_mun_ibge":"2506202"},"type":"MultiPolygon","arcs":[[[-275,115]]],"id":81},{"properties":{"cd_mun_ibge":"2506251"},"type":"MultiPolygon","arcs":[[[-631,-376,116,-334,117]]],"id":82},{"properties":{"cd_mun_ibge":"2506301"},"type":"MultiPolygon","arcs":[[[-288,-292,118,-219,119,120]]],"id":83},{"properties":{"cd_mun_ibge":"2506400"},"type":"MultiPolygon","arcs":[[[-462,-210,-153,121,-222,122]]],"id":84},{"properties":{"cd_mun_ibge":"2506509"},"type":"MultiPolygon","arcs":[[[-563,123,-440,-245,-422,-157]]],"id":85},{"properties":{"cd_mun_ibge":"2506608"},"type":"MultiPolygon","arcs":[[[124,125,-391]]],"id":86},{"properties":{"cd_mun_ibge":"2506707"},"type":"MultiPolygon","arcs":[[[-205,126,127,-235,-176]]],"id":87},{"properties":{"cd_mun_ibge":"2506806"},"type":"MultiPolygon","arcs":[[[128,129,-349,-533,-154,-208,-142]]],"id":88},{"properties":{"cd_mun_ibge":"2506905"},"type":"MultiPolygon","arcs":[[[-283,-160,130,-372,-211,-465]]],"id":89},{"properties":{"cd_mun_ibge":"2507002"},"type":"MultiPolygon","arcs":[[[131,-452,132,133,-269,-397,-257,134]]],"id":90},{"properties":{"cd_mun_ibge":"2507101"},"type":"MultiPolygon","arcs":[[[135,136,-181,137,138]]],"id":91},{"properties":{"cd_mun_ibge":"2507200"},"type":"MultiPolygon","arcs":[[[-207,-370,-224,139,140,141]]],"id":92},{"properties":{"cd_mun_ibge":"2507309"},"type":"MultiPolygon","arcs":[[[142,143,-183,144,-345]]],"id":93},{"properties":{"cd_mun_ibge":"2507408"},"type":"MultiPolygon","arcs":[[[-165,145,146,147,-203]]],"id":94},{"properties":{"cd_mun_ibge":"2507507"},"type":"MultiPolygon","arcs":[[[-414,148,-412,149,150,151]]],"id":95},{"properties":{"cd_mun_ibge":"2507606"},"type":"MultiPolygon","arcs":[[[152,-209,153,-532,154]]],"id":96},{"properties":{"cd_mun_ibge":"2507705"},"type":"MultiPolygon","arcs":[[[155,-618,-516,-564,156,-421]]],"id":97},{"properties":{"cd_mun_ibge":"2507804"},"type":"MultiPolygon","arcs":[[[-615,157,-366,-387,-484,158]]],"id":98},{"properties":{"cd_mun_ibge":"2507903"},"type":"MultiPolygon","arcs":[[[159,-282,-495,-264,160]]],"id":99},{"properties":{"cd_mun_ibge":"2508000"},"type":"MultiPolygon","arcs":[[[-400,-237,161,162,-604]]],"id":100},{"properties":{"cd_mun_ibge":"2508109"},"type":"MultiPolygon","arcs":[[[-380,163,164,-202,-251,-316]]],"id":101},{"properties":{"cd_mun_ibge":"2508208"},"type":"MultiPolygon","arcs":[[[165,-344,166,167]]],"id":102},{"properties":{"cd_mun_ibge":"2508307"},"type":"MultiPolygon","arcs":[[[168,-328,-213,-504,-200,-193]]],"id":103},{"properties":{"cd_mun_ibge":"2508406"},"type":"MultiPolygon","arcs":[[[-638,169,-377,-575]]],"id":104},{"properties":{"cd_mun_ibge":"2508505"},"type":"MultiPolygon","arcs":[[[170,171,-596,-244,-488]]],"id":105},{"properties":{"cd_mun_ibge":"2508554"},"type":"MultiPolygon","arcs":[[[172,173,-591]]],"id":106},{"properties":{"cd_mun_ibge":"2508604"},"type":"MultiPolygon","arcs":[[[-409,-362,174]]],"id":107},{"properties":{"cd_mun_ibge":"2508703"},"type":"MultiPolygon","arcs":[[[-476,-608,-206,175,176,-417]]],"id":108},{"properties":{"cd_mun_ibge":"2508802"},"type":"MultiPolygon","arcs":[[[177,-457,-249,178]]],"id":109},{"properties":{"cd_mun_ibge":"2508901"},"type":"MultiPolygon","arcs":[[[179,180,181,182,183,-197,-364]]],"id":110},{"properties":{"cd_mun_ibge":"2509008"},"type":"MultiPolygon","arcs":[[[184,-394,185,-473]]],"id":111},{"properties":{"cd_mun_ibge":"2509057"},"type":"MultiPolygon","arcs":[[[-360,186,187]]],"id":112},{"properties":{"cd_mun_ibge":"2509107"},"type":"MultiPolygon","arcs":[[[-221,188,-510,189]]],"id":113},{"properties":{"cd_mun_ibge":"2509156"},"type":"MultiPolygon","arcs":[[[-573,-227,190]]],"id":114},{"properties":{"cd_mun_ibge":"2509206"},"type":"MultiPolygon","arcs":[[[-348,191,192,-199,193,-535]]],"id":115},{"properties":{"cd_mun_ibge":"2509305"},"type":"MultiPolygon","arcs":[[[194,195,-358,196]]],"id":116},{"properties":{"cd_mun_ibge":"2509339"},"type":"MultiPolygon","arcs":[[[197,198,199,-503,200]]],"id":117},{"properties":{"cd_mun_ibge":"2509370"},"type":"MultiPolygon","arcs":[[[-355,-252,201,202]]],"id":118},{"properties":{"cd_mun_ibge":"2509396"},"type":"MultiPolygon","arcs":[[[203,204,205,-607]]],"id":119},{"properties":{"cd_mun_ibge":"2509404"},"type":"MultiPolygon","arcs":[[[-371,206,207,208,209,-461,210]]],"id":120},{"properties":{"cd_mun_ibge":"2509503"},"type":"MultiPolygon","arcs":[[[-301,211,-499,212,-327]]],"id":121},{"properties":{"cd_mun_ibge":"2509602"},"type":"MultiPolygon","arcs":[[[-472,-528,213,214]]],"id":122},{"properties":{"cd_mun_ibge":"2509701"},"type":"MultiPolygon","arcs":[[[215,-320,-579,216,-505,-645]]],"id":123},{"properties":{"cd_mun_ibge":"2509800"},"type":"MultiPolygon","arcs":[[[217,218,219,220,221,222]]],"id":124},{"properties":{"cd_mun_ibge":"2509909"},"type":"MultiPolygon","arcs":[[[223,-369,224,-633,225]]],"id":125},{"properties":{"cd_mun_ibge":"2510006"},"type":"MultiPolygon","arcs":[[[226,-572,-447,227,228,-468,229,230]]],"id":126},{"properties":{"cd_mun_ibge":"2510105"},"type":"MultiPolygon","arcs":[[[231,-277,232]]],"id":127},{"properties":{"cd_mun_ibge":"2510204"},"type":"MultiPolygon","arcs":[[[-401,-602,-325,-258]]],"id":128},{"properties":{"cd_mun_ibge":"2510303"},"type":"MultiPolygon","arcs":[[[233,-281,-261]]],"id":129},{"properties":{"cd_mun_ibge":"2510402"},"type":"MultiPolygon","arcs":[[[234,235,236,-399,-273,237,238]]],"id":130},{"properties":{"cd_mun_ibge":"2510501"},"type":"MultiPolygon","arcs":[[[239,-304,-560,-515,240]]],"id":131},{"properties":{"cd_mun_ibge":"2510600"},"type":"MultiPolygon","arcs":[[[241,-322,242]]],"id":132},{"properties":{"cd_mun_ibge":"2510659"},"type":"MultiPolygon","arcs":[[[-486,243,-595,-420,244,-439,-523]]],"id":133},{"properties":{"cd_mun_ibge":"2510709"},"type":"MultiPolygon","arcs":[[[-337,245,246,247]]],"id":134},{"properties":{"cd_mun_ibge":"2510808"},"type":"MultiPolygon","arcs":[[[-478,-419,248,-456,-489,-336,249]]],"id":135},{"properties":{"cd_mun_ibge":"2510907"},"type":"MultiPolygon","arcs":[[[-317,250,251,-357,-423,252,-459,253,254]]],"id":136},{"properties":{"cd_mun_ibge":"2511004"},"type":"MultiPolygon","arcs":[[[255,256,-396,257,-324,258]]],"id":137},{"properties":{"cd_mun_ibge":"2511103"},"type":"MultiPolygon","arcs":[[[259,260,-280,261,-570,262,-518]]],"id":138},{"properties":{"cd_mun_ibge":"2511202"},"type":"MultiPolygon","arcs":[[[263,-498,264,-405,265,266,267]]],"id":139},{"properties":{"cd_mun_ibge":"2511301"},"type":"MultiPolygon","arcs":[[[-398,268,269,270,271,272]]],"id":140},{"properties":{"cd_mun_ibge":"2511400"},"type":"MultiPolygon","arcs":[[[273,274,275,276,277,278,279,280]]],"id":141},{"properties":{"cd_mun_ibge":"2511509"},"type":"MultiPolygon","arcs":[[[-496,281,282,-464,-547]]],"id":142},{"properties":{"cd_mun_ibge":"2511608"},"type":"MultiPolygon","arcs":[[[283,284,285,-539,-290,286]]],"id":143},{"properties":{"cd_mun_ibge":"2511707"},"type":"MultiPolygon","arcs":[[[-293,287,288,289,-538]]],"id":144},{"properties":{"cd_mun_ibge":"2511806"},"type":"MultiPolygon","arcs":[[[-546,290,291,292,-537,293,294,295]]],"id":145},{"properties":{"cd_mun_ibge":"2511905"},"type":"MultiPolygon","arcs":[[[296,297,298,299]]],"id":146},{"properties":{"cd_mun_ibge":"2512002"},"type":"MultiPolygon","arcs":[[[300,-326,301,302,-561,303,304,305,-339,306,307]]],"id":147},{"properties":{"cd_mun_ibge":"2512036"},"type":"MultiPolygon","arcs":[[[-628,-403,308,309]]],"id":148},{"properties":{"cd_mun_ibge":"2512077"},"type":"MultiPolygon","arcs":[[[-404,-626,310,-622]]],"id":149},{"properties":{"cd_mun_ibge":"2512101"},"type":"MultiPolygon","arcs":[[[311,312,-449,313,-435,314,-437,315,316,317,-428]]],"id":150},{"properties":{"cd_mun_ibge":"2512200"},"type":"MultiPolygon","arcs":[[[318,-580,319,320,321]]],"id":151},{"properties":{"cd_mun_ibge":"2512309"},"type":"MultiPolygon","arcs":[[[322,-474,323,324,-606]]],"id":152},{"properties":{"cd_mun_ibge":"2512408"},"type":"MultiPolygon","arcs":[[[325,326,327,328]]],"id":153},{"properties":{"cd_mun_ibge":"2512507"},"type":"MultiPolygon","arcs":[[[329,330,331,332,333,334]]],"id":154},{"properties":{"cd_mun_ibge":"2512606"},"type":"MultiPolygon","arcs":[[[335,-494,336,337]]],"id":155},{"properties":{"cd_mun_ibge":"2512705"},"type":"MultiPolygon","arcs":[[[338,339,340,341]]],"id":156},{"properties":{"cd_mun_ibge":"2512721"},"type":"MultiPolygon","arcs":[[[342,343,344]]],"id":157},{"properties":{"cd_mun_ibge":"2512747"},"type":"MultiPolygon","arcs":[[[-588,345,346]]],"id":158},{"properties":{"cd_mun_ibge":"2512754"},"type":"MultiPolygon","arcs":[[[347,-534,348]]],"id":159},{"properties":{"cd_mun_ibge":"2512762"},"type":"MultiPolygon","arcs":[[[349,-509,-550]]],"id":160},{"properties":{"cd_mun_ibge":"2512788"},"type":"MultiPolygon","arcs":[[[350,351,352,353]]],"id":161},{"properties":{"cd_mun_ibge":"2512804"},"type":"MultiPolygon","arcs":[[[354,355,-424,356]]],"id":162},{"properties":{"cd_mun_ibge":"2512903"},"type":"MultiPolygon","arcs":[[[357,358,359,360,361,-408,362,363]]],"id":163},{"properties":{"cd_mun_ibge":"2513000"},"type":"MultiPolygon","arcs":[[[-599,364,-388,365,366]]],"id":164},{"properties":{"cd_mun_ibge":"2513109"},"type":"MultiPolygon","arcs":[[[367,368,369,370,371]]],"id":165},{"properties":{"cd_mun_ibge":"2513158"},"type":"MultiPolygon","arcs":[[[372,373,374,375,-630]]],"id":166},{"properties":{"cd_mun_ibge":"2513208"},"type":"MultiPolygon","arcs":[[[376,377,378,379,-436,-576]]],"id":167},{"properties":{"cd_mun_ibge":"2513307"},"type":"MultiPolygon","arcs":[[[380,381,-624,382]]],"id":168},{"properties":{"cd_mun_ibge":"2513356"},"type":"MultiPolygon","arcs":[[[383,384]]],"id":169},{"properties":{"cd_mun_ibge":"2513406"},"type":"MultiPolygon","arcs":[[[-637,385,-485,386,387,388,-492]]],"id":170},{"properties":{"cd_mun_ibge":"2513505"},"type":"MultiPolygon","arcs":[[[389,390,391,392,393,394]]],"id":171},{"properties":{"cd_mun_ibge":"2513604"},"type":"MultiPolygon","arcs":[[[395,396,397,398,399,-603,400]]],"id":172},{"properties":{"cd_mun_ibge":"2513653"},"type":"MultiPolygon","arcs":[[[401,402,-627,403,-621]]],"id":173},{"properties":{"cd_mun_ibge":"2513703"},"type":"MultiPolygon","arcs":[[[404,405,-513,406,407,408,409,410,411,412,413,414,415]]],"id":174},{"properties":{"cd_mun_ibge":"2513802"},"type":"MultiPolygon","arcs":[[[-477,416,417,418]]],"id":175},{"properties":{"cd_mun_ibge":"2513851"},"type":"MultiPolygon","arcs":[[[419,-601,420,421]]],"id":176},{"properties":{"cd_mun_ibge":"2513901"},"type":"MultiPolygon","arcs":[[[422,423,424,425,426]]],"id":177},{"properties":{"cd_mun_ibge":"2513927"},"type":"MultiPolygon","arcs":[[[427,428,429]]],"id":178},{"properties":{"cd_mun_ibge":"2513943"},"type":"MultiPolygon","arcs":[[[430,431,432,-442]]],"id":179},{"properties":{"cd_mun_ibge":"2513968"},"type":"MultiPolygon","arcs":[[[433,434]]],"id":180},{"properties":{"cd_mun_ibge":"2513984"},"type":"MultiPolygon","arcs":[[[435,436,437,-577]]],"id":181},{"properties":{"cd_mun_ibge":"2514008"},"type":"MultiPolygon","arcs":[[[438,439,440,441,442,443,-524]]],"id":182},{"properties":{"cd_mun_ibge":"2514107"},"type":"MultiPolygon","arcs":[[[-507,444,445]]],"id":183},{"properties":{"cd_mun_ibge":"2514206"},"type":"MultiPolygon","arcs":[[[446,-571,447,448,449,450]]],"id":184},{"properties":{"cd_mun_ibge":"2514305"},"type":"MultiPolygon","arcs":[[[451,452,453,-530,-471,454]]],"id":185},{"properties":{"cd_mun_ibge":"2514404"},"type":"MultiPolygon","arcs":[[[-490,455,456,457,458,459]]],"id":186},{"properties":{"cd_mun_ibge":"2514453"},"type":"MultiPolygon","arcs":[[[460,461,462,-548,463,464]]],"id":187},{"properties":{"cd_mun_ibge":"2514503"},"type":"MultiPolygon","arcs":[[[465,466,467,468,469,470,-529,471]]],"id":188},{"properties":{"cd_mun_ibge":"2514552"},"type":"MultiPolygon","arcs":[[[472,473,474]]],"id":189},{"properties":{"cd_mun_ibge":"2514602"},"type":"MultiPolygon","arcs":[[[-609,475,476,477,478]]],"id":190},{"properties":{"cd_mun_ibge":"2514651"},"type":"MultiPolygon","arcs":[[[479,480,481]]],"id":191},{"properties":{"cd_mun_ibge":"2514701"},"type":"MultiPolygon","arcs":[[[482,483,484]]],"id":192},{"properties":{"cd_mun_ibge":"2514800"},"type":"MultiPolygon","arcs":[[[485,-522,-583,486,487]]],"id":193},{"properties":{"cd_mun_ibge":"2514909"},"type":"MultiPolygon","arcs":[[[488,489,490,-635,491,492,493]]],"id":194},{"properties":{"cd_mun_ibge":"2515005"},"type":"MultiPolygon","arcs":[[[494,495,-552,496,497]]],"id":195},{"properties":{"cd_mun_ibge":"2515104"},"type":"MultiPolygon","arcs":[[[498,499,500,501,502,503]]],"id":196},{"properties":{"cd_mun_ibge":"2515203"},"type":"MultiPolygon","arcs":[[[-643,504,505,506,507]]],"id":197},{"properties":{"cd_mun_ibge":"2515302"},"type":"MultiPolygon","arcs":[[[508,509,510,511,512,513,-551]]],"id":198},{"properties":{"cd_mun_ibge":"2515401"},"type":"MultiPolygon","arcs":[[[514,-565,515,-617,516,517,518]]],"id":199},{"properties":{"cd_mun_ibge":"2515500"},"type":"MultiPolygon","arcs":[[[519,520,-584,521,522,523]]],"id":200},{"properties":{"cd_mun_ibge":"2515609"},"type":"MultiPolygon","arcs":[[[524,525,-543,526]]],"id":201},{"properties":{"cd_mun_ibge":"2515708"},"type":"MultiPolygon","arcs":[[[527,528,529,530]]],"id":202},{"properties":{"cd_mun_ibge":"2515807"},"type":"MultiPolygon","arcs":[[[531,532,533,534,535]]],"id":203},{"properties":{"cd_mun_ibge":"2515906"},"type":"MultiPolygon","arcs":[[[536,537,538,539,-554,540]]],"id":204},{"properties":{"cd_mun_ibge":"2515930"},"type":"MultiPolygon","arcs":[[[541,542,543,544,545]]],"id":205},{"properties":{"cd_mun_ibge":"2515971"},"type":"MultiPolygon","arcs":[[[546,547,548,549,550,551]]],"id":206},{"properties":{"cd_mun_ibge":"2516003"},"type":"MultiPolygon","arcs":[[[552,553,554,555,556,557,558]]],"id":207},{"properties":{"cd_mun_ibge":"2516102"},"type":"MultiPolygon","arcs":[[[559,560,561,562,563,564]]],"id":208},{"properties":{"cd_mun_ibge":"2516151"},"type":"MultiPolygon","arcs":[[[565,566,567,568,569]]],"id":209},{"properties":{"cd_mun_ibge":"2516201"},"type":"MultiPolygon","arcs":[[[570,571,572,573,-639,574,575,576,577]]],"id":210},{"properties":{"cd_mun_ibge":"2516300"},"type":"MultiPolygon","arcs":[[[578,579,580,581,582,583,584,585]]],"id":211},{"properties":{"cd_mun_ibge":"2516409"},"type":"MultiPolygon","arcs":[[[586,587,588,589,590,591,592,593]]],"id":212},{"properties":{"cd_mun_ibge":"2516508"},"type":"MultiPolygon","arcs":[[[594,595,596,597,598,599,600]]],"id":213},{"properties":{"cd_mun_ibge":"2516607"},"type":"MultiPolygon","arcs":[[[601,602,603,604,605]]],"id":214},{"properties":{"cd_mun_ibge":"2516706"},"type":"MultiPolygon","arcs":[[[606,607,608,609,610,611,612]]],"id":215},{"properties":{"cd_mun_ibge":"2516755"},"type":"MultiPolygon","arcs":[[[613,614,615,616,617]]],"id":216},{"properties":{"cd_mun_ibge":"2516805"},"type":"MultiPolygon","arcs":[[[618,619,620,621,622,623]]],"id":217},{"properties":{"cd_mun_ibge":"2516904"},"type":"MultiPolygon","arcs":[[[624,625,626,627,628,-641]]],"id":218},{"properties":{"cd_mun_ibge":"2517001"},"type":"MultiPolygon","arcs":[[[629,630,631,632,633]]],"id":219},{"properties":{"cd_mun_ibge":"2517100"},"type":"MultiPolygon","arcs":[[[634,635,636]]],"id":220},{"properties":{"cd_mun_ibge":"2517209"},"type":"MultiPolygon","arcs":[[[637,638,639,640,641]]],"id":221},{"properties":{"cd_mun_ibge":"2517407"},"type":"MultiPolygon","arcs":[[[642,643,644]]],"id":222}],"type":"GeometryCollection"}},"bbox":[-38.7656034,-8.3029551,-34.79316197789658,-6.0265699661428656],"transform":{"scale":[3.9724811469148916e-05,2.2764078979361138e-05],"translate":[-38.7656034,-8.3029551]},"arcs":[[[30052,35752],[-956,-832],[-155,-743],[-364,-332],[-734,411],[-569,-1108],[-613,-97],[-27,-929],[-533,-352],[-156,-768]],[[77478,55927],[202,-657],[-803,-1934]],[[81854,55882],[-210,79],[-1317,3033],[-339,-196],[-129,662]],[[69076,21645],[-514,726],[-299,-336],[-452,928],[-1384,-175]],[[42450,34544],[1361,874]],[[74576,63128],[-174,96]],[[72883,79701],[3862,709],[880,1079],[267,-167],[282,284],[588,-401]],[[80091,60679],[318,-844],[-550,-375]],[[79859,59460],[-244,-434],[118,-378],[-395,-371],[-211,193],[-180,-654],[-923,55],[193,-984],[-318,-96],[-140,-785],[-281,-79]],[[77478,55927],[-1154,396],[-745,-555],[-432,309]],[[74468,62786],[108,342]],[[74576,63128],[852,-564],[622,176],[107,-483],[1556,-230],[727,-863]],[[95674,74679],[251,-2836],[617,-929],[-25,-1425]],[[70720,28545],[-212,129],[-158,1201],[-636,1473],[-504,77],[-49,-328],[-325,484],[-640,-271],[24,-533],[-201,-256],[-206,183]],[[72188,66287],[-478,-75],[-216,-1045],[-1179,-1586],[-1577,-1045],[-1911,-2328]],[[66433,23362],[-6,-574]],[[66427,22788],[-1867,-250],[-139,858],[-255,275],[-891,-1232],[-58,-419],[302,-248],[58,-454],[-537,-633],[-1203,1116],[-2273,-165]],[[81684,67852],[-728,2088],[475,1580],[109,1303]],[[28933,93426],[1174,912],[225,-400],[521,-61],[91,575],[843,31],[-13,340],[513,-320],[606,293],[333,1441],[1311,124],[284,1047],[703,-41],[469,836],[951,786],[279,-370],[364,100],[470,1280],[552,-45],[231,-639],[460,175],[255,-434],[513,1],[179,-2663],[-209,-1474],[220,-515],[238,63],[-436,-1214],[-471,-130],[-218,-994],[-806,-327]],[[3990,77905],[-227,60],[96,657],[920,1548],[150,1014],[790,1476]],[[2364,63952],[96,840],[801,1039],[-71,531],[542,-67],[86,500]],[[18599,80311],[353,284],[-182,979],[296,607],[-138,209],[871,32],[262,349],[17,599],[318,303],[330,-1135],[408,128],[167,417]],[[5443,42521],[-25,858],[397,952],[-190,1226],[-250,102],[-59,514]],[[68376,35993],[-387,-1892],[-789,-662],[-4,-419],[-485,-851],[550,-470],[-43,-489],[216,-356]],[[64829,29056],[-191,-133],[-150,1283],[-375,764],[205,431],[-364,1260],[85,662]],[[66024,41609],[477,-270]],[[14934,50155],[-1329,279],[-188,945],[1145,815],[178,-179],[93,480],[446,19],[399,858],[1147,94],[170,-382],[263,535],[167,-387],[384,114]],[[78576,67122],[1939,-755],[210,594],[717,330]],[[36039,87621],[-820,-757],[-561,-2873]],[[29013,89200],[1248,1309],[1972,4]],[[22689,81405],[-1388,1678]],[[21301,83083],[835,643],[-50,1434],[715,-462],[461,521],[-65,381],[248,526],[-225,408]],[[95934,39403],[949,-1617],[791,-753],[657,235],[17,500],[202,151]],[[98472,33531],[-425,-417],[-454,582],[-171,-403],[-150,348],[-314,-294],[-471,673],[-708,-450],[-613,1702]],[[64039,33323],[-252,554],[-413,209],[-351,-1080],[-974,-1274],[283,-242],[-320,-471]],[[61288,43710],[-372,-2608],[1606,-83],[232,475],[508,-211],[298,342],[173,-228],[-112,-309],[312,-90],[383,651],[209,-357],[667,691],[643,114],[189,-488]],[[66024,41609],[-81,-1570],[-718,477],[-69,-570],[-434,-145],[3,-1219],[-569,-895],[-117,-4364]],[[98343,55934],[569,939],[54,908],[-225,1110],[291,-126],[156,-1770],[-428,-2217]],[[98312,58002],[327,-53],[-298,-1386],[-225,1200],[196,239]],[[2311,55207],[-403,263],[-128,584],[-1765,1451],[573,862],[-119,602],[-469,488],[261,454],[-225,1312],[853,547],[-54,333],[464,136],[92,505],[776,433],[197,775]],[[2364,63952],[628,-1373]],[[72961,77237],[1966,-1777],[1213,-539],[223,-939]],[[40028,47202],[158,1393],[631,224],[1093,1105],[275,-110]],[[84528,79659],[1088,-986]],[[84170,71838],[-2239,877]],[[2410,55142],[-99,65]],[[2311,55207],[169,1326],[545,1391],[262,2927],[-295,1728]],[[2992,62579],[241,1152],[308,496],[302,-7],[-99,303],[283,887],[874,705]],[[4901,66115],[3787,-1015],[-192,-4828]],[[66501,41339],[207,4427],[630,2628],[-106,2069]],[[58395,27716],[944,-4016],[225,-2064]],[[59564,21636],[-720,-403],[-26,-2084],[-285,-492],[269,-365],[-363,-1262],[-503,-3],[-404,-413],[-200,412],[-284,-217],[-933,822]],[[11962,56309],[-303,-1143],[-787,-774],[119,-425],[319,-99],[-138,-1153],[-540,-84]],[[75086,64917],[-272,-486],[-438,-139],[26,-1068]],[[74402,63224],[-455,238],[-1501,2768],[-258,57]],[[72188,66287],[-223,441],[267,1569],[-686,787],[-17,410]],[[72993,71326],[456,-169],[-60,643],[382,22],[154,-359],[1228,-629]],[[23895,81472],[525,3636],[-386,775],[-814,651]],[[23220,86534],[716,788],[-234,401],[343,631],[1328,39],[-346,778],[274,833],[-405,361],[377,421],[-352,218],[567,742],[-37,626],[221,402],[926,617],[272,-422],[884,-194],[1179,651]],[[28933,93426],[-18,-2389],[-179,-706],[277,-1131]],[[29013,89200],[61,-536],[347,-318],[-304,-882],[162,-2920],[588,-1253],[45,-659]],[[69388,37312],[-1012,-1319]],[[68376,35993],[-1349,1579],[124,2421],[-604,754],[-46,592]],[[66501,41339],[2150,-194],[643,-913],[274,145]],[[2080,31814],[696,580],[17,1903],[606,1681],[-361,1051],[1047,107],[-62,572],[516,428],[20,812],[-273,213],[1157,3360]],[[5443,42521],[595,-592],[25,-671],[450,49],[95,-542],[590,-328],[647,990],[295,27],[234,843],[482,-31]],[[8342,25589],[-576,103]],[[31354,57165],[-1809,281],[-167,-231],[-741,417],[-1298,-1121]],[[27339,56511],[61,2008],[-422,468]],[[99881,41286],[-8,6],[4,9],[6,-8],[-2,-7]],[[99851,41311],[3,8],[5,-5],[-6,-4],[-2,1]],[[99855,41394],[-3,5],[3,3],[3,-6],[-3,-2]],[[99928,41898],[12,27],[-13,-69],[-3,15],[4,27]],[[99887,41918],[8,10],[4,-3],[-5,-11],[-7,4]],[[98381,42185],[-1541,1721],[64,826],[-186,531],[-369,-60],[121,952],[-248,161]],[[99680,46497],[173,-1468],[-91,-1564],[203,-854],[-207,-2415]],[[54038,26213],[135,-1457],[-176,-654],[1266,-2085],[399,-277],[-335,-2288],[788,-1821]],[[56115,17631],[-888,-127],[-163,-472],[141,-911]],[[55205,16121],[-1150,1686],[-861,785],[-659,1511],[-344,279],[-869,2770]],[[17809,53346],[-780,3374]],[[54816,29335],[846,-1091],[320,-859],[-292,-147],[31,-293],[-709,-982],[68,-271],[-883,688],[-159,-167]],[[54038,26213],[-662,955],[-305,-53]],[[63527,72953],[258,2004]],[[65227,82243],[1618,70],[818,1058],[99,-430],[303,204],[630,-1495],[590,-473],[9,-780],[341,-472],[1389,-416],[1859,192]],[[72883,79701],[78,-2464]],[[72961,77237],[-245,-1453]],[[70439,75469],[-1388,-2017],[-2106,-1659]],[[82926,60587],[-1509,46],[-845,603]],[[88158,59164],[-635,669],[-364,2553],[-350,674],[-7,288],[520,408]],[[88987,62957],[175,-844],[814,-1422],[422,-298],[-64,-1024]],[[86000,67126],[-215,741],[-319,99]],[[12820,35792],[657,15],[1797,977],[248,-940],[1233,273]],[[72993,71326],[-165,-518],[-544,-49],[-91,-605],[-664,-660]],[[71529,69494],[-362,209],[-244,817],[-823,-239],[-636,1346],[26,983],[502,960],[447,1899]],[[70439,75469],[2239,970],[38,-655]],[[72716,75784],[277,-4458]],[[40839,46416],[1682,533],[616,-980],[939,334]],[[43107,40566],[-358,-170],[-459,1104],[-1250,509],[-243,510],[-513,-68],[-292,1188]],[[29955,65492],[-619,592],[-68,3011],[-650,-128],[-263,362]],[[12820,35792],[319,-1308],[296,-404],[-13,-413],[-331,-360],[-54,-1075]],[[9187,38608],[105,656],[-351,421],[205,1041],[-291,147],[174,1062],[-173,331]],[[12907,39979],[265,-1356],[-473,-1583],[121,-1248]],[[81188,74970],[-87,-734],[-376,566],[-269,-401],[-185,163],[-888,-2144],[-370,-89],[-918,941],[-510,-1076]],[[76113,71444],[-619,2198],[337,46],[258,563],[274,-269]],[[76363,73982],[328,699],[749,530]],[[86018,68226],[-552,-260]],[[85466,67966],[-92,-60]],[[23810,52942],[-73,1647],[-1176,1926]],[[22561,56515],[3302,-293],[1476,289]],[[27339,56511],[328,-6089],[-937,-899]],[[75147,56077],[-440,68],[-243,-331],[-771,382],[-31,-585],[-397,-624]],[[72203,53739],[-176,542],[89,1004],[-314,700],[-354,518],[-737,-28]],[[75236,56306],[-89,-229]],[[73686,42690],[989,555],[1138,-400],[396,444],[71,-279]],[[75769,36489],[-385,-434],[-204,519],[-189,-219],[-55,468],[-463,-318],[42,365],[-493,183]],[[57497,78295],[-1115,856],[-126,1288],[48,1252],[540,1899],[192,1842],[1693,-216],[958,3036],[804,-703],[469,327]],[[72928,28123],[63,1085],[-347,1014],[120,448],[223,30],[-9,670],[1119,990],[-906,855],[-671,189],[229,949],[-157,310],[170,95]],[[74011,37042],[-160,-318],[46,-1125],[341,-1345],[1790,-2668],[-38,-309],[442,-733],[-108,-1025],[561,-483]],[[83099,65477],[150,-477],[1010,429],[-7,-858],[334,4],[51,-655],[338,-4],[240,-3712]],[[83231,58851],[-305,1736]],[[82926,60587],[-258,250],[8,683],[-461,1009],[-647,562],[-238,-221]],[[81384,51931],[241,662],[728,546],[65,933]],[[85298,55802],[38,-1943],[314,-47],[270,-735],[-213,-393],[275,-599],[235,-17],[-344,-634],[-64,-988],[207,-1755]],[[61410,48947],[-122,-5237]],[[8225,31287],[-148,385],[301,130],[242,1248],[-686,650],[-1016,344],[368,455],[-383,3495],[2284,614]],[[9187,38608],[1149,105],[119,-544],[887,-1004],[-317,-1322],[351,-596],[94,-803]],[[34736,41568],[-749,-221],[-335,402],[-254,-322],[-1439,-216],[229,-1328],[-722,-1428],[-311,-1658],[-1103,-1045]],[[30052,35752],[59,1503],[-659,1673],[-336,314],[-189,-243],[-747,229],[-628,1430],[-825,134],[-61,-538],[-376,154]],[[77090,42414],[-1004,-168],[194,764]],[[76280,43010],[782,2802]],[[87739,40208],[-726,-940],[-654,99],[38,-701],[-475,16],[67,-721],[-332,-175]],[[12907,39979],[-846,1541],[-228,-60],[-300,762],[-367,73],[-14,443]],[[12271,49417],[1141,778],[174,-321],[425,99],[242,-433],[681,615]],[[14934,50155],[369,-1267],[50,-1401],[1619,-573]],[[15728,39801],[-851,1270],[-924,-477],[-484,857],[-562,-1472]],[[87322,63756],[-248,907],[-518,246],[284,1588],[-490,621],[-350,8]],[[86000,67126],[1564,994],[320,-383],[860,407],[236,-415]],[[90682,63800],[-486,152],[-299,-362],[-165,262],[-745,-895]],[[88987,62957],[-225,-123],[-51,447],[-636,670],[-346,-356],[-407,161]],[[80092,37443],[-1203,-12],[-884,-673],[-200,252],[-312,-745],[-282,369],[-538,-249],[-86,402],[-279,-422],[-70,297],[-469,-173]],[[75769,36489],[1321,5925]],[[77090,42414],[1559,-222],[110,515],[457,-92],[2057,-2323]],[[86520,73857],[66,863],[-271,582],[-291,-440],[-1030,-221],[-159,1794],[781,2238]],[[85616,78673],[850,-1419],[1415,20],[1062,532],[239,687],[392,-1212],[334,-290]],[[89061,70919],[-384,-322]],[[21734,77377],[955,4028]],[[22689,81405],[527,441],[679,-374]],[[23895,81472],[474,-684],[649,375],[498,-234],[484,-1165]],[[96400,49919],[500,10],[164,677],[-241,709],[635,575],[67,1225]],[[98231,54568],[160,-187],[-219,-725],[166,-607],[343,-176],[-99,1662],[178,243]],[[98760,54778],[319,-814],[-82,-953],[294,-672],[65,-1083],[643,-808],[-319,-3951]],[[99680,46497],[-44,368],[-444,37],[55,242],[-682,-231],[-995,906],[-570,65],[-432,-554]],[[81384,51931],[308,-787],[-178,-559],[-323,-155],[635,-2137]],[[81127,48392],[-830,654],[-494,-664],[-517,988],[273,425]],[[78992,51418],[2392,513]],[[52992,51552],[-273,1272],[158,192],[-73,764],[264,201],[-186,122],[216,921],[-487,1518]],[[57408,48948],[-1973,288]],[[51971,56898],[-620,49],[-471,-992]],[[50488,60991],[-126,-1129],[525,-1209],[644,-657],[737,2450],[866,-56]],[[87739,40208],[-149,400],[378,641]],[[90921,39997],[-460,194],[-470,-433],[-222,447],[-1235,569],[-795,-566]],[[26203,40233],[-34,-2278],[621,-949],[-723,-3563],[-519,-681],[397,-1760]],[[25945,31002],[-526,-980],[63,-275]],[[19759,77901],[1005,216],[970,-740]],[[21734,77377],[955,-132],[920,-625],[-89,-1448],[722,-143]],[[84357,71463],[895,1293],[-2,708],[469,-79],[55,721],[746,-249]],[[86734,70036],[-256,320],[-225,-294],[-235,-1836]],[[86018,68226],[-519,1157],[-767,555],[-375,1525]],[[73780,48646],[-211,167],[-577,-722],[-465,1622],[-319,133],[-255,-503]],[[13507,79933],[717,-216],[330,-480],[996,339],[311,-1186],[386,-171]],[[44101,39499],[-300,780],[-694,287]],[[43107,40566],[650,4064],[386,155],[-67,1518]],[[83663,79791],[865,-132]],[[84528,79659],[79,-1610],[-629,-4013],[-360,-557],[-259,788]],[[97342,63128],[474,-1088],[653,-437],[-309,-1441],[284,-1578],[-357,-386]],[[34452,43696],[-190,593],[-357,-301],[-371,-991],[-569,532],[-2865,-184]],[[30100,43345],[731,1140],[418,176],[79,1100],[459,560],[218,936]],[[29955,65492],[540,511],[12,1101]],[[31354,57165],[-624,1436],[129,962],[-398,133],[-372,739],[277,46],[-30,256],[-373,153],[120,580],[-305,2365],[105,471],[87,-221],[-15,1407]],[[91687,61813],[-871,82],[-134,1905]],[[90682,63800],[-1702,3929]],[[88980,67729],[277,420],[116,1706],[-312,1064]],[[89061,70919],[404,693],[227,-113],[508,596],[1075,236],[-1565,2589],[198,2071]],[[89908,76991],[597,-354],[626,249],[553,1004],[275,1087]],[[15964,22281],[-310,542],[-515,154],[-1872,-2232],[-664,120],[-264,-275],[-562,892],[-52,2229],[-426,-62],[367,852],[-219,270]],[[14651,30279],[1050,167],[-162,418],[1118,1310]],[[94112,70057],[674,125],[1731,-693]],[[96517,69489],[91,-838],[-317,-606],[395,-598]],[[86850,57828],[1308,1336]],[[87527,52428],[-663,-384],[20,350],[-218,13],[35,366],[-1403,3029]],[[10411,62232],[-668,1726],[671,2599],[-44,700]],[[77062,45812],[-684,-767],[-516,226],[-405,-418],[-1838,1381],[673,1908],[-512,504]],[[73780,48646],[318,391],[-63,561],[969,996]],[[77009,52679],[727,-1865]],[[91959,78977],[428,327],[952,-1323],[735,978],[918,177],[530,707],[152,-5164]],[[95674,74679],[-536,337],[-470,-132]],[[92579,73702],[-443,840],[55,821],[-649,4],[-173,344],[55,949],[410,709],[125,1608]],[[76877,53336],[132,-657]],[[77009,52679],[-2005,-2085]],[[75004,50594],[83,649],[-695,464],[-311,-362],[-118,411]],[[74335,52740],[1445,-270],[1097,866]],[[24608,74900],[-366,129]],[[24242,75029],[233,1493],[720,259],[301,2190],[281,784],[223,9]],[[36542,44526],[-469,-16],[-614,-1373],[189,-705],[-912,-864]],[[34736,41568],[-284,2128]],[[34452,43696],[422,605],[-697,1199],[927,1111],[363,-37],[77,371],[490,271]],[[81344,39921],[-71,371]],[[81273,40292],[-613,3693],[220,2581],[341,295],[-94,1531]],[[81127,48392],[699,-99]],[[81826,48293],[591,-107],[190,-1278],[909,-949]],[[84159,45257],[558,-1963],[-806,-34]],[[70438,54120],[1746,-417]],[[72258,53479],[-401,-727],[-487,-233]],[[9050,48184],[-638,-924],[-599,674],[-130,831],[-273,-306],[-50,-729],[-658,-43],[-808,-586],[-578,-928]],[[5316,46173],[-82,548],[-942,-313],[-139,516],[-371,201],[-164,1609],[-369,-8],[-193,439]],[[40681,12266],[-205,1034],[-882,730],[2,1009],[-384,384],[-327,-351],[33,-568],[-1455,35],[-458,310],[-1113,-653],[-442,213],[188,1243],[812,171],[218,377],[25,843],[-357,197],[875,291],[1076,1273],[-63,1234],[631,200],[-151,927],[-392,95],[1312,1222],[526,-398],[471,896]],[[45430,20736],[753,-1780],[47,-7270]],[[81854,55882],[1377,2969]],[[83231,58851],[450,841],[362,32],[146,500],[1026,-20]],[[85215,60204],[945,-426],[30,-517],[660,-1433]],[[86850,57828],[-1073,-166],[-479,-1860]],[[85298,55802],[-426,-542],[-578,79],[-886,-1349],[-990,82]],[[82418,54072],[-213,806],[157,741],[-508,263]],[[80092,37443],[416,494],[326,-205],[213,447]],[[82333,35980],[-1081,-4407],[252,-263],[319,228],[-73,-941],[-342,-669],[406,-984],[-875,-752],[-941,482],[-801,-540]],[[78264,30139],[968,464],[152,-475],[417,-95],[147,390],[-259,946],[-26,1485],[210,804],[219,3785]],[[10411,62232],[685,476]],[[12624,57566],[-662,-1257]],[[11962,56309],[-598,-90],[-568,1335],[-597,128]],[[9533,57756],[-924,944],[-113,1572]],[[8496,60272],[1113,116],[130,558],[228,-224],[444,1510]],[[65227,82243],[-151,-1726],[-1123,-3923]],[[63916,82100],[1311,143]],[[56189,68945],[-269,100],[-370,971],[289,613],[664,3602],[-88,593],[417,185],[868,-833],[326,-878],[281,448],[281,-224]],[[30100,43345],[-431,-759],[-2371,451],[-470,-627],[-296,-1368],[-692,21],[79,-476],[371,-179]],[[26290,40408],[-87,-175]],[[26203,40233],[-556,-491],[-347,281],[-305,-461],[-239,621],[-914,-1026],[-558,-226]],[[24914,50985],[541,48],[297,-1441],[978,-69]],[[26730,49523],[652,77],[238,-1296],[-148,-562],[362,-785],[284,53],[412,-540],[242,-835],[678,-305],[650,-1985]],[[63052,64407],[1379,-2954],[1164,-1847]],[[61332,60087],[617,-247],[1103,4567]],[[42450,34544],[-205,-261],[79,-926],[-395,-2449]],[[40392,26576],[-858,2017],[-39,987],[833,2411],[1059,1695],[1063,858]],[[50055,43169],[267,632]],[[55627,43134],[-484,-117],[-198,-600],[-579,-227],[123,-424]],[[44268,54967],[356,-2981],[-299,-467],[273,-1614],[-662,-1057]],[[43936,48848],[-860,1518],[-372,3],[-519,-555]],[[42185,49814],[-189,2219],[274,433]],[[31354,57165],[191,400],[-303,200],[64,674],[371,582],[400,22],[241,-526],[707,432],[-418,602],[68,552],[-367,835]],[[39688,54653],[-1085,-1273],[-330,-977]],[[24734,72977],[-126,1923]],[[24608,74900],[184,-316],[660,396],[12,516],[280,291],[642,0],[21,738],[633,121],[-154,508],[843,-71]],[[32747,77767],[-463,-780],[209,-616],[-60,-3403],[277,-793],[-466,-2200]],[[31365,69945],[-3010,-616]],[[28355,69329],[-457,125]],[[16755,36117],[-512,2450],[-515,1234]],[[15728,39801],[1785,1753]],[[17259,40124],[812,-2281],[-83,-1420],[382,-1312],[-262,-447]],[[16657,32174],[760,1863],[-662,2080]],[[55933,64174],[365,733],[484,328],[218,1773],[-87,1038],[-724,899]],[[56189,68945],[175,406],[941,-76],[782,345],[1148,-989],[267,-696],[850,798],[620,-170],[152,1400],[597,560],[136,534],[681,297]],[[62855,70781],[466,278]],[[63096,65602],[-681,39],[-857,886],[-233,-373],[-306,48],[-286,-773],[-759,-657],[-294,-911],[-257,149],[6,-447]],[[90921,39997],[104,905],[-503,880],[-294,0],[-410,1450],[102,335]],[[91065,48211],[629,-981],[1405,-31]],[[93695,44974],[2201,-3124],[-279,-750],[368,-941],[-51,-756]],[[95934,39403],[-564,-1416],[-204,-2715]],[[95166,35272],[-7,1670],[-2137,2773],[-948,-292],[-1153,574]],[[17951,43281],[-841,1019],[-138,2614]],[[16972,46914],[148,754],[663,-147],[171,571],[42,927],[-687,2106],[378,887],[122,1334]],[[17809,53346],[227,-1586],[598,-1037],[-199,-853],[299,-665],[257,409],[563,88],[413,2795],[532,327],[85,484],[1605,262],[634,-502],[987,-126]],[[23810,52942],[490,-1470],[227,375],[387,-862]],[[24914,50985],[-817,-715],[-451,-3105],[-1875,-3381]],[[58588,73522],[-131,3014],[-811,692],[-149,1067]],[[57497,78295],[576,88],[1000,1989],[-63,533],[-468,162],[492,921],[-425,495],[512,852],[719,-315],[352,650],[101,530],[-222,142],[232,258],[-20,704],[677,2572]],[[60960,87876],[916,924],[257,-336],[441,-866],[78,-1387],[-555,-1586],[72,-733],[1127,-492],[36,-1447],[584,147]],[[63916,82100],[37,-5506]],[[63953,76594],[-168,-1637]],[[63785,74957],[-1722,2074],[73,-852],[643,-1642],[-122,-2222],[198,-1534]],[[62855,70781],[-317,573]],[[62538,71354],[-662,1399],[-1736,2326],[-263,-1135],[104,-466],[-392,-632],[-124,-765],[-877,1441]],[[89272,44080],[-365,-439],[-272,-1110],[-667,-1282]],[[87968,41249],[-508,1883],[-444,-84],[-300,1299]],[[80572,61236],[-481,-557]],[[80091,60679],[-1651,485]],[[78440,61164],[94,1207],[-179,23],[-101,629]],[[80568,62222],[4,-986]],[[82568,65187],[-586,-312],[-291,-1181],[-468,-632],[107,-192]],[[81330,62870],[-762,-648]],[[80568,62222],[-572,2073]],[[84496,67531],[-1397,-2054]],[[83099,65477],[-531,-290]],[[82568,65187],[-2282,-191]],[[80307,65708],[1135,1583]],[[81442,67291],[242,561]],[[81684,67852],[286,-6],[449,-946],[805,1129],[417,67]],[[98472,33531],[187,770],[-248,522],[139,3096]],[[98550,37919],[-760,986],[-607,-135],[-152,416],[1350,2999]],[[98381,42185],[976,-335],[401,-1654]],[[99758,40196],[-207,-2913],[178,-739],[-259,-832],[123,-981],[-420,-1685],[-701,485]],[[70438,54120],[-445,-1165],[143,-129]],[[68981,49929],[-173,27],[-4,-358],[-1572,865]],[[67232,50463],[-1033,-369],[-827,-1715],[-1391,168]],[[63765,52611],[-4,558],[-289,557],[1077,710],[36,1509],[317,1543],[290,649],[636,530],[101,1022],[-334,-83]],[[65595,59606],[1232,602]],[[66827,60208],[846,-1681],[622,-78],[232,-446],[445,360],[488,1453],[831,351],[44,475],[199,-60],[255,498]],[[71047,59938],[165,-395],[-320,-548],[-678,-375],[79,-392],[-268,-161],[686,-1592]],[[70711,56475],[-124,-316],[266,-208],[-415,-1831]],[[6121,81616],[-332,-68],[-70,1112]],[[5719,82660],[516,551],[-289,696],[-335,-399],[-737,-94],[-761,581],[245,555],[488,146],[-75,538],[781,392],[1,403],[282,126],[715,-650],[728,996],[456,159],[-790,-1460],[82,-1506],[867,231],[103,-478]],[[8248,75895],[-463,-1629],[-313,-254],[-180,-1400],[-515,-564]],[[24680,62538],[-1405,540],[-351,-1337],[-412,-240],[-182,-1057],[-283,-152],[78,-538],[-503,-418],[-51,-533],[-292,-275],[278,-823],[248,14],[756,-1204]],[[22561,56515],[-1530,926],[-1912,2267]],[[18905,62336],[365,475]],[[18697,67602],[-19,1912],[1046,1111],[-456,849],[-411,239]],[[20059,74235],[103,-462],[1606,242],[995,-896],[1971,-142]],[[24734,72977],[3164,-3523]],[[27898,69454],[229,-165],[662,-2338],[-232,-1214]],[[41929,30908],[137,227],[453,-234]],[[43787,25745],[-1322,-2029],[-979,-300],[-136,-390],[-729,-46]],[[40621,22980],[-128,300],[455,1208],[-556,2088]],[[40392,26576],[282,545],[17,671],[572,928],[463,399],[620,-67],[-218,721],[72,595],[-271,540]],[[21706,26571],[227,-682],[-472,182],[-273,-248],[-74,-651],[-1101,-2093],[-312,217],[-528,-279],[-105,533],[-792,823],[-752,-1063]],[[16657,32174],[1399,971],[190,512],[-138,1007]],[[18108,34664],[646,-722],[1001,174]],[[68981,49929],[1155,2897]],[[70136,52826],[336,-540],[898,233]],[[71370,52519],[-93,-1267],[676,-1909]],[[71953,49343],[-796,195],[-33,-769],[-388,-198],[-783,1598],[-972,-240]],[[69388,37312],[-299,416],[398,442],[31,486],[-317,115],[461,348],[-287,518],[271,424],[-78,316]],[[69568,40377],[514,564],[-109,246],[156,346],[-273,12],[335,1213],[-130,318],[168,783],[-173,354],[530,-77],[212,773],[1095,-163],[-2,-527],[153,3],[-40,476],[434,-60],[276,-552],[903,-220],[69,-1176]],[[73686,42690],[15,-2622],[451,-1311],[-383,-445],[-78,-695],[175,5],[-140,-436],[238,181],[58,-314]],[[74022,37053],[-11,-11]],[[74011,37042],[-293,-386],[49,-739],[-249,-362],[-142,193],[-78,-803],[-536,-187]],[[72762,34758],[-650,-192],[-45,347],[-304,87],[-184,-338],[-2191,2650]],[[39688,54653],[-1038,526],[146,210],[-93,1003],[1383,1586]],[[44268,54967],[-1931,-921],[-230,-1116],[163,-464]],[[42270,52466],[-2582,2187]],[[71047,59938],[-258,1142]],[[70789,61080],[225,481],[-159,489],[1205,5],[837,1317],[593,152],[931,-962],[47,224]],[[74468,62786],[561,-1486],[-153,-485],[194,-48],[1,-344],[-166,-338],[383,-1163],[-52,-2616]],[[75236,56306],[-859,482],[-137,900],[244,494],[-405,-38],[-1149,934],[-434,-117],[-552,1126],[-897,-149]],[[88677,70597],[-359,-531],[-683,44],[-348,-477],[-553,403]],[[86734,70036],[13,1651],[-525,978],[298,1192]],[[86520,73857],[1027,-174],[653,-669],[423,-914],[-2,-263],[-305,-37],[361,-1203]],[[80758,77188],[-1185,-152],[21,358],[-170,-49],[-1305,-1874],[6,325],[-256,-49],[-429,-536]],[[77440,75211],[-506,-80],[-296,1164],[824,679],[376,1899],[522,680]],[[77062,45812],[145,1809]],[[77893,48064],[750,-718],[454,-50],[-237,-629],[90,-638],[-492,196],[-102,-583],[-567,-323],[-727,493]],[[86441,49558],[156,858],[371,226],[559,1786]],[[64829,29056],[847,120],[665,1132],[1093,546]],[[67434,30854],[379,-150]],[[67813,30704],[2,-460],[-600,-54],[-220,-637],[-186,279],[-85,-757],[-429,59],[152,-234],[-114,-1081],[712,-2192],[-448,-1063],[-164,-1202]],[[66433,23362],[-819,944],[29,686],[-253,469],[210,1528],[-701,1415],[-70,652]],[[27729,77083],[-28,477],[-620,510],[-533,1155],[-414,97],[-134,442]],[[26000,79764],[-29,4266],[2788,-1449],[868,-843]],[[31619,78031],[-765,-830],[-861,-256],[-757,738],[64,979],[-315,-645],[-624,-110],[-632,-824]],[[92579,73702],[997,1017],[1092,165]],[[94668,74884],[-388,-896],[-481,-2493],[313,-1438]],[[94112,70057],[-1550,-846],[-93,-477],[865,-1598],[1471,-993],[133,529],[323,55],[289,-402],[413,502],[90,718],[633,-98]],[[96686,67447],[656,-4319]],[[97342,63128],[-393,-36],[-491,-1034],[-1729,-976]],[[92308,59898],[-621,1915]],[[91687,61813],[620,390],[38,1475],[242,659],[-17,468],[-487,-76],[-649,2749],[520,4041],[-213,1179],[838,1004]],[[46195,50655],[206,1334],[-240,399],[210,173],[205,1138]],[[47835,54470],[1715,1051],[815,-130],[262,610],[253,-46]],[[50880,55955],[-277,-698],[3,-1705],[-589,-1097]],[[85657,37786],[-1556,-1390],[-646,923],[-87,-403],[-1035,-936]],[[82333,35980],[-367,-50],[-990,718],[85,650],[178,58],[-179,276],[143,556],[-156,-9]],[[81047,38179],[11,905],[286,837]],[[81344,39921],[408,735],[1880,1031],[-303,1095],[582,478]],[[83911,43260],[787,-761],[-399,-1451],[309,-1801],[431,-102],[-51,-670],[770,-331],[-101,-358]],[[74017,24310],[-1422,-212],[-51,-896],[-519,-767],[-716,343],[-659,-124],[-562,-700],[-286,120],[-138,-584],[-588,155]],[[69076,21645],[226,820],[-36,1188],[364,227],[19,617],[316,303],[-126,317],[167,-15],[368,1940],[-142,278],[488,1225]],[[70720,28545],[798,-1342],[911,889],[499,31]],[[72928,28123],[900,71]],[[16065,74927],[-679,1016],[37,683],[824,1593]],[[16247,78219],[559,566],[65,699],[1043,1752],[107,555],[320,-703],[-92,-702],[350,-75]],[[18599,80311],[255,-714],[-184,-1455],[1089,-241]],[[19759,77901],[436,-1764],[-250,-581],[344,-1025],[-230,-296]],[[4901,66115],[-225,404],[-858,276]],[[3818,66795],[-975,996],[-83,1296],[-448,939],[287,1518],[262,50],[140,473],[-269,884],[200,646]],[[6181,70251],[413,-166],[63,-470],[340,-345],[-178,-2639],[-524,-502],[-736,326],[-658,-340]],[[7766,25692],[-173,-562],[-668,-166],[-253,-738],[-733,-160],[-339,269],[-428,-356],[-475,461],[-368,-340],[-1220,3369],[-234,25],[17,374],[-324,485],[-231,-56],[-352,1044],[-714,576],[103,1550],[706,347]],[[2080,31814],[1247,-352],[444,-636],[453,-109],[474,374],[1272,-59],[276,-2005],[373,-457],[812,191],[-109,-1711],[670,-482],[-226,-876]],[[45475,66757],[50,-316],[1181,1474]],[[50123,60975],[-2540,-4664],[252,-1841]],[[47835,54470],[-352,26],[-907,-797]],[[46576,53699],[-181,1230],[-503,520]],[[8342,25589],[-409,2294],[37,927],[273,579],[-240,610],[222,1288]],[[8225,31287],[1256,-184],[137,1477],[-234,609],[207,528],[1456,179],[423,548]],[[11470,34444],[351,-559],[312,41],[287,-1852],[617,158]],[[13037,32232],[227,-776],[525,25],[-140,-245],[1002,-957]],[[14651,30279],[110,-1147],[-1535,-624],[-201,-310],[-50,-1034],[-898,-888],[-630,-1505]],[[11447,24771],[-249,1806],[-602,130],[-323,783],[-338,-933],[-830,-704],[-141,-705],[-456,20],[-166,421]],[[17259,40124],[254,1430]],[[17513,41554],[319,272],[119,1455]],[[17951,43281],[1075,1440],[1280,-1406],[1465,469]],[[21771,43784],[-212,-555],[93,-472],[233,40],[-111,-377],[173,78],[42,-443],[187,383],[371,-341],[-12,460],[270,-5],[-148,-457],[43,-2584],[584,-580]],[[23284,38931],[-288,-722],[-1715,-1843]],[[20378,35334],[-361,-47],[-689,2389],[-1271,1235],[-60,1003],[-738,210]],[[6147,79524],[285,1588],[-311,504]],[[6121,81616],[826,280],[457,1115],[224,-46]],[[6646,77948],[-72,483]],[[93695,44974],[-596,2225]],[[93099,47199],[679,3768],[-476,2707],[-2484,2357]],[[91428,59761],[880,137]],[[92308,59898],[759,129],[799,756],[863,299]],[[94729,61082],[2140,-1873],[180,206],[528,-466],[189,170],[321,-921]],[[98087,58198],[-37,-1459],[134,-801],[159,-4]],[[98343,55934],[-112,-1366]],[[98231,54568],[-706,-1453]],[[97525,53115],[-532,612],[-104,-518],[222,-354],[-162,-721],[-672,-292],[-268,-627],[-127,-497],[518,-799]],[[96400,49919],[-856,-280],[36,-1838],[827,41],[161,-512]],[[96568,47330],[-346,-1014]],[[96222,46316],[-120,-1117],[-331,-377],[-868,674],[-1208,-522]],[[34702,49932],[-998,124],[-55,-821],[-1123,-750],[55,-341],[-576,-887]],[[32005,47257],[-1234,5163],[777,-42],[-194,4787]],[[31354,57165],[1080,420],[1687,-624],[967,371],[550,-2536],[130,-1863],[-189,-758],[-226,-12],[25,-505],[-764,-112],[47,-811]],[[55627,43134],[-794,1240],[-613,391],[-983,-73],[-397,776],[-1010,-95]],[[52992,51552],[1205,-13],[518,-1906],[720,-397]],[[55435,49236],[318,-276],[155,-1365],[486,-388],[-1060,-732],[-119,-487],[237,-393],[175,-2461]],[[32747,77767],[-345,-38],[-231,1031],[-552,-729]],[[31619,78031],[348,508],[-988,714],[158,466],[-177,573],[-662,151],[-671,1295]],[[29627,81738],[-85,505],[370,389]],[[29912,82632],[385,468],[333,-224],[644,396],[305,-251],[1182,729],[1897,241]],[[34658,83991],[-219,-1191],[410,-836],[-245,-691],[-149,-2695],[-564,-833],[-1144,22]],[[24680,62538],[23,1376],[840,393],[8,1132],[413,620],[2593,-322]],[[28557,65737],[122,-861],[-206,-1418],[-1127,-1785],[-135,-849],[223,-1014],[-516,-127],[60,-696]],[[26978,58987],[-838,-1546],[-350,1890],[48,715],[-176,238],[108,842],[-208,61],[-105,930],[-777,421]],[[58544,36249],[490,-772],[326,68],[325,-589],[584,-285],[0,-497],[504,-1005],[647,-91],[-190,-640],[550,-1404],[232,-15]],[[62012,31019],[-478,-626],[-699,528],[-471,-551],[149,-420],[-241,-782],[463,-1222],[-105,-355],[-2235,125]],[[58395,27716],[-82,701],[-728,132]],[[19270,62811],[-301,1496],[116,537],[455,54],[-645,1462],[9,802],[-207,440]],[[18697,67602],[968,671],[2205,644],[-300,-965],[321,-556],[67,-522],[-206,-202],[443,-233],[-7,-798],[272,-272],[-297,-995],[-785,-140],[-678,-1389],[-1430,-34]],[[16569,74617],[993,1008],[388,-109],[546,-1649],[664,229],[509,-228],[390,367]],[[20059,74235],[-1210,-1468],[8,-1054]],[[18857,71713],[-422,87],[-1426,-1101]],[[53761,39980],[697,548],[31,1238]],[[54489,41766],[1891,84],[-155,243],[166,380],[2609,1517],[998,226],[849,-748],[441,242]],[[61288,43710],[-2744,-7461]],[[58544,36249],[-959,-7700]],[[57585,28549],[-360,418],[-66,495],[-821,-421],[-1247,734],[-275,-440]],[[54816,29335],[-273,2258]],[[47483,12569],[1586,2570],[6136,982]],[[55205,16121],[-186,-470],[179,-325],[-98,-245],[-884,516],[-402,-1691],[0,-3047],[-755,-895],[267,-718],[488,-456],[-19,-360],[-1643,-1305],[172,-655],[-900,207],[177,-719],[-865,-368],[-288,-904],[-902,254],[-380,-650],[-2101,-1560],[-681,-1275],[-552,-238],[-242,-1053]],[[12624,57566],[661,2434],[-450,1414]],[[15421,61840],[354,-427],[325,118],[353,548],[1073,585],[293,-265],[797,243],[289,-306]],[[18905,62336],[214,-2628]],[[19119,59708],[-830,-1389],[-858,128],[-95,-1588],[-307,-139]],[[17029,56720],[-2827,85],[-1578,761]],[[12271,49417],[-379,-471],[95,-554],[352,22],[118,-463],[-56,-954],[176,-85],[-266,-1234],[729,-351],[-632,-1569],[-1256,-1020]],[[11152,42738],[-41,393],[-845,159],[-1410,-1024]],[[8856,42266],[39,838],[-270,439]],[[11838,50455],[433,-1038]],[[39097,61402],[-4322,-1308],[-573,136],[3,-362],[-897,934],[-1000,136]],[[32308,60938],[-380,686],[-17,985],[-378,313],[333,389],[-702,1358],[88,537],[472,195],[6,1437],[-389,518],[-356,-332],[-478,80]],[[30507,67104],[358,1009],[-210,510],[171,739],[539,583]],[[31365,69945],[-222,-921],[354,588],[747,363]],[[32244,69975],[1948,564],[1627,-178],[715,539],[770,-217],[-163,-840],[661,-840],[-252,-1521],[418,-598],[55,-1347],[517,-596]],[[84159,45257],[-643,702]],[[83516,45959],[736,764],[1116,18],[-216,1261],[864,689]],[[86016,48691],[393,668]],[[87144,47767],[-61,-493],[354,-653],[112,-1385],[-224,-732],[-406,243],[-203,-400]],[[86716,44347],[-1375,1362],[-78,477],[-1104,-929]],[[3056,49165],[-1098,-281],[283,921],[-217,345],[249,247],[-53,1089],[529,1691],[-525,1113],[186,852]],[[2410,55142],[96,461],[917,-346],[435,-676],[496,139],[320,958],[436,481],[405,-325],[1128,1772],[1201,295],[1689,-145]],[[9533,57756],[666,-74]],[[10199,57682],[-190,-2466],[623,-2585]],[[10632,52631],[316,-1730],[792,791],[357,-127],[-259,-1110]],[[11838,50455],[-415,-7],[-71,-398]],[[8999,48344],[-2,426],[-811,-292],[-300,265],[-29,525],[-1624,-52],[-111,535],[-412,134],[-832,-696],[-1822,-24]],[[15964,22281],[441,2222],[-433,435],[313,2060],[-287,343],[553,878],[-656,1582],[120,895],[642,1478]],[[16657,32174],[872,-937],[100,-462],[-28,-705],[-296,327],[-150,-1354],[291,-311],[538,275],[-323,-1441],[30,-1108],[-535,-1512],[411,-1141],[-43,-495]],[[17524,23310],[-158,-1452],[262,-631],[-295,-476],[-1049,423],[-320,1107]],[[36041,47717],[30,347],[-398,-106],[-615,1147],[194,736],[-550,91]],[[34702,49932],[-41,803]],[[34661,50735],[245,-267],[1049,607],[556,1801],[48,612],[-194,360],[253,432],[1655,-1877]],[[38273,52403],[260,-1178],[-329,-2739]],[[32233,90513],[609,936],[447,197],[475,964],[1874,1117],[353,-1],[936,-879],[1283,-87],[-8,-400],[363,-557]],[[38565,91803],[-930,-1694],[-65,-1242],[-1103,58],[-428,-1304]],[[36039,87621],[-1331,1363],[-195,-436],[-729,156],[-502,-472],[-135,747],[-533,230],[-381,1304]],[[46706,67915],[1893,1136],[1568,-2460],[82,-2270],[989,103],[-750,-3433]],[[50488,60991],[-365,-16]],[[50123,60975],[-290,889],[-796,892],[-476,-409],[3,642],[-198,-162],[-520,699],[-38,870],[-861,854],[-241,2665]],[[50055,43169],[1720,-2603],[586,-323],[296,192]],[[44813,36345],[-901,1555],[-61,278],[230,154],[-289,347],[309,820]],[[44101,39499],[1534,928],[1020,-240],[1727,648],[1751,-23],[-78,2357]],[[40086,57978],[-201,874],[179,876],[-510,353],[380,599],[-532,79],[96,399],[-401,244]],[[39097,61402],[-248,2759],[-309,780]],[[38540,64941],[1056,-66],[1018,1220]],[[44192,62902],[-616,-1426],[1184,-1394],[610,46],[-177,-1380],[734,191],[140,-2107],[-683,-1149],[508,-234]],[[45892,55449],[-1203,-930],[-421,448]],[[44268,54967],[-1320,519],[98,658],[-449,483],[-743,-384],[-1768,1735]],[[89920,43567],[-648,513]],[[89272,44080],[-561,2565],[295,1111],[-72,472]],[[90082,49436],[411,-829],[572,-396]],[[91065,48211],[-537,-2040],[-76,-1166],[-532,-1438]],[[72258,53479],[-74,224]],[[72184,53703],[19,36]],[[72203,53739],[317,1100],[343,-163],[402,311]],[[73265,54987],[76,-910],[856,-125],[138,-1212]],[[74335,52740],[-372,-984]],[[73963,51756],[-387,355],[-540,-137],[-672,970],[106,318],[-212,217]],[[43497,11354],[481,80],[1348,-750],[904,1002]],[[46230,11686],[971,1065],[282,-182]],[[47483,12569],[85,-1099],[-359,-423],[-157,-1572],[-534,-651],[-441,-1414],[-87,-1249],[-642,-801],[184,-777],[-205,-904],[233,-1248],[-322,-923],[352,-1344]],[[45590,164],[-922,-164],[-802,631],[-511,1056],[-953,-80],[14,1111],[333,482],[-340,361],[-491,-519],[-566,1082],[-80,772],[197,709],[-577,-82],[-565,504],[318,690],[-192,491],[136,501],[228,109]],[[88228,51188],[-259,279],[-45,684],[-289,-47],[-108,324]],[[87527,52428],[857,1829],[149,856],[-209,1716],[115,1058],[-281,1277]],[[88158,59164],[364,312],[315,-269],[807,627],[530,-671],[160,206]],[[90334,59369],[570,455],[524,-63]],[[91428,59761],[-299,-1395],[393,-1499],[-704,-836]],[[90818,56031],[1000,-1886],[-655,-3074],[-1081,-1635]],[[61332,60087],[-324,-765]],[[57619,57492],[110,1971],[-2106,2427]],[[55322,62737],[-46,1177],[657,260]],[[55933,64174],[494,166],[515,-523],[351,598],[360,-550],[977,260],[268,-236],[38,277],[493,-603]],[[59429,63563],[874,-2111],[1029,-1365]],[[54543,31593],[-2939,-328],[381,-3765],[1086,-385]],[[53071,27115],[-1419,-395],[-1297,-1462]],[[47514,33569],[715,1737],[2753,2750],[368,1354],[323,438],[984,587]],[[52657,40435],[1104,-455]],[[53761,39980],[2514,-5944],[-1732,-2443]],[[84170,71838],[187,-375]],[[84357,71463],[-490,-1379]],[[82862,68637],[-610,363],[1293,2455],[625,383]],[[9050,48184],[-51,160]],[[8999,48344],[2353,1706]],[[11352,50050],[-575,-1176],[-369,-1962],[-211,89],[-1030,-2677],[-542,-781]],[[8625,43543],[198,1372],[-117,628],[426,840],[-184,210],[102,1591]],[[78992,51418],[567,-1623]],[[79559,49795],[-1343,-907],[-323,-824]],[[77893,48064],[-686,-443]],[[77207,47621],[131,738],[-473,1389],[871,1066]],[[77736,50814],[591,359],[244,-305],[421,550]],[[80307,65708],[-21,-712]],[[80286,64996],[-290,-701]],[[79996,64295],[-493,-188],[-292,-514],[-167,238],[-387,-198],[-403,-610]],[[78254,63023],[-855,285],[-501,884],[285,146],[-131,328],[345,555]],[[78638,65993],[867,-500],[802,215]],[[83641,68096],[-779,541]],[[82862,68637],[855,813],[150,634]],[[83867,70084],[546,-1103],[1030,-679],[-69,-396]],[[85374,67906],[-878,-375]],[[84496,67531],[-577,551],[-305,-607],[27,621]],[[88934,48228],[-418,-406],[-637,203],[-735,-258]],[[87144,47767],[-735,1592]],[[86409,49359],[32,199]],[[86441,49558],[1284,-587],[569,1052],[-66,1165]],[[88228,51188],[-8,380],[545,489],[263,-1867],[307,74],[167,-693],[483,170],[97,-305]],[[90082,49436],[-983,-632],[-165,-576]],[[78576,67122],[62,-1129]],[[78638,65993],[-691,-457],[-305,-642],[-245,327]],[[77397,65221],[-247,171],[-478,-467],[-521,515],[-288,-639],[-271,289],[-176,-523],[-330,350]],[[75086,64917],[-633,2545],[489,770],[211,2602]],[[75153,70834],[520,-9],[440,619]],[[76113,71444],[996,930],[476,-178]],[[77585,72196],[209,-460],[-339,-400],[411,-315],[-92,-1823],[724,-1349],[78,-727]],[[61008,59322],[1524,-6104],[1233,-607]],[[63765,52611],[354,-2480],[-138,-1584]],[[63981,48547],[-2571,400]],[[61410,48947],[-1763,-1489],[-565,990],[-1674,500]],[[57408,48948],[-85,979],[355,1626],[-392,4171],[333,1768]],[[57619,57492],[2544,876],[845,954]],[[63321,71059],[206,1894]],[[63527,72953],[1699,-1550],[975,-101],[744,491]],[[66945,71793],[-3893,-7386]],[[63052,64407],[44,1195]],[[63096,65602],[225,5457]],[[15421,61840],[-335,1002],[-2471,-551],[220,-877]],[[12835,61414],[-516,-249],[-810,322],[-413,1221]],[[11096,62708],[186,2111],[680,2643],[-1592,-205]],[[10370,67257],[-141,1339],[403,329],[-443,723],[203,251],[-95,1192],[541,758],[-363,1415],[190,242],[-171,660]],[[12819,74464],[1844,408],[487,-1029],[915,1084]],[[16065,74927],[169,140],[335,-450]],[[16569,74617],[440,-3918]],[[17009,70699],[-234,-469],[4,-971],[-480,-417],[-135,-650],[-372,-171],[-111,-1219],[572,-3044],[-334,-324],[-498,-1594]],[[45430,20736],[-1326,3580],[-317,1429]],[[43787,25745],[552,2712],[-883,1213],[-1011,767],[74,464]],[[42519,30901],[145,-427],[664,-30],[1172,-681],[268,320],[-297,494],[-66,1705],[587,1080],[-1181,2056]],[[43811,35418],[369,314],[184,-301],[479,621],[-30,293]],[[44813,36345],[-170,239],[355,696],[2516,-3711]],[[47514,33569],[1106,-133],[-215,-2433],[415,-305],[1015,-2330],[-484,-534],[1004,-2576]],[[50355,25258],[967,-2106]],[[51322,23152],[-493,-1209],[-312,0],[-36,-633],[-853,-566],[-338,141],[-586,-602],[313,880],[-3587,-427]],[[81188,74970],[-203,764],[-639,490],[232,81],[180,883]],[[80758,77188],[-664,1044],[-1734,1321]],[[78360,79553],[402,1652]],[[78762,81205],[922,-273],[494,-1164],[475,-243],[916,727],[1212,-473],[430,443],[336,-442],[102,328],[14,-317]],[[83663,79791],[402,-1247],[-240,-755],[-8,-1208],[-318,-470],[134,-273],[-274,-1571]],[[83359,74267],[-711,-195],[-717,-1357]],[[81931,72715],[-391,108]],[[81540,72823],[47,1639],[-399,508]],[[51830,45373],[-196,-115],[-378,459],[-440,-1877],[-494,-39]],[[50322,43801],[-311,218],[-484,-1313],[-1459,397],[-2675,1564],[-1317,1636]],[[44076,46303],[-517,2642],[377,-97]],[[43936,48848],[2170,799],[89,1008]],[[46195,50655],[683,-211],[153,-372],[1987,1018],[390,-177],[609,1542]],[[50017,52455],[411,-629],[522,48],[125,-428],[275,181],[315,-491],[575,616],[752,-200]],[[52992,51552],[126,-2533],[-427,-854],[-11,-1132],[-850,-1660]],[[19755,34116],[623,1218]],[[20378,35334],[903,1032]],[[21281,36366],[544,-2679],[-130,-413],[132,-696],[873,-85],[-44,-778],[397,62],[806,-708],[420,-904],[946,-75],[-120,-434],[187,-272],[190,363]],[[25482,29747],[326,-452],[-96,-809],[-321,-528],[-530,1021],[-93,670],[-487,87],[-226,-784],[-1187,-355],[-590,-1392],[-572,-634]],[[21706,26571],[-806,1117],[-571,1563],[10,2116],[674,772],[70,448],[-1348,624],[-49,420],[243,192],[-174,293]],[[36542,44526],[181,1271],[-136,191],[186,182],[-739,1046]],[[36034,47216],[316,314],[-309,187]],[[36041,47717],[636,878],[1527,-109]],[[38204,48486],[420,37],[1404,-1321]],[[40028,47202],[190,-481],[621,-305]],[[40839,46416],[-97,-730],[-851,-1910],[101,-137]],[[39992,43639],[-1441,1567],[-1035,-18],[-328,-615],[-646,-47]],[[52611,56542],[-640,356]],[[51971,56898],[859,1590],[304,1902]],[[53134,60390],[1135,-378],[1053,2725]],[[55322,62737],[301,-847]],[[55623,61890],[73,-992],[-506,-69],[-585,-881],[131,-1796],[-181,-337],[-493,-312],[-416,-1157],[-450,481],[-585,-285]],[[2932,73597],[62,510],[441,501],[-345,1028],[900,2269]],[[3990,77905],[998,848],[859,-63],[-97,808],[397,26]],[[6147,79524],[382,-320],[45,-773]],[[6574,78431],[-675,-367],[101,-1001],[-319,-57],[52,-2107],[729,-2797],[315,-54]],[[6777,72048],[-56,-521],[-671,19],[131,-1295]],[[6181,70251],[-625,250],[-299,-327],[-588,47],[-358,1349],[-1379,2027]],[[10653,75411],[-141,519],[-634,118],[-620,-1194],[-413,-82],[-597,1123]],[[8248,75895],[-1401,214],[-201,1839]],[[6646,77948],[870,-62],[355,744],[96,3011],[-339,1324]],[[7628,82965],[368,482]],[[7996,83447],[552,-473],[673,190],[609,-1211],[36,-809],[249,94],[71,-366],[762,135],[418,-1249],[505,-91],[134,-712]],[[74017,24310],[-247,218],[-111,863],[239,333],[49,1701],[-236,44],[117,725]],[[73828,28194],[481,-17],[150,763],[289,-505],[548,880],[583,-680],[1006,401]],[[76885,29036],[678,21],[701,1082]],[[78264,30139],[592,-359],[-56,-426],[397,-1220]],[[79197,28134],[-824,-1487],[-802,-502],[-402,700],[-341,-682],[-699,-200],[-147,-495],[-1965,-1158]],[[44192,62902],[-337,-96],[91,577],[-311,116],[-103,687],[-646,-41],[-573,1268],[107,499],[-616,-302],[-92,385],[-418,252],[-680,-152]],[[40614,66095],[586,1423],[1750,727],[1500,1832],[559,-621],[174,-2040],[454,-301],[-162,-358]],[[45475,66757],[-177,-305],[233,-1135],[-1339,-2415]],[[13507,79933],[804,-2956],[-291,-63],[-214,-1025],[-987,-1425]],[[12819,74464],[-347,-313],[75,-368],[-423,-991],[-195,678],[-332,137],[-257,612],[-846,-53]],[[10494,74166],[113,614],[-156,281],[202,350]],[[10653,75411],[1007,637],[61,1046],[-403,793],[902,362],[-215,706]],[[12005,78955],[810,984],[692,-6]],[[43497,11354],[402,-2161],[-130,-250],[-1228,-111],[-757,-1115],[-967,101]],[[40817,7818],[11,1626],[-362,1614],[215,1208]],[[40681,12266],[529,-126],[145,-677],[686,-444],[748,879],[708,-544]]]}