{"type":"Topology","objects":{"data":{"geometries":[{"properties":{"cd_mun_ibge":"2600054"},"type":"MultiPolygon","arcs":[[[-263,-5,-117,-267]]],"id":0},{"properties":{"cd_mun_ibge":"2600104"},"type":"MultiPolygon","arcs":[[[-442,-459,-122,-36]]],"id":1},{"properties":{"cd_mun_ibge":"2600203"},"type":"MultiPolygon","arcs":[[[-60,-286,0]]],"id":2},{"properties":{"cd_mun_ibge":"2600302"},"type":"MultiPolygon","arcs":[[[-4,-40,-12,-391,-56]]],"id":3},{"properties":{"cd_mun_ibge":"2600401"},"type":"MultiPolygon","arcs":[[[-470,-10,1,-553,-233,-169,-315,-92]]],"id":4},{"properties":{"cd_mun_ibge":"2600500"},"type":"MultiPolygon","arcs":[[[-139,-21,-275,-245,-110,2]]],"id":5},{"properties":{"cd_mun_ibge":"2600609"},"type":"MultiPolygon","arcs":[[[-516,-281]]],"id":6},{"properties":{"cd_mun_ibge":"2600708"},"type":"MultiPolygon","arcs":[[[-541,-486,-80,-150,-49,-495,-218]]],"id":7},{"properties":{"cd_mun_ibge":"2600807"},"type":"MultiPolygon","arcs":[[[-55,-241,-115,-25,-380,-41,3]]],"id":8},{"properties":{"cd_mun_ibge":"2600906"},"type":"MultiPolygon","arcs":[[[-104,-48,-295,-318,-52]]],"id":9},{"properties":{"cd_mun_ibge":"2601003"},"type":"MultiPolygon","arcs":[[[-235,-388,-173,-26,-31]]],"id":10},{"properties":{"cd_mun_ibge":"2601052"},"type":"MultiPolygon","arcs":[[[-499,-118,4]]],"id":11},{"properties":{"cd_mun_ibge":"2601102"},"type":"MultiPolygon","arcs":[[[-227,5,-132,-502]]],"id":12},{"properties":{"cd_mun_ibge":"2601201"},"type":"MultiPolygon","arcs":[[[-272,-20,-426,6,-277]]],"id":13},{"properties":{"cd_mun_ibge":"2601300"},"type":"MultiPolygon","arcs":[[[-326,-106,-51,-16]]],"id":14},{"properties":{"cd_mun_ibge":"2601409"},"type":"MultiPolygon","arcs":[[[7,-395,8,9,-469]]],"id":15},{"properties":{"cd_mun_ibge":"2601508"},"type":"MultiPolygon","arcs":[[[-15,-45,-188,-57,-389]]],"id":16},{"properties":{"cd_mun_ibge":"2601607"},"type":"MultiPolygon","arcs":[[[-336,-37,-86,-136,10,-23]]],"id":17},{"properties":{"cd_mun_ibge":"2601706"},"type":"MultiPolygon","arcs":[[[-460,-379,-342,-279,-162,-19]]],"id":18},{"properties":{"cd_mun_ibge":"2601805"},"type":"MultiPolygon","arcs":[[[-88,-414,-27,-83,-58]]],"id":19},{"properties":{"cd_mun_ibge":"2601904"},"type":"MultiPolygon","arcs":[[[-29,-392,11,-39,-313,-54,-255,-107,-324]]],"id":20},{"properties":{"cd_mun_ibge":"2602001"},"type":"MultiPolygon","arcs":[[[-134,12,-63,-101,-251,-229]]],"id":21},{"properties":{"cd_mun_ibge":"2602100"},"type":"MultiPolygon","arcs":[[[-108,-338,-478,-17,-183,13]]],"id":22},{"properties":{"cd_mun_ibge":"2602209"},"type":"MultiPolygon","arcs":[[[-166,-448,-44,-221,-205,-537,-199]]],"id":23},{"properties":{"cd_mun_ibge":"2602308"},"type":"MultiPolygon","arcs":[[[-53,-167,-231,-46,14,-394,-28,-327,15]]],"id":24},{"properties":{"cd_mun_ibge":"2602407"},"type":"MultiPolygon","arcs":[[[-184,16,-481,-96]]],"id":25},{"properties":{"cd_mun_ibge":"2602506"},"type":"MultiPolygon","arcs":[[[-364,17,-151,-401]]],"id":26},{"properties":{"cd_mun_ibge":"2602605"},"type":"MultiPolygon","arcs":[[[-164,-352,-477,-42,-382,-461,18]]],"id":27},{"properties":{"cd_mun_ibge":"2602704"},"type":"MultiPolygon","arcs":[[[-200,-535,-217,-38]]],"id":28},{"properties":{"cd_mun_ibge":"2602803"},"type":"MultiPolygon","arcs":[[[-427,19,-271,20,-138,-510]]],"id":29},{"properties":{"cd_mun_ibge":"2602902"},"type":"MultiPolygon","arcs":[[[-62,-545,-214,-160,21,-130]]],"id":30},{"properties":{"cd_mun_ibge":"2603009"},"type":"MultiPolygon","arcs":[[[22,23,-224,-248,-485,-337]]],"id":31},{"properties":{"cd_mun_ibge":"2603108"},"type":"MultiPolygon","arcs":[[[-381,24,-114,-194,-372,-463]]],"id":32},{"properties":{"cd_mun_ibge":"2603207"},"type":"MultiPolygon","arcs":[[[-273,-519,-34,-93,-246]]],"id":33},{"properties":{"cd_mun_ibge":"2603306"},"type":"MultiPolygon","arcs":[[[-197,-32,25,-172]]],"id":34},{"properties":{"cd_mun_ibge":"2603405"},"type":"MultiPolygon","arcs":[[[-349,-504,-84,26,-420]]],"id":35},{"properties":{"cd_mun_ibge":"2603454"},"type":"MultiPolygon","arcs":[[[-409,-264,-265,-306]]],"id":36},{"properties":{"cd_mun_ibge":"2603504"},"type":"MultiPolygon","arcs":[[[27,-393,28,-328]]],"id":37},{"properties":{"cd_mun_ibge":"2603603"},"type":"MultiPolygon","arcs":[[[-79,-489,29,-146]]],"id":38},{"properties":{"cd_mun_ibge":"2603702"},"type":"MultiPolygon","arcs":[[[30,31,-196,-113,-176,-299,32,-236]]],"id":39},{"properties":{"cd_mun_ibge":"2603801"},"type":"MultiPolygon","arcs":[[[-518,-280,-376,-171,-94,33]]],"id":40},{"properties":{"cd_mun_ibge":"2603900"},"type":"MultiPolygon","arcs":[[[-81,-305,34,-443,35,-121,-59]]],"id":41},{"properties":{"cd_mun_ibge":"2603926"},"type":"MultiPolygon","arcs":[[[-335,-213,-87,36]]],"id":42},{"properties":{"cd_mun_ibge":"2604007"},"type":"MultiPolygon","arcs":[[[-178,-177,-201,37,-216,-493,-262]]],"id":43},{"properties":{"cd_mun_ibge":"2604106"},"type":"MultiPolygon","arcs":[[[38,39,40,-383,41,-476,-492,-530,-91,-314]]],"id":44},{"properties":{"cd_mun_ibge":"2604155"},"type":"MultiPolygon","arcs":[[[-528,42,-222,43,-447]]],"id":45},{"properties":{"cd_mun_ibge":"2604205"},"type":"MultiPolygon","arcs":[[[-161,-189,44,45,-230,-211]]],"id":46},{"properties":{"cd_mun_ibge":"2604304"},"type":"MultiPolygon","arcs":[[[-332,-424,46]]],"id":47},{"properties":{"cd_mun_ibge":"2604403"},"type":"MultiPolygon","arcs":[[[-542,-97,-259,-407]]],"id":48},{"properties":{"cd_mun_ibge":"2604502"},"type":"MultiPolygon","arcs":[[[47,-103,-292,-296]]],"id":49},{"properties":{"cd_mun_ibge":"2604601"},"type":"MultiPolygon","arcs":[[[-156,-496,48,-149,-99]]],"id":50},{"properties":{"cd_mun_ibge":"2604700"},"type":"MultiPolygon","arcs":[[[49,-186,-95,-238]]],"id":51},{"properties":{"cd_mun_ibge":"2604809"},"type":"MultiPolygon","arcs":[[[50,-105,51,-317,-168,52]]],"id":52},{"properties":{"cd_mun_ibge":"2604908"},"type":"MultiPolygon","arcs":[[[53,-312,-451,-256]]],"id":53},{"properties":{"cd_mun_ibge":"2605004"},"type":"MultiPolygon","arcs":[[[54,55,-390,56,-187,-242]]],"id":54},{"properties":{"cd_mun_ibge":"2605103"},"type":"MultiPolygon","arcs":[[[-112,-89,57,-82,58,-120,-429]]],"id":55},{"properties":{"cd_mun_ibge":"2605152"},"type":"MultiPolygon","arcs":[[[59,60,-356,-347,-191,-287]]],"id":56},{"properties":{"cd_mun_ibge":"2605202"},"type":"MultiPolygon","arcs":[[[-129,-434,-320,-298,-546,61]]],"id":57},{"properties":{"cd_mun_ibge":"2605301"},"type":"MultiPolygon","arcs":[[[-102,62,63,-441]]],"id":58},{"properties":{"cd_mun_ibge":"2605400"},"type":"MultiPolygon","arcs":[[[-258,-203,-180,-98]]],"id":59},{"properties":{"cd_mun_ibge":"2605459"},"type":"MultiPolygon","arcs":[[[64]],[[65]],[[66]],[[67]],[[68]],[[69]],[[70]],[[71]],[[72]],[[73]],[[74]],[[75]],[[76]],[[77]]],"id":60},{"properties":{"cd_mun_ibge":"2605509"},"type":"MultiPolygon","arcs":[[[78,-145,79,-490]]],"id":61},{"properties":{"cd_mun_ibge":"2605608"},"type":"MultiPolygon","arcs":[[[-303,80,81,82,83,-507,84]]],"id":62},{"properties":{"cd_mun_ibge":"2605707"},"type":"MultiPolygon","arcs":[[[85,86,-415,87,88,-111,-125,-465,-284,89,-137]]],"id":63},{"properties":{"cd_mun_ibge":"2605806"},"type":"MultiPolygon","arcs":[[[90,-529,-363,-445,-311]]],"id":64},{"properties":{"cd_mun_ibge":"2605905"},"type":"MultiPolygon","arcs":[[[-321,-322,91]]],"id":65},{"properties":{"cd_mun_ibge":"2606002"},"type":"MultiPolygon","arcs":[[[-480,-341,-247,92,93,-170,-385,-234,94,-185,95]]],"id":66},{"properties":{"cd_mun_ibge":"2606101"},"type":"MultiPolygon","arcs":[[[-179,-260,96,-550,-253,97]]],"id":67},{"properties":{"cd_mun_ibge":"2606200"},"type":"MultiPolygon","arcs":[[[-119,-157,98,-148,99,-143,-155]]],"id":68},{"properties":{"cd_mun_ibge":"2606309"},"type":"MultiPolygon","arcs":[[[-422,-252,100,101,-440]]],"id":69},{"properties":{"cd_mun_ibge":"2606408"},"type":"MultiPolygon","arcs":[[[-293,102,103,104,105,-325,106,-254]]],"id":70},{"properties":{"cd_mun_ibge":"2606507"},"type":"MultiPolygon","arcs":[[[-244,-339,107,108,109]]],"id":71},{"properties":{"cd_mun_ibge":"2606606"},"type":"MultiPolygon","arcs":[[[110,111,-428,-508,-208,-126]]],"id":72},{"properties":{"cd_mun_ibge":"2606705"},"type":"MultiPolygon","arcs":[[[-240,-175,112,-195,113,114]]],"id":73},{"properties":{"cd_mun_ibge":"2606804"},"type":"MultiPolygon","arcs":[[[-142,115,-268,116,117,-498,-158,118,-154]]],"id":74},{"properties":{"cd_mun_ibge":"2606903"},"type":"MultiPolygon","arcs":[[[-430,119,120,121,-458,-127,-515,122]]],"id":75},{"properties":{"cd_mun_ibge":"2607000"},"type":"MultiPolygon","arcs":[[[123,-466,124,125,-207]]],"id":76},{"properties":{"cd_mun_ibge":"2607109"},"type":"MultiPolygon","arcs":[[[-457,-399,-512,126]]],"id":77},{"properties":{"cd_mun_ibge":"2607208"},"type":"MultiPolygon","arcs":[[[127,-435,128,129]],[[130]]],"id":78},{"properties":{"cd_mun_ibge":"2607307"},"type":"MultiPolygon","arcs":[[[-503,131,132,133,-228]]],"id":79},{"properties":{"cd_mun_ibge":"2607406"},"type":"MultiPolygon","arcs":[[[134,135,136]]],"id":80},{"properties":{"cd_mun_ibge":"2607505"},"type":"MultiPolygon","arcs":[[[-209,-511,137,138,139]]],"id":81},{"properties":{"cd_mun_ibge":"2607604"},"type":"MultiPolygon","arcs":[[[140]],[[141,-153,142,143]]],"id":82},{"properties":{"cd_mun_ibge":"2607653"},"type":"MultiPolygon","arcs":[[[144,145,146,147,148,149]]],"id":83},{"properties":{"cd_mun_ibge":"2607703"},"type":"MultiPolygon","arcs":[[[150,151,-402]]],"id":84},{"properties":{"cd_mun_ibge":"2607752"},"type":"MultiPolygon","arcs":[[[152,153,154]]],"id":85},{"properties":{"cd_mun_ibge":"2607802"},"type":"MultiPolygon","arcs":[[[155,156,157,-497]]],"id":86},{"properties":{"cd_mun_ibge":"2607901"},"type":"MultiPolygon","arcs":[[[-215,-405,-310,158,159]]],"id":87},{"properties":{"cd_mun_ibge":"2607950"},"type":"MultiPolygon","arcs":[[[-210,-366,-190,160]]],"id":88},{"properties":{"cd_mun_ibge":"2608008"},"type":"MultiPolygon","arcs":[[[161,-289,162,-350,163]]],"id":89},{"properties":{"cd_mun_ibge":"2608057"},"type":"MultiPolygon","arcs":[[[-282,-468,164]]],"id":90},{"properties":{"cd_mun_ibge":"2608107"},"type":"MultiPolygon","arcs":[[[-329,-449,165,-198]]],"id":91},{"properties":{"cd_mun_ibge":"2608206"},"type":"MultiPolygon","arcs":[[[166,167,-316,168,-232]]],"id":92},{"properties":{"cd_mun_ibge":"2608255"},"type":"MultiPolygon","arcs":[[[-386,169,170,-375,-174]]],"id":93},{"properties":{"cd_mun_ibge":"2608305"},"type":"MultiPolygon","arcs":[[[-374,-193,171,172,-387,173]]],"id":94},{"properties":{"cd_mun_ibge":"2608404"},"type":"MultiPolygon","arcs":[[[174,-239,-300,175]]],"id":95},{"properties":{"cd_mun_ibge":"2608453"},"type":"MultiPolygon","arcs":[[[-202,176,-181]]],"id":96},{"properties":{"cd_mun_ibge":"2608503"},"type":"MultiPolygon","arcs":[[[177,-261,178,179,180]]],"id":97},{"properties":{"cd_mun_ibge":"2608602"},"type":"MultiPolygon","arcs":[[[181,182,183,184,185]]],"id":98},{"properties":{"cd_mun_ibge":"2608701"},"type":"MultiPolygon","arcs":[[[-243,186,187,188,189,-371]]],"id":99},{"properties":{"cd_mun_ibge":"2608750"},"type":"MultiPolygon","arcs":[[[-288,190,-346,-357,191]]],"id":100},{"properties":{"cd_mun_ibge":"2608800"},"type":"MultiPolygon","arcs":[[[192,-373,193,194,195,196]]],"id":101},{"properties":{"cd_mun_ibge":"2608909"},"type":"MultiPolygon","arcs":[[[-330,197,198,-536,199,200,201,202,-257]]],"id":102},{"properties":{"cd_mun_ibge":"2609006"},"type":"MultiPolygon","arcs":[[[203,-487,-539,-412]]],"id":103},{"properties":{"cd_mun_ibge":"2609105"},"type":"MultiPolygon","arcs":[[[-220,-413,204]]],"id":104},{"properties":{"cd_mun_ibge":"2609154"},"type":"MultiPolygon","arcs":[[[205,206,207,208]]],"id":105},{"properties":{"cd_mun_ibge":"2609204"},"type":"MultiPolygon","arcs":[[[-367,209,210,-551,211]]],"id":106},{"properties":{"cd_mun_ibge":"2609303"},"type":"MultiPolygon","arcs":[[[-334,-523,-398,-416,212]]],"id":107},{"properties":{"cd_mun_ibge":"2609402"},"type":"MultiPolygon","arcs":[[[213,-544,-406,214]]],"id":108},{"properties":{"cd_mun_ibge":"2609501"},"type":"MultiPolygon","arcs":[[[-494,215,216,217]]],"id":109},{"properties":{"cd_mun_ibge":"2609600"},"type":"MultiPolygon","arcs":[[[-308,-270,218]]],"id":110},{"properties":{"cd_mun_ibge":"2609709"},"type":"MultiPolygon","arcs":[[[-410,219,220,221,222]]],"id":111},{"properties":{"cd_mun_ibge":"2609808"},"type":"MultiPolygon","arcs":[[[-249,223,224,-360]]],"id":112},{"properties":{"cd_mun_ibge":"2609907"},"type":"MultiPolygon","arcs":[[[-344,-354,225,226,-501,227,228,-250]]],"id":113},{"properties":{"cd_mun_ibge":"2610004"},"type":"MultiPolygon","arcs":[[[-552,229,230,231,232]]],"id":114},{"properties":{"cd_mun_ibge":"2610103"},"type":"MultiPolygon","arcs":[[[233,-384,234,235,236,237]]],"id":115},{"properties":{"cd_mun_ibge":"2610202"},"type":"MultiPolygon","arcs":[[[-370,-301,238,239,240,241,242]]],"id":116},{"properties":{"cd_mun_ibge":"2610301"},"type":"MultiPolygon","arcs":[[[243,244,-274,245,246,-340]]],"id":117},{"properties":{"cd_mun_ibge":"2610400"},"type":"MultiPolygon","arcs":[[[-482,247,248,-359,-345,249,250,251,-421]]],"id":118},{"properties":{"cd_mun_ibge":"2610509"},"type":"MultiPolygon","arcs":[[[252,-549,-294,253,254,255,-331,256,257]]],"id":119},{"properties":{"cd_mun_ibge":"2610608"},"type":"MultiPolygon","arcs":[[[258,259,260,261,-500,262,-266,263,-408]]],"id":120},{"properties":{"cd_mun_ibge":"2610707"},"type":"MultiPolygon","arcs":[[[-307,264,265,266,267,268,269]]],"id":121},{"properties":{"cd_mun_ibge":"2610806"},"type":"MultiPolygon","arcs":[[[270,271,-276,-520,272,273,274]]],"id":122},{"properties":{"cd_mun_ibge":"2610905"},"type":"MultiPolygon","arcs":[[[275,276,277,-290,278,-343,-377,279,-517,280]]],"id":123},{"properties":{"cd_mun_ibge":"2611002"},"type":"MultiPolygon","arcs":[[[-464,281,282,283]]],"id":124},{"properties":{"cd_mun_ibge":"2611101"},"type":"MultiPolygon","arcs":[[[284,285,286,287]]],"id":125},{"properties":{"cd_mun_ibge":"2611200"},"type":"MultiPolygon","arcs":[[[288,289,290]]],"id":126},{"properties":{"cd_mun_ibge":"2611309"},"type":"MultiPolygon","arcs":[[[291,292,293,-548,-297]]],"id":127},{"properties":{"cd_mun_ibge":"2611408"},"type":"MultiPolygon","arcs":[[[-319,294,295,296,-547,297]]],"id":128},{"properties":{"cd_mun_ibge":"2611507"},"type":"MultiPolygon","arcs":[[[298,299,300,-369,301]]],"id":129},{"properties":{"cd_mun_ibge":"2611533"},"type":"MultiPolygon","arcs":[[[302,303,304]]],"id":130},{"properties":{"cd_mun_ibge":"2611606"},"type":"MultiPolygon","arcs":[[[-404,305,306,307,308,309]]],"id":131},{"properties":{"cd_mun_ibge":"2611705"},"type":"MultiPolygon","arcs":[[[310,-452,311,312,313]]],"id":132},{"properties":{"cd_mun_ibge":"2611804"},"type":"MultiPolygon","arcs":[[[314,315,316,317,318,319,-433,-323,320]]],"id":133},{"properties":{"cd_mun_ibge":"2611903"},"type":"MultiPolygon","arcs":[[[321,322,-437,-471]]],"id":134},{"properties":{"cd_mun_ibge":"2612000"},"type":"MultiPolygon","arcs":[[[323,324,325,326,327]]],"id":135},{"properties":{"cd_mun_ibge":"2612109"},"type":"MultiPolygon","arcs":[[[-450,328,329,330]]],"id":136},{"properties":{"cd_mun_ibge":"2612208"},"type":"MultiPolygon","arcs":[[[-484,-425,331,332,-524,333,334,335,336]]],"id":137},{"properties":{"cd_mun_ibge":"2612307"},"type":"MultiPolygon","arcs":[[[-479,337,338,339,340]]],"id":138},{"properties":{"cd_mun_ibge":"2612406"},"type":"MultiPolygon","arcs":[[[341,-378,342]]],"id":139},{"properties":{"cd_mun_ibge":"2612455"},"type":"MultiPolygon","arcs":[[[-355,343,344,-358,345,346]]],"id":140},{"properties":{"cd_mun_ibge":"2612471"},"type":"MultiPolygon","arcs":[[[-419,347,-505,348]]],"id":141},{"properties":{"cd_mun_ibge":"2612505"},"type":"MultiPolygon","arcs":[[[349,350,-474,351]]],"id":142},{"properties":{"cd_mun_ibge":"2612554"},"type":"MultiPolygon","arcs":[[[352,353,354,355]]],"id":143},{"properties":{"cd_mun_ibge":"2612604"},"type":"MultiPolygon","arcs":[[[356,357,358,359,360]]],"id":144},{"properties":{"cd_mun_ibge":"2612703"},"type":"MultiPolygon","arcs":[[[-534,361,-526,-446,362]]],"id":145},{"properties":{"cd_mun_ibge":"2612802"},"type":"MultiPolygon","arcs":[[[363,-400,-455,364]]],"id":146},{"properties":{"cd_mun_ibge":"2612901"},"type":"MultiPolygon","arcs":[[[365,366,367,368,369,370]]],"id":147},{"properties":{"cd_mun_ibge":"2613008"},"type":"MultiPolygon","arcs":[[[371,372,373,374,375,376,377,378]]],"id":148},{"properties":{"cd_mun_ibge":"2613107"},"type":"MultiPolygon","arcs":[[[379,380,-462,381,382]]],"id":149},{"properties":{"cd_mun_ibge":"2613206"},"type":"MultiPolygon","arcs":[[[383,384,385,386,387]]],"id":150},{"properties":{"cd_mun_ibge":"2613305"},"type":"MultiPolygon","arcs":[[[388,389,390,391,392,393]]],"id":151},{"properties":{"cd_mun_ibge":"2613404"},"type":"MultiPolygon","arcs":[[[394,395]]],"id":152},{"properties":{"cd_mun_ibge":"2613503"},"type":"MultiPolygon","arcs":[[[-522,396,-417,397]]],"id":153},{"properties":{"cd_mun_ibge":"2613602"},"type":"MultiPolygon","arcs":[[[398,-456,399,400,401,402,-513]]],"id":154},{"properties":{"cd_mun_ibge":"2613701"},"type":"MultiPolygon","arcs":[[[403,404,405,-543,406,407,408]]],"id":155},{"properties":{"cd_mun_ibge":"2613800"},"type":"MultiPolygon","arcs":[[[409,410,411,-538,412]]],"id":156},{"properties":{"cd_mun_ibge":"2613909"},"type":"MultiPolygon","arcs":[[[413,414,415,416,417,418,419]]],"id":157},{"properties":{"cd_mun_ibge":"2614006"},"type":"MultiPolygon","arcs":[[[-483,420,421,-439,422,423,424]]],"id":158},{"properties":{"cd_mun_ibge":"2614105"},"type":"MultiPolygon","arcs":[[[425,426,-509,427,428,429,430]]],"id":159},{"properties":{"cd_mun_ibge":"2614204"},"type":"MultiPolygon","arcs":[[[431]],[[432,433,434,435,-472,436]]],"id":160},{"properties":{"cd_mun_ibge":"2614303"},"type":"MultiPolygon","arcs":[[[437,438,439,440]]],"id":161},{"properties":{"cd_mun_ibge":"2614402"},"type":"MultiPolygon","arcs":[[[441,442,443,-453]]],"id":162},{"properties":{"cd_mun_ibge":"2614501"},"type":"MultiPolygon","arcs":[[[444,445,-525,446,447,448,449,450,451]]],"id":163},{"properties":{"cd_mun_ibge":"2614600"},"type":"MultiPolygon","arcs":[[[452,453,454,455,456,457,458]]],"id":164},{"properties":{"cd_mun_ibge":"2614709"},"type":"MultiPolygon","arcs":[[[459,460,461,462]]],"id":165},{"properties":{"cd_mun_ibge":"2614808"},"type":"MultiPolygon","arcs":[[[463,464,465,466,467]]],"id":166},{"properties":{"cd_mun_ibge":"2614857"},"type":"MultiPolygon","arcs":[[[468,469,470,471,472]]],"id":167},{"properties":{"cd_mun_ibge":"2615003"},"type":"MultiPolygon","arcs":[[[473,474,-532,-491,475,476]]],"id":168},{"properties":{"cd_mun_ibge":"2615102"},"type":"MultiPolygon","arcs":[[[477,478,479,480]]],"id":169},{"properties":{"cd_mun_ibge":"2615201"},"type":"MultiPolygon","arcs":[[[481,482,483,484]]],"id":170},{"properties":{"cd_mun_ibge":"2615300"},"type":"MultiPolygon","arcs":[[[485,-540,486,487,488,489]]],"id":171},{"properties":{"cd_mun_ibge":"2615409"},"type":"MultiPolygon","arcs":[[[490,-531,491]]],"id":172},{"properties":{"cd_mun_ibge":"2615508"},"type":"MultiPolygon","arcs":[[[492,493,494,495,496,497,498,499]]],"id":173},{"properties":{"cd_mun_ibge":"2615607"},"type":"MultiPolygon","arcs":[[[500,501,502]]],"id":174},{"properties":{"cd_mun_ibge":"2615706"},"type":"MultiPolygon","arcs":[[[503,504,505,506]]],"id":175},{"properties":{"cd_mun_ibge":"2615805"},"type":"MultiPolygon","arcs":[[[507,508,509,510]]],"id":176},{"properties":{"cd_mun_ibge":"2615904"},"type":"MultiPolygon","arcs":[[[511,512,513,514]]],"id":177},{"properties":{"cd_mun_ibge":"2616001"},"type":"MultiPolygon","arcs":[[[515,516,517,518,519]]],"id":178},{"properties":{"cd_mun_ibge":"2616100"},"type":"MultiPolygon","arcs":[[[520,521,522,523]]],"id":179},{"properties":{"cd_mun_ibge":"2616183"},"type":"MultiPolygon","arcs":[[[524,525,526,527]]],"id":180},{"properties":{"cd_mun_ibge":"2616209"},"type":"MultiPolygon","arcs":[[[528,529,530,531,532,533]]],"id":181},{"properties":{"cd_mun_ibge":"2616308"},"type":"MultiPolygon","arcs":[[[534,535,536,537,538,539,540]]],"id":182},{"properties":{"cd_mun_ibge":"2616407"},"type":"MultiPolygon","arcs":[[[541,542,543,544,545,546,547,548,549]]],"id":183},{"properties":{"cd_mun_ibge":"2616506"},"type":"MultiPolygon","arcs":[[[550,551,552,553]]],"id":184}],"type":"GeometryCollection"}},"bbox":[-41.3583362,-9.482528311742913,-32.378863530428234,-3.8046222],"transform":{"scale":[8.979562465196415e-05,5.677962891371826e-05],"translate":[-41.3583362,-9.482528311742913]},"arcs":[[[4447,11281],[-21,198],[-203,129],[-469,-355],[-112,152],[71,480],[-126,384],[-339,85],[-132,-136],[-259,120],[-303,680],[181,694],[-709,-127],[-563,114],[-143,-108],[14,-157],[-246,-17],[-233,-271],[-316,176],[-272,-27],[-267,353],[238,-13],[253,215],[299,621],[402,-13],[195,246],[225,61],[78,192],[-64,554],[485,330],[227,882],[241,-158],[347,413],[186,811],[309,-141],[83,772],[404,277],[75,356],[246,36],[595,-839],[263,435],[-68,398],[198,216],[-55,493],[248,24],[120,-234]],[[66254,11352],[-521,-53],[-159,490],[-134,-229],[-152,-38],[-51,143],[-194,61],[-152,-203],[-60,152],[-509,-473]],[[47920,3083],[-25,-177],[4,629],[-112,257],[-455,502],[-243,-376],[-383,-276],[-60,313],[120,332],[-438,416]],[[59591,19745],[-35,-531],[89,-703],[377,-1840]],[[70206,28223],[-159,1203],[-397,172],[28,-505],[-428,676]],[[8883,26158],[183,576],[24,2221],[-293,523],[-855,387],[-316,443],[19,459],[424,682],[131,801],[-164,755],[-718,1457],[-157,666],[23,264],[134,293],[395,95],[150,310],[1156,716],[78,1064],[198,244],[831,-752],[424,-131],[557,228],[174,466]],[[48306,21009],[329,-234],[406,65],[108,423],[245,95],[164,295]],[[69664,12287],[-332,-804],[27,-560]],[[68192,10555],[-198,-71],[-276,213],[-1363,437],[-101,218]],[[66254,11352],[152,357],[171,-10],[207,207]],[[27879,12293],[-1080,-355],[-284,204],[-162,450],[-508,579],[-1185,390],[-275,370],[-137,-260],[-530,-71],[-189,462],[41,842],[-288,483],[-55,441]],[[60755,19339],[-2,166],[-201,161]],[[13377,37180],[327,-184],[920,20],[495,111],[828,590],[243,46]],[[54100,3870],[-796,-525],[59,-684],[-413,-177],[-113,311],[-157,-150],[-187,317],[-286,20],[-210,295],[-808,440],[-827,-302],[-350,354],[-137,-138]],[[61861,15638],[-116,173],[136,677],[-174,-56],[-90,468]],[[63010,19537],[254,-279],[-117,-964],[254,-875],[978,1099]],[[53767,6675],[-30,38]],[[43727,37441],[71,66],[143,-158],[448,199],[255,238],[-84,283],[295,576],[470,0],[118,231],[190,18]],[[57365,22138],[-426,465],[-56,208],[124,328],[-328,131],[-695,-55],[-346,-1079],[-52,287],[-858,1118]],[[46876,19004],[114,-406],[541,-251],[750,-1020]],[[48613,10319],[-600,-429],[-65,-241],[-238,-154],[-280,-487]],[[71604,22142],[45,-105],[-200,-434],[-104,-665],[108,-189],[-87,-600],[115,-232],[-60,-128],[-111,58],[-66,-195]],[[25745,19424],[-224,-107],[41,-433],[-202,-49],[-93,-166],[61,-351],[-359,-468],[61,-188],[-202,-108],[42,-187],[-93,-183],[-176,-168],[-33,218],[-159,102],[-105,-109],[26,-172],[-325,33],[-131,-174],[37,-181],[-206,-183],[-125,43],[-353,-765]],[[23227,15828],[-153,353],[-623,72],[-417,473],[-404,-164],[-216,-373],[-185,2],[-268,-521]],[[57250,17516],[-552,-1311]],[[56336,11450],[-187,164],[19,359],[-82,-91],[-75,152]],[[38074,24901],[-25,-160],[-449,-97],[-474,-679],[-40,-207]],[[62766,19284],[-445,58]],[[61392,19441],[474,411],[37,312],[340,425],[-86,268],[210,137]],[[66993,36289],[102,-12],[7,130]],[[57073,9672],[196,874],[-87,124],[83,111],[-226,5],[-103,285],[-215,-59],[-13,313],[-268,-62],[-104,187]],[[56336,11450],[559,802]],[[59302,10111],[-341,-122],[-251,-506],[-455,-212],[5,-443],[251,-311],[-106,-181],[26,-149]],[[53658,12305],[-184,460],[-277,-246],[-424,6],[-97,269],[-824,568]],[[39992,32148],[115,-165],[142,212],[42,324],[-172,292],[113,180]],[[40687,32857],[302,-497],[-187,-1302],[172,-711],[-335,-204],[295,-555],[-113,-183],[236,-182],[605,-1256]],[[30405,15255],[-260,49],[-16,247],[-1160,430],[-213,366],[-8,318],[-245,392],[-208,152],[-183,-41],[19,539],[-62,-61],[-128,229],[95,490],[-327,545],[-205,1079],[-251,301]],[[66292,30060],[191,256],[292,-106],[80,-200],[128,150],[296,-74],[142,141]],[[61010,22477],[286,-1176],[-129,-255],[99,-308],[-398,-803],[-316,-269]],[[60552,19666],[-207,-72],[-57,209],[-301,-17],[37,-322],[-278,-377],[4,439],[-159,219]],[[59591,19745],[-153,-18],[-106,-382],[-244,145],[-113,-122]],[[58306,22811],[-171,-50],[-123,452],[-178,79],[-154,290],[140,588],[-167,776],[165,126],[-43,214],[118,-59],[57,308],[281,282],[-39,126],[235,225]],[[62012,30682],[344,317],[131,-14],[119,240],[256,39],[151,273],[177,-281],[47,75]],[[63720,30320],[-381,68],[-2,-329],[-352,-32],[-89,-331],[-123,-20],[146,-214],[6,-369]],[[61787,14258],[125,109],[222,-177],[217,61],[-490,1387]],[[61861,15638],[130,-93],[144,169],[70,-166],[223,302],[264,-191],[102,98],[-26,150],[249,-355],[101,36]],[[23297,32014],[185,-330],[-31,-377],[492,272],[416,-454],[394,-143],[368,-839]],[[65614,21511],[-367,-823],[-110,-58],[-5,187]],[[69452,31932],[-278,878],[197,960],[168,179],[112,-41],[76,239]],[[57493,7710],[-79,-389],[-213,-114],[-6,-231],[-156,-300],[-355,-8],[124,-638],[-58,-548],[-146,86],[-340,-217],[-41,112],[-220,-531],[-133,-79],[-139,102],[4,-334],[-549,-58]],[[64379,18518],[-217,393],[519,890]],[[64702,20130],[160,-860],[225,-28],[98,-769],[516,-398],[146,78]],[[64763,17525],[-10,134],[-143,39],[108,154],[-8,245],[-174,84],[-7,190],[149,130],[-45,128],[-125,175],[-129,-286]],[[63572,24256],[-2092,-163]],[[59712,16477],[310,194]],[[60022,16671],[-1,-226],[235,240],[282,-351],[259,-107],[220,241]],[[61341,15663],[-32,-233]],[[38580,19191],[439,758],[-7,278],[83,105],[-70,485],[124,348],[-42,323],[547,889],[-154,2307]],[[40835,26394],[237,271],[-35,229],[231,243],[0,195],[135,115],[112,420],[155,77]],[[6683,15129],[-292,182],[16,218],[-108,96],[-176,-26],[-22,228],[-420,513],[-151,3242]],[[5530,19582],[129,-174],[239,119],[105,201],[-2,713],[297,33],[142,418]],[[67860,21833],[-1,-226],[136,-146],[30,-251],[145,77],[-2,-338],[297,97],[163,-179],[491,326],[129,-541]],[[17191,31561],[-995,-291],[-6,6493]],[[16190,37763],[203,-17],[425,251],[217,-128],[973,97],[391,-192],[591,-608],[270,-940],[638,-74],[157,-752],[130,-201]],[[99373,98768],[-13,5],[26,6],[-2,-10],[-11,-1]],[[99335,98784],[-8,11],[16,13],[0,-7],[-8,-17]],[[99572,98813],[-16,-17],[-15,39],[10,2],[21,-24]],[[99527,98832],[-6,-8],[-3,17],[5,-2],[4,-7]],[[99345,99217],[381,225],[4,167],[95,-1],[-56,-195],[93,-243],[-384,-264],[9,-191],[-116,133],[-248,-200],[-207,101],[104,-23],[325,491]],[[99305,99208],[-6,8],[2,5],[9,-13],[-5,0]],[[99298,99228],[0,-13],[-11,5],[7,11],[4,-3]],[[99630,98866],[-5,1],[-3,5],[7,2],[1,-8]],[[99611,98889],[-6,-6],[-3,7],[8,11],[1,-12]],[[99749,99028],[9,-7],[-4,-14],[-8,8],[3,13]],[[99717,99595],[3,-2],[1,-9],[-6,-3],[2,14]],[[99839,99632],[-18,18],[21,26],[7,-31],[-10,-13]],[[99868,99738],[-32,-48],[-17,12],[20,63],[29,-27]],[[99993,99903],[-98,-104],[-73,63],[177,137],[-6,-96]],[[67320,35302],[599,1005],[249,-345]],[[69059,34882],[-195,-4],[-372,-346]],[[39103,29579],[102,-148],[-18,-187],[1043,-878],[605,-1972]],[[40835,26394],[-146,-351],[-233,-200],[-261,-137],[-202,95],[-308,-527],[-64,-566],[-121,-24]],[[39500,24684],[-223,94],[-201,-145],[-355,159],[-131,-112],[-477,299],[-39,-78]],[[38074,24901],[-825,-271],[-475,1042],[-551,155],[789,949],[-196,714]],[[37392,30003],[197,111],[138,-86],[143,199]],[[30420,15190],[-15,65]],[[30405,15255],[876,5777]],[[35410,21238],[-151,-218],[-31,-437],[136,-754],[147,-307],[20,-419],[890,-322],[175,-509],[287,-203],[208,-51],[59,163],[621,-147],[401,357],[172,509],[236,291]],[[38580,19191],[157,-211],[186,-34],[689,597],[181,-185],[-151,-662],[136,126]],[[32168,10863],[-112,275],[-363,344],[-439,140],[-207,-136],[-372,-885],[-60,-1312],[-291,-557],[-414,225],[-196,505],[-39,468]],[[60607,26012],[-139,218],[-330,55]],[[67005,13342],[-692,198],[103,540],[-886,972],[-153,771],[497,492],[-44,121],[-209,-105],[-56,164]],[[52854,10149],[56,246],[499,26],[214,170],[-456,928],[491,786]],[[53658,12305],[591,-208]],[[55591,8171],[-479,-353],[-620,-695]],[[54346,6984],[-23,2036],[-179,215],[-149,66],[-242,-208],[-207,227],[-223,-424],[97,-214],[-263,42],[44,-135],[-163,-76],[57,-443],[-110,-160]],[[68308,26889],[-349,-718],[122,-275],[-156,-248],[10,-548]],[[65717,26305],[775,-256],[926,1090]],[[70001,32833],[129,111],[-3,218],[-163,174],[247,284],[68,415],[123,116],[-92,131],[-184,-91]],[[70971,35585],[-53,-473],[67,-335],[261,-544],[313,181],[208,-270],[139,118],[66,-140],[76,162],[201,-234],[141,198],[269,-188],[-34,-248],[336,-1027],[-299,-1093],[-163,-83]],[[17770,27650],[-579,3911]],[[17191,31561],[545,421],[431,-91],[281,-251],[274,193],[285,-443],[397,-62]],[[65813,23094],[-482,-220],[92,-336],[-153,-39],[-174,-304],[36,-1378]],[[65132,20817],[-200,59],[-11,-319],[-325,-251],[-56,-230],[162,54]],[[64702,20130],[-21,-329]],[[64681,19801],[-940,-274]],[[63546,22532],[-44,778],[287,967]],[[50936,6505],[172,-427],[-1152,-537],[-81,-1910]],[[49875,3631],[56,-11],[-290,-104],[-167,-284],[-128,-465],[56,-253],[-174,-230],[83,-303],[-179,-229],[-363,414],[-270,122],[-233,650],[-237,-3],[-109,148]],[[47920,3083],[274,699],[71,96],[113,-115],[203,300],[228,106],[256,596],[99,555],[-147,32],[-222,352],[-104,494],[129,110],[384,1001],[3,269],[96,47],[13,317],[316,607],[183,720],[-32,443],[250,755]],[[38984,15620],[794,3202]],[[39778,18822],[980,544],[1147,1137]],[[57591,13572],[-88,-9]],[[56623,16206],[75,-1]],[[56698,16205],[417,-186],[685,469],[815,-790]],[[72534,29344],[45,-506]],[[72299,28028],[-578,89],[-658,-246],[-857,352]],[[70206,28223],[183,155],[42,787],[151,224],[-217,345],[15,449],[-164,326],[-425,171],[-90,312]],[[71653,31537],[22,21]],[[42511,26483],[-226,-224],[-152,190],[-146,-17],[115,367],[257,296],[-96,79],[131,280],[-172,134],[-21,263],[-182,182],[19,271],[-368,-360]],[[41670,27944],[-8,23]],[[41662,27967],[-32,184],[181,379],[-91,220],[391,398],[-66,137],[171,90],[497,872],[29,193],[-169,642]],[[46636,29629],[-233,159],[-434,-274],[-146,-216],[173,-38],[67,-371],[-279,-81],[28,-495],[-476,-510],[-388,-117],[158,-79],[-11,-337],[-96,-152],[-363,-102]],[[40751,9627],[-627,1577],[-336,-235],[-102,-269],[-333,-193],[47,-401],[-148,-312],[83,-111]],[[37124,14622],[269,97],[284,-189],[248,96],[15,311],[217,296],[827,387]],[[38984,15620],[-230,-900],[230,-172],[154,-409],[244,-58],[256,186],[538,-322],[792,1],[278,-415],[-8,-489],[-220,-256],[-10,-259],[146,71],[156,-137],[627,-873],[158,253],[261,-95],[15,132],[211,102]],[[44932,31038],[-161,-173],[-205,-709],[-405,-50],[-674,-404],[-145,360],[-149,47],[-31,470],[-358,354],[-55,280]],[[71244,19652],[-111,-49],[5,-194],[-113,-11],[250,-265],[-471,-1615],[-71,-1306],[-158,29],[-142,-199],[-161,-664]],[[68548,17674],[-390,1084],[503,723],[29,381],[218,-6],[185,603],[155,193]],[[69248,20652],[356,-425],[84,131],[180,-81],[195,-327],[254,9],[220,-252],[136,106],[218,-74],[120,153],[233,-240]],[[71270,19305],[-96,23],[26,224],[85,-65],[-15,-182]],[[12092,33822],[-811,4103]],[[11281,37925],[298,455],[619,41],[750,-1007],[429,-234]],[[13377,37180],[592,-5556]],[[29675,9930],[-53,651],[-208,504],[-252,146],[-717,980],[-566,82]],[[27879,12293],[-24,186],[92,113],[-67,674],[126,594],[2414,1330]],[[30420,15190],[-111,-199],[99,-103],[82,-519],[-224,-568],[-258,-1897],[70,-407],[-24,-1102],[-154,-315],[-225,-150]],[[47409,9198],[21,-190]],[[47430,9008],[-126,-556],[-542,-1033],[-16,-1391],[-418,-1325]],[[46328,4703],[-402,-435],[62,258],[-203,819],[-173,355],[-220,177],[-391,994],[-150,30],[-309,648],[-583,786],[-548,143],[-265,214],[-101,-78],[-75,446],[-215,-4]],[[72621,29340],[4,-3],[-42,9],[11,5],[27,-11]],[[72534,29344],[-502,255]],[[72341,31191],[158,418]],[[72499,31609],[183,-211],[97,-776],[-154,-1153],[-91,-125]],[[69059,34882],[-185,193],[7,126],[-343,185],[-51,239],[-78,-34],[-241,371]],[[68168,35962],[-99,290],[-300,352],[-565,-283],[-102,86]],[[67102,36407],[-24,151],[289,-40],[361,425],[406,168],[453,-218],[98,-178],[208,173],[714,-308],[417,119],[947,-1114]],[[70971,35585],[-1029,-912],[184,-482]],[[70126,34191],[-399,-44]],[[69727,34147],[-114,223],[-175,-175],[-195,577],[-184,110]],[[45527,36799],[-139,427],[17,345],[210,731],[18,592]],[[45633,38894],[295,4],[223,-306],[195,-60],[313,-445],[36,-293],[227,27],[107,-204],[554,-204],[202,-443],[195,102],[271,-149],[141,-321],[-145,-320],[128,-140],[-102,-61],[27,-112],[266,-338],[146,-402],[-212,-249],[-81,120],[-169,-131]],[[72341,31191],[-8,-303],[-237,-639],[-64,-650]],[[72032,29599],[-401,-44],[-191,1134],[18,330],[217,539]],[[71675,31558],[264,145],[91,-196],[-71,-160],[125,-207],[257,51]],[[69455,31914],[84,30],[87,425],[270,148],[105,316]],[[70001,32833],[1652,-1296]],[[71653,31537],[-154,-234],[-267,-56],[-167,-448],[-246,45],[-513,-234],[-590,516]],[[71825,23378],[-101,-1001],[-120,-235]],[[71604,22142],[-156,-301],[-171,126],[-21,337],[-129,-46],[-62,-218],[-107,216],[-98,-96],[-130,321],[-639,-295]],[[61745,14220],[-19,-554],[232,171],[178,-253],[96,139],[267,-42],[19,-275],[-95,-39],[7,-196],[-176,-263],[4,-168],[-114,-31],[41,-87]],[[54728,23541],[-555,337],[-41,-319],[-556,-1149],[-375,76],[-276,-116]],[[52021,23368],[-76,263],[727,523],[9,145],[-216,182],[-118,288],[334,359],[0,1222],[177,678],[428,-168],[-72,155],[82,223],[-25,501],[254,155],[586,-380],[126,86],[89,-165],[178,166],[198,-18]],[[54731,27515],[707,-995],[-710,-2979]],[[36372,5456],[-575,-801],[-150,-782],[-180,-397],[-329,-207],[-384,-579],[-556,1984],[83,185],[-84,577],[-282,449]],[[63149,28808],[1260,286],[64,-81],[585,621],[141,-179]],[[64228,17053],[535,472]],[[64763,17525],[205,-84],[-1,-231],[277,127]],[[65380,17205],[-376,-898],[-32,-398],[128,-988],[-278,-412]],[[54723,12027],[-474,70]],[[54249,12097],[-338,584],[115,308],[-85,221],[183,273],[-116,155],[242,70]],[[55414,14922],[149,-920],[-30,-994],[478,-974]],[[56011,12034],[-50,-126],[-101,97]],[[55208,12424],[-527,2101]],[[57591,13572],[58,829]],[[58325,11372],[-319,190],[6,380],[-91,-12],[-243,404],[-419,-196],[332,1434]],[[66292,29192],[327,117],[190,-187],[242,130],[215,-160],[252,180],[146,-345],[-82,-590]],[[67582,28337],[226,-317],[317,68]],[[67950,27127],[-532,12]],[[67418,27139],[-216,174],[-351,723]],[[66851,28036],[192,-73],[82,279],[161,-128],[296,223]],[[55186,4563],[-188,-108],[-39,245],[-153,63],[-284,-478],[-275,-17],[-36,-370],[-111,-28]],[[54100,3870],[-122,191],[45,310],[-149,189],[1,304],[-54,-54],[56,181],[-69,247],[209,177],[44,186],[-126,113],[-39,298],[72,163],[-150,16],[97,164],[-126,80],[-22,240]],[[53767,6675],[579,309]],[[54346,6984],[146,139]],[[54492,7123],[223,146],[96,-258],[239,-54],[136,-2394]],[[60252,15024],[556,306],[501,100]],[[61309,15430],[-22,-127],[207,-312],[84,90],[133,-365],[108,-51],[-32,-407]],[[61787,14258],[-42,-38]],[[61745,14220],[-87,-104],[8,-492],[-269,-126],[-7,-334],[-170,-285]],[[10344,14759],[-187,447],[220,507],[90,513],[388,438],[90,592],[323,-117]],[[15072,7445],[-675,-57],[-132,-267],[-585,-565],[-391,67],[-67,229],[-421,523]],[[55414,14922],[-1,5]],[[55976,15283],[647,923]],[[56623,16206],[-211,-1213],[272,120],[819,-1550]],[[57503,13563],[-265,-25],[-343,-1286]],[[56895,12252],[-1481,2670]],[[65010,27795],[-89,442],[203,324],[75,894]],[[65199,29455],[297,217],[8,233],[-98,131],[36,589],[204,408],[71,114],[425,-128]],[[66212,30681],[-279,-174],[359,-447]],[[66292,30060],[0,-868]],[[66292,29192],[193,-448],[207,-173],[159,-535]],[[66851,28036],[20,-168],[-91,-84],[-238,34],[-357,-367],[-299,-656]],[[65219,34696],[85,534],[451,345],[38,162],[178,-307]],[[65851,31530],[-329,-137],[-100,-516],[-312,-355],[-258,9],[39,90],[-141,145],[51,113],[-120,107],[21,105]],[[42755,9056],[-156,149],[-297,-212],[-415,50],[-146,-331],[-306,-280],[-31,164],[-161,3],[-36,149],[-268,-203],[-196,234],[310,168],[-302,680]],[[40751,9627],[740,601],[1091,1752]],[[42582,11980],[227,216],[1655,-146]],[[44464,12050],[-376,-715],[7,-708],[-251,124],[-46,285],[-197,-6],[7,219],[-164,-204],[-267,210],[-116,-74],[193,-237],[-36,-215],[101,-42],[87,-297],[-104,-269],[158,-6],[-41,-165],[82,-164],[-227,-117],[-67,158],[-406,-226],[-46,-545]],[[61374,11880],[255,125],[43,387],[513,230]],[[62185,12622],[362,274],[197,-161],[37,-732]],[[62754,10093],[-280,-136],[-276,194],[-109,152],[78,688],[-212,190],[-143,-224],[-168,52],[-31,-227],[-214,-38]],[[31281,21032],[-881,-396],[-271,384],[-962,775],[-816,173]],[[70091,22186],[-619,682],[-342,-39],[-126,-677],[-590,665]],[[70161,24561],[-433,-1298],[340,-648],[23,-429]],[[68000,29479],[-579,748]],[[67421,30227],[498,1596]],[[67919,31823],[202,-525],[16,173],[314,250],[296,-119],[212,-453],[117,78]],[[72725,26830],[-138,-862],[-229,-409],[4,-232]],[[64991,32039],[90,62],[29,-117],[-162,-199],[64,-307],[-310,-387]],[[64702,31091],[-408,-437],[-329,-739],[-245,405]],[[63720,30320],[-160,323],[-150,38],[-173,650]],[[63237,31331],[386,196],[372,667],[281,76],[405,-193],[260,283]],[[19923,21718],[320,-1546],[-177,-457],[13,-657],[-113,-247],[50,-387],[109,-143],[28,-410],[386,-815],[411,-352],[11,-1034]],[[20961,15670],[-473,-196],[-980,-917],[-439,-65]],[[8715,25574],[168,584]],[[8883,26158],[383,0],[73,802],[161,142],[133,474],[318,209],[130,502],[1203,487]],[[12472,31655],[297,143],[548,-455],[652,281]],[[13969,31624],[167,-1608],[-86,-103],[120,-405],[203,-38],[626,292],[805,-523],[124,-548],[-170,-714],[370,-819],[75,-644],[69,44],[247,-447],[12,-201],[228,-293]],[[62781,12003],[642,1090],[238,173],[-733,-16],[435,1077],[-301,640],[291,610],[-235,11]],[[63118,15588],[-113,456],[40,402],[-150,27],[721,225],[86,-309],[526,664]],[[64228,17053],[224,-2035],[301,-236],[-5,-253],[74,-20]],[[64822,14509],[-302,-441],[78,-596],[-503,-434],[-38,-588]],[[55591,8171],[-124,517]],[[56264,9323],[562,6],[247,343]],[[57073,9672],[-146,-1128],[301,-108],[22,-361],[240,102],[89,-149],[109,117],[230,-226],[513,268]],[[58431,8187],[-349,-399],[-589,-78]],[[57493,7710],[-640,-252],[-464,163],[-523,-53],[-196,99],[-79,504]],[[58832,12540],[-5,683],[-203,6],[202,185],[-537,97],[-640,890]],[[57649,14401],[296,597],[670,700]],[[58615,15698],[75,-46],[105,227],[713,448],[30,261],[109,118],[65,-229]],[[59712,16477],[295,-1201],[245,-252]],[[60252,15024],[-282,-748],[-64,-950],[61,-324],[74,20]],[[50039,10454],[-6,13]],[[50033,10467],[-34,16]],[[51221,11426],[1019,22],[-46,-392],[63,-245],[228,-17],[369,-645]],[[52854,10149],[76,-110],[-99,-221],[83,-295],[-208,-83],[-59,-176]],[[21097,21909],[-353,-162],[-145,153],[-338,26],[-51,-130],[-287,-78]],[[19923,21718],[-1274,-1781],[-10,-353],[184,-430],[-72,-255],[111,-167],[-102,-153],[16,-510]],[[12929,22217],[88,1224],[135,-480],[318,347],[644,157],[436,-385],[244,111],[267,-79],[84,-155],[-86,-184],[141,-90],[-16,-160],[431,-398],[356,217],[45,-119],[168,58],[-122,414],[-57,-73],[-134,214],[-110,763],[998,2018]],[[16759,25617],[1011,2033]],[[17770,27650],[2105,736]],[[65717,26305],[-105,-709],[307,-186],[129,-733]],[[65658,24458],[-538,638],[-809,-371],[-522,-448]],[[63789,24277],[-217,-21]],[[63572,24256],[-9,568],[-156,457],[276,85],[72,313],[224,52],[42,147],[-497,1213]],[[65085,27192],[156,334],[645,-731]],[[65886,26795],[-169,-490]],[[68957,26514],[-649,375]],[[68308,26889],[-358,238]],[[67950,27127],[72,797],[103,164]],[[68125,28088],[292,-27],[-124,1144]],[[69250,29769],[186,-1038],[260,-545],[573,-479],[195,-360]],[[70487,27275],[-87,-112]],[[70808,27357],[-161,67],[-160,-149]],[[70487,27275],[-23,72]],[[70464,27347],[115,242],[654,8],[514,-203],[96,-155],[154,405],[360,56],[-58,328]],[[72299,28028],[277,493],[3,317]],[[72579,28838],[35,91],[198,-1365],[-87,-734]],[[72725,26830],[-305,73],[-30,-214],[76,-9],[-144,-123],[-93,81],[-11,-188],[-450,24]],[[48613,10319],[248,3263],[-198,2713],[-146,282],[-507,-19],[-273,142],[544,627]],[[48281,17327],[215,580],[-39,337],[146,175],[124,-243],[498,81],[153,-322],[307,393]],[[51062,13220],[-10,-526],[166,-227],[-235,-422],[285,-519],[-47,-100]],[[51221,11426],[-201,-925],[231,131],[92,-152],[-335,-704],[-690,770],[-424,15],[105,-78]],[[49999,10483],[-308,-175],[-57,-208],[-447,200],[-574,19]],[[50523,18723],[-536,-680],[-98,61],[-29,345],[-175,-121]],[[49685,18328],[-109,-39],[42,108],[-278,249],[218,3007]],[[49558,21653],[518,540],[823,574]],[[52925,22370],[508,-1233]],[[52836,16289],[-582,-642],[-49,-313],[-193,-295],[236,-560],[-260,-172]],[[51223,15566],[187,520],[146,80],[150,519],[216,174],[89,-58],[-143,1887],[-934,-27],[-229,-507],[-182,569]],[[35117,6667],[-1202,-782]],[[33915,5885],[-95,555],[188,354],[-175,96],[-62,235],[412,663],[-348,867],[-314,-36],[-539,-703],[-209,-97],[-453,298],[-576,836],[-128,613],[446,663],[106,634]],[[32168,10863],[176,500],[543,354],[313,462],[198,-18],[220,248],[124,-54],[258,468],[183,-100],[257,138],[66,782],[301,347],[516,193],[497,-351],[115,108],[345,-88],[207,262],[184,-58]],[[12801,7375],[-385,145],[-370,-591],[-186,-1015],[84,-618],[-183,-1231],[-377,-1329],[12,-471],[-238,-406],[-388,85],[-227,317],[-134,12],[-136,-153],[-355,-1029],[-328,211],[-355,-93],[-297,-776],[-439,-166],[-284,-267],[-675,270],[-455,374],[-309,37],[-299,-187],[191,447],[-60,280],[248,220],[-42,522],[102,602],[-213,385],[189,325],[216,-164],[142,200],[-3,162],[241,158],[65,302],[-102,39],[31,237],[-89,178],[265,788],[37,522],[-198,378],[-276,-58],[-252,297],[-273,74],[3,261],[-326,-3],[-254,202],[-135,243],[-156,1254],[-189,460],[4,530],[-108,79],[-55,434],[-167,136],[-243,1004],[-203,409],[-279,-169],[-141,53]],[[4447,11281],[162,308],[0,641],[161,346],[210,-130],[1703,2683]],[[6683,15129],[1993,-771],[1668,401]],[[10344,14759],[277,-756],[128,-87],[5,-628],[-103,-463],[118,-506],[-66,-157],[172,-319],[226,-135],[-6,-629],[202,-178],[363,22],[426,-688],[12,-493],[-283,-168],[-85,-272],[126,-298],[-41,-413],[177,-247],[199,301],[140,-61],[470,-1209]],[[52021,23368],[98,-391],[146,-48],[209,-488],[141,-95],[182,67],[59,774],[69,-817]],[[52925,22370],[-391,-1284],[-860,268],[-95,210],[-144,-93],[-324,88],[-155,-306],[-194,-49],[-18,270],[-146,148],[-36,253],[184,704],[153,188]],[[50899,22767],[256,-123],[111,77],[53,295],[382,147],[-78,288],[398,-83]],[[65916,21661],[-33,306],[150,333],[-79,551],[66,357],[-207,-114]],[[65813,23094],[109,780],[-450,396],[186,188]],[[65658,24458],[217,250],[149,-28]],[[66292,18570],[357,832],[-1035,2109]],[[65614,21511],[65,-80],[67,206],[170,24]],[[65916,21661],[148,-37],[28,-197],[101,-41],[131,201],[169,-68],[161,-297],[64,48],[-74,-241],[84,-185]],[[66823,20817],[115,-930],[175,-151],[-271,-314],[-91,-282],[235,-254],[-32,-309]],[[59302,10111],[-310,235],[-717,929],[50,97]],[[58325,11372],[337,1056],[170,112]],[[58832,12540],[219,272],[171,-141],[172,-480],[-26,242],[461,-77],[178,220],[42,310]],[[60222,10395],[-609,-364],[-311,80]],[[39103,29579],[-360,390],[-873,258]],[[37870,30227],[395,751],[-18,150],[121,99],[208,-73],[-93,332],[246,196],[262,558],[524,142],[96,311],[174,8],[207,-553]],[[39992,32148],[-21,-325],[132,-240],[-283,95],[-172,-1244],[-545,-855]],[[70852,25461],[381,273],[8,806],[-437,211],[19,267],[-108,48],[93,291]],[[70808,27357],[213,-215],[361,210],[361,-94],[77,-162],[-52,-622]],[[71768,26474],[-34,-154],[490,-515],[-29,-253],[167,-225]],[[72362,25327],[-537,-1949]],[[71825,23378],[-138,236],[-393,67],[36,225],[-81,-35],[34,276],[-158,582],[-160,67],[-107,244],[-235,87]],[[60607,26012],[333,-37],[86,315],[284,-101],[114,209],[348,37],[72,141]],[[62370,26552],[23,-318],[-128,-201],[62,-187],[-283,-48],[-109,-290],[-79,51],[35,-229],[-171,-268],[-140,38],[-149,-305],[33,-457],[86,-132],[-70,-113]],[[61480,24093],[-153,-819],[-427,-243],[110,-554]],[[61010,22477],[-413,338],[-62,-285],[-598,643],[-99,399],[769,2440]],[[65565,16495],[-75,348],[-128,105],[18,257]],[[65380,17205],[-19,197],[-117,-65]],[[65244,17337],[-37,343],[488,245],[152,228]],[[65847,18153],[216,433],[229,-16]],[[66292,18570],[-4,-170],[202,351],[171,-121],[88,277],[205,-330]],[[66954,18577],[46,-305],[326,442],[-163,-509],[125,-532],[156,-184],[137,448],[191,-415]],[[67862,15003],[-768,949],[-260,624],[-202,-154],[-99,163],[-92,-301],[-400,321],[-12,543],[-370,-69],[-94,-584]],[[67005,13342],[4,341],[-190,280],[168,655],[383,428],[492,-43]],[[67862,15003],[2,0]],[[62367,20994],[435,733],[80,427],[664,378]],[[63546,22532],[84,-1483],[339,-998],[-228,-524]],[[63741,19527],[-731,10]],[[63010,19537],[-244,-253]],[[62766,19284],[-191,821],[110,462],[-318,427]],[[63224,27695],[727,537],[323,-283],[285,106],[99,-159],[230,85],[122,-186]],[[65010,27795],[75,-603]],[[65085,27192],[-195,136],[-89,-277],[-200,107],[-263,-105],[-220,192],[-208,-162],[-249,107],[-137,-99]],[[24973,30044],[148,99]],[[25121,30143],[163,-1085],[-56,-439],[313,318],[124,356],[304,-94],[93,211]],[[27259,24582],[-234,-348],[-63,-323],[402,-654],[351,-138],[30,-326],[-111,-432],[290,-219],[264,67],[163,-241]],[[28351,21968],[-296,-700],[-802,-978]],[[27253,20290],[-192,-459],[-650,52],[-81,-27],[-32,-338],[-553,-94]],[[25745,19424],[-1806,2685],[-454,236],[-583,-239],[-173,788]],[[51999,8139],[-244,-91],[-349,-695],[-90,-406],[-214,-77],[-166,-365]],[[50936,6505],[-197,473],[171,1377],[-871,2099]],[[50039,10454],[1515,-1146],[171,47],[55,185],[652,114],[215,-390]],[[52647,9264],[-65,-529],[122,-281],[-126,-323]],[[53433,21137],[1,143],[277,385],[-77,222],[131,9],[36,-127],[156,272],[242,-85],[62,-294],[-150,-312],[11,-318],[-302,-258],[274,-379],[182,177],[-92,-1227],[-199,-316]],[[53459,17190],[-775,2838],[271,599],[478,510]],[[10355,24882],[180,-240],[346,152],[302,-219],[94,286],[201,55],[109,187],[316,-172],[322,203],[193,-381],[233,46],[65,-158],[-457,-1036],[51,-224],[213,-203],[169,-960],[237,-1]],[[12929,22217],[-37,-614],[1262,-1432],[-264,-105],[26,-86]],[[12942,17099],[-139,157],[-351,-142],[-176,247],[-160,-231],[-211,196],[-107,-226],[-174,-66],[-241,-28],[-115,133]],[[11268,17139],[-124,229],[46,506],[-127,637],[-237,350],[-105,-79],[-9,142],[-277,66],[-154,257]],[[34928,29274],[643,712],[279,-111],[213,-577]],[[36064,27721],[-485,56]],[[54731,27515],[-29,68]],[[54702,27583],[185,525],[-119,146],[126,198],[56,903],[329,144],[235,-89],[141,122],[575,-17],[508,-441]],[[57838,26710],[-1094,213],[-323,180],[-392,-440],[-171,161],[-119,-52],[-56,231],[-150,-40],[-93,260],[-231,-24],[-249,286],[-229,30]],[[6440,20892],[-27,757],[423,233],[170,267],[245,25],[74,368],[351,442],[29,280],[255,72],[107,318],[363,-189],[130,200],[-150,766],[305,1143]],[[8715,25574],[1576,-25],[91,-83],[-27,-584]],[[10355,24882],[-189,-3609],[-167,-598],[132,-138],[8,-416],[200,-376],[-58,-498]],[[10281,19247],[-102,336],[-202,171],[-365,-162],[-375,63],[-130,-313],[-363,376],[-423,-167],[-113,77],[-270,-228],[-153,34],[-54,176],[-162,-98],[-83,292],[-190,189],[-153,-68],[-287,248],[-139,-91],[-96,691],[-181,119]],[[15072,7445],[-214,35],[-2,686],[-69,231],[-192,159],[96,374],[-370,373],[-178,66],[-96,-112],[322,3648],[-66,2069],[-122,2],[-181,361],[-220,-1],[-225,231],[-277,454],[8,424],[-344,654]],[[12942,17099],[68,419],[-81,466],[167,675],[333,292],[206,806],[281,223]],[[13916,19980],[152,-19],[141,-393],[434,126],[236,-165],[206,338],[481,-425],[229,251],[489,-151],[688,763],[518,-54],[182,-152],[53,-213],[200,140],[71,-540],[174,-31],[45,-259],[135,-134],[-34,-165],[284,-339],[176,-489]],[[18776,18069],[202,-383],[40,-321],[227,-153],[-146,-244],[-30,-2476]],[[19069,14492],[-512,-80],[202,-1431],[-23,-754],[-214,-199],[-586,98],[-500,-456],[-335,113],[-782,-270],[-111,-527],[262,-760],[66,-499],[-141,-544],[-801,-1541],[-522,-197]],[[60303,29809],[117,98],[317,-138],[260,456]],[[61654,28584],[-577,-70],[-417,-275]],[[43727,37441],[238,-410],[311,122],[168,-114]],[[42726,35982],[387,782],[-101,533],[715,144]],[[61220,12879],[154,-999]],[[61374,11880],[25,-1136]],[[61399,10744],[-189,249],[-279,-83],[-102,155],[-54,-144],[-116,20],[-143,-411],[-294,-135]],[[60222,10395],[-173,2491]],[[60049,12886],[-8,136]],[[60041,13022],[1179,-143]],[[55651,19256],[61,-643],[390,-1098],[153,-766],[-214,-568],[-65,-898]],[[55976,15283],[-563,-356]],[[55413,14927],[-732,-402]],[[54681,14525],[-200,-119],[-17,-457],[-214,-241]],[[54250,13708],[-126,414],[-397,389],[-96,631],[-208,-352],[-139,317],[61,101],[-16,113],[-91,-65],[-111,275],[-242,-99],[68,211],[-144,413],[27,233]],[[52836,16289],[623,901]],[[53459,17190],[550,925],[-24,914]],[[53985,19029],[115,-148],[170,15],[-31,121],[122,-60],[84,288],[169,35],[75,-208],[137,12],[339,429],[120,-271],[366,14]],[[58975,19368],[-89,-306],[-100,111],[31,255],[-603,-387],[-35,-475],[-929,-1050]],[[57250,17516],[-74,600]],[[57523,21951],[572,762],[142,-62],[69,160]],[[58306,22811],[535,-864],[134,-2579]],[[56264,9323],[-65,-220],[-350,-353],[-382,-62]],[[55467,8688],[-251,580],[25,300],[-142,231],[-2,250],[-222,161],[-197,366],[-155,644],[200,807]],[[54723,12027],[197,15],[288,382]],[[55208,12424],[93,-78],[-94,-34],[7,-141],[240,17],[65,-165],[39,99],[104,-63],[122,229],[76,-283]],[[55860,12005],[301,-747],[-79,-446],[182,-1489]],[[61617,16900],[-188,-86],[2,-232],[-175,115],[-83,-163],[169,-212],[85,-360],[-86,-299]],[[61341,15663],[-257,25],[-116,270],[49,510]],[[61017,16468],[-243,584],[151,311],[-11,517],[-189,185],[80,507],[-254,139],[9,329],[195,299]],[[60755,19339],[637,102]],[[61392,19441],[-6,-217],[818,310],[117,-192]],[[62321,19342],[117,-295],[-90,-153],[129,-360],[-255,-416],[-240,-159],[-212,-111],[-146,143],[-162,-369],[201,-411],[-46,-311]],[[68192,10555],[-321,487],[1414,459],[-30,-241],[104,-337]],[[69359,10923],[-250,-907],[-207,410],[-422,-21],[-288,150]],[[26685,28855],[-31,252],[278,612],[-71,241],[75,399],[262,4],[6,247],[380,-52],[6,396],[134,243],[454,-149],[145,392],[-102,335],[50,238],[323,-111],[299,260],[235,-69],[62,447],[246,229],[316,-231],[155,-418],[103,22],[143,-195],[-8,-150],[104,-9],[540,-1351]],[[30737,23780],[-102,-196],[-232,109],[-77,-141],[-164,165],[-219,592],[-210,50],[-39,587],[-138,299],[-823,812],[-581,-237],[-527,111]],[[44340,32687],[-429,-289]],[[43528,34300],[285,547],[532,531],[172,1367],[-69,29],[-4,265]],[[44444,37039],[115,42],[54,403],[69,-273],[333,69],[291,-520],[221,39]],[[45527,36799],[17,-263],[204,254],[261,-355],[276,21],[184,-706],[350,-30],[-95,-202],[25,-524],[360,261],[30,-144],[1111,-142]],[[48250,34969],[-1067,-689],[-640,-1074],[-197,-572],[-7,-279],[525,-1258]],[[70852,25461],[15,-162],[-244,-172]],[[70623,25127],[-428,-202],[-34,-364]],[[70161,24561],[-484,-10],[-271,234],[-167,-305],[-630,196]],[[68334,25778],[197,128],[121,295],[174,-2],[131,315]],[[68957,26514],[118,135],[634,-55],[230,204],[21,193],[333,31],[107,141]],[[70400,27163],[67,-315],[152,-22],[94,-221],[-91,-323],[162,-491],[-160,-30],[47,-279],[181,-21]],[[64991,32039],[-50,321]],[[64941,32360],[132,33],[-185,380],[65,249],[86,20],[33,377],[-176,-88],[-70,164],[112,189],[83,608],[198,404]],[[65219,34696],[128,-335],[9,-430],[264,88],[117,-136],[41,-346],[-76,-337],[94,-93]],[[65851,31530],[-218,371],[-114,-112],[-455,471],[-73,-221]],[[37086,23758],[10,-104],[-235,-204],[-159,52],[-257,-280],[-232,-399],[-116,-592],[-177,80],[-217,-135],[-242,-420],[80,-336],[-120,-33],[-11,-149]],[[35410,21238],[-312,-155],[-629,565],[-354,-605],[-314,-68],[-496,190],[-433,-440],[-126,-291],[15,-324],[-161,-140],[44,-108],[-103,-24],[-63,-250],[-125,11],[-204,-646],[-252,-261],[-63,-236],[-208,-123],[12,756],[142,649],[-53,212],[98,240],[142,43],[13,334],[-185,-83],[-39,225],[-327,320],[-148,3]],[[31281,21032],[-68,439],[83,237],[136,-28],[111,248],[-119,116],[-587,1810],[-100,-74]],[[30737,23780],[-247,590],[140,1083],[555,1714],[30,611],[-804,1467],[45,621],[333,571]],[[30789,30437],[163,136],[210,-185],[189,143],[150,-108],[325,64],[111,296],[296,67],[100,234],[506,-227],[62,282],[368,283],[150,374],[142,-314],[266,-52],[98,-324],[-43,-214],[153,-294],[-163,-342],[193,11],[54,-246],[-88,-239],[175,-682],[537,-9],[185,183]],[[34928,29274],[170,-314],[-201,-447],[20,-390],[-171,-359],[833,13]],[[35579,27777],[-52,-419],[209,-286],[579,-1915],[771,-1399]],[[22251,25221],[-1035,-184],[-214,149],[-125,255],[-35,557],[368,966],[-1283,-648],[24,672],[-115,236],[205,208],[16,247],[-159,271],[65,345],[-88,91]],[[19875,28386],[165,316],[-169,357],[5,185],[127,156],[-114,144],[-7,323],[-204,197],[12,171]],[[21899,33011],[176,-63],[785,-954],[437,20]],[[23297,32014],[-37,-314],[135,-348],[-284,-868],[134,-343],[-36,-279],[1764,182]],[[24973,30044],[-291,-379],[-46,-509],[-824,-1308],[-127,-564],[89,-563],[-129,-345],[-34,-709],[-538,-422],[-129,104]],[[48306,21009],[-124,-174],[-181,-856],[-256,-100],[-546,-737],[-323,-138]],[[46876,19004],[-426,-299],[-402,268]],[[44432,18741],[-167,90],[-132,-315],[-78,81],[-23,-132],[-152,-54],[-29,-264],[-106,152],[-56,-220],[-261,-65],[-258,361],[-489,-5],[-317,485],[-157,-6],[-79,141],[-453,-139],[17,722],[156,200],[57,730]],[[41905,20503],[352,739],[-83,171],[137,7],[319,684],[-61,489],[118,-32],[112,282],[-37,517],[-147,349],[1,612],[232,768],[-337,1394]],[[42511,26483],[379,193],[283,-78],[141,527],[151,-159],[333,193],[249,-301],[444,3],[145,155]],[[44636,27016],[-80,-465],[196,-85],[492,262],[203,-124],[644,-15],[-15,228],[145,141],[169,-154],[-8,-392],[202,-246],[166,-6],[112,-319],[22,-349],[-108,-284],[160,-647],[13,-528],[-179,-369],[84,-196],[-140,-277],[250,-202],[255,33],[-87,-284],[148,-557],[138,-187],[217,208],[150,-144],[-147,-194],[-6,-445],[422,32],[252,-442]],[[70553,15378],[33,-55],[-15,-59],[-48,42],[30,72]],[[67864,15003],[-180,1230],[138,548],[-50,741]],[[67772,17522],[1,167],[775,-15]],[[68548,17674],[391,8],[263,-208],[203,-510],[541,-176],[-61,-302],[145,-361],[-38,-276],[280,-471]],[[70272,15378],[-262,-762],[4,-345],[-183,-327]],[[69667,14021],[-115,126],[-143,560],[-165,31],[-467,1055],[-113,-661],[-221,-465],[-393,-67],[-186,403]],[[20185,35199],[484,349],[141,-146],[322,21],[39,-616],[-311,-498],[135,-697],[426,4],[169,-539],[309,-66]],[[21899,33011],[-562,-897],[-142,109],[-509,-432],[-102,-389],[99,-485],[-144,-44],[16,-177],[-541,-80],[-79,100],[-115,-374],[-130,-107]],[[19690,30235],[-215,239],[-71,854]],[[19404,31328],[124,453],[-143,681],[172,193],[36,379],[233,169],[269,498],[-95,516],[181,525],[4,457]],[[42273,32553],[-524,142],[-260,-221],[-136,87],[-122,350],[-192,-49],[-57,159],[-109,-187],[-186,23]],[[40687,32857],[-455,134]],[[40232,32991],[189,521],[235,141],[12,372],[271,39],[252,445],[325,-165],[116,116]],[[61844,26576],[-140,298],[-7,459],[112,233],[-155,1018]],[[61654,28584],[-265,895]],[[62431,29470],[115,-291],[85,174],[142,-277],[50,94],[102,-77]],[[62925,29093],[80,-64],[11,-250],[133,29]],[[63149,28808],[27,-405],[-106,-436],[154,-272]],[[63224,27695],[45,-166],[230,-104],[25,-334]],[[63524,27091],[-342,-257],[-259,17],[-553,-299]],[[62370,26552],[-69,-69],[-252,172],[-205,-79]],[[42273,32553],[-641,1907]],[[41632,34460],[114,315],[854,618],[126,589]],[[42726,35982],[689,-864],[113,-818]],[[43528,34300],[205,-190],[25,-748],[-93,-154],[246,-810]],[[43911,32398],[-242,-416],[-490,-79],[-153,-173],[-7,-217],[-270,-300]],[[42749,31213],[-126,6],[-50,-137]],[[42573,31082],[-219,58],[81,1124],[-162,289]],[[55651,19256],[292,1182],[18,454],[925,374],[468,632],[11,240]],[[57365,22138],[158,-187]],[[57523,21951],[91,-351],[-483,-514],[49,-484],[105,-7],[-41,-337],[105,-349],[-261,-834],[173,-312],[-58,-114],[103,-504],[-130,-29]],[[57176,18116],[-1249,1039],[41,233],[-317,-132]],[[35117,6667],[-84,2191],[77,520],[-110,1193],[-230,473],[1901,3012]],[[36671,14056],[33,-130],[124,75],[126,226],[2,279],[168,116]],[[37124,14622],[204,-489],[11,-4980],[305,-1002],[185,353],[316,25],[564,840],[196,-158],[182,333],[248,139]],[[39335,9683],[-299,-1187],[-295,-269],[14,-380],[-305,-71],[-24,-197],[-487,-795],[-67,-322],[-152,-154],[-81,-410],[-139,-136],[-387,-2],[-51,-167],[-374,-155],[-316,18]],[[36372,5456],[-1187,362],[-68,849]],[[69664,12287],[-260,-291],[-280,453],[-456,27],[-350,360],[-261,-394],[-148,62],[70,-179],[-122,65],[-1073,-484]],[[66784,11906],[238,1044],[-17,392]],[[67005,13342],[869,684],[1451,-966],[406,228],[-64,733]],[[69667,14021],[164,-77]],[[69831,13944],[103,-342],[-117,-272],[30,-391],[-209,-370],[26,-282]],[[57838,26710],[-85,152],[31,308],[-816,838],[-262,419],[32,647]],[[56738,29074],[262,247],[-26,182],[-134,100],[26,168],[394,494],[113,-111],[62,-344],[1336,192],[133,-34],[169,-359],[132,135],[227,-292],[204,-45]],[[58585,26028],[-128,6],[-30,134]],[[58427,26168],[57,327],[-60,137],[-375,122],[-126,-181],[-85,137]],[[53737,6713],[-337,-311],[-499,-47],[-107,114],[-53,-98],[-62,130],[-357,-228],[-536,229],[198,775],[15,862]],[[51999,8139],[579,-8]],[[52578,8131],[407,-221]],[[52985,7910],[89,-134],[-48,-180],[110,128],[91,-362],[206,-98],[-78,-125],[105,76],[145,-122],[-7,-371],[139,-9]],[[21097,21909],[-81,354],[-113,-93],[-166,196],[-46,-110],[-164,112],[-103,-76],[-197,192],[-63,296],[768,594],[165,274],[436,-172],[-62,522],[167,-1],[199,815],[414,409]],[[22251,25221],[383,-57],[310,185]],[[22944,25349],[-194,-866],[137,-41],[132,-290],[-88,-190],[22,-548],[-224,-520]],[[22729,22894],[-221,-33],[15,-170],[-178,-178],[-68,143],[-88,-88],[-128,-305],[80,-94],[-103,-345],[110,-86],[-105,-196],[-342,321],[-406,-86],[-198,132]],[[68492,34532],[-523,-393],[-199,-830]],[[66033,32866],[169,691],[-182,-30],[276,423],[-120,1048],[-205,432]],[[65971,35430],[221,-19],[71,190],[437,358],[178,-8],[7,332],[108,6]],[[66993,36289],[327,-987]],[[67320,35302],[-59,-174],[141,-216],[528,-154],[-39,315],[332,-242],[175,-335],[94,36]],[[58585,26028],[298,422]],[[59541,26329],[6,-290],[-352,-38],[-437,-282],[-208,169],[35,140]],[[68293,29205],[-293,274]],[[68000,29479],[45,217],[596,661],[180,25],[95,530],[233,244],[-73,71]],[[69076,31227],[-40,358],[258,123],[-13,443],[171,-219]],[[69452,31932],[3,-18]],[[69455,31914],[334,-387],[-73,-401]],[[69716,31126],[-15,-134]],[[69701,30992],[-451,-1223]],[[69250,29769],[-58,-603],[-899,39]],[[12472,31655],[15,-2350],[-1203,-531]],[[11284,28774],[-92,420],[-71,2031],[971,2597]],[[12092,33822],[380,-2167]],[[36816,27490],[-196,36],[-164,-301],[-19,213],[-373,283]],[[36064,27721],[-333,836],[24,286],[308,455]],[[36063,29298],[479,-204],[85,79],[-65,769],[397,604],[187,-116],[246,-427]],[[37392,30003],[-242,-352],[150,-325],[-9,-610],[98,-425],[-301,-419],[28,-113],[-300,-269]],[[44464,12050],[-277,5063],[245,1628]],[[44432,18741],[61,224],[598,73],[298,236],[233,-200],[136,156],[290,-257]],[[46048,18973],[-874,-4177],[159,-736],[-113,-116],[23,-449],[214,-676],[223,-64],[317,265],[315,-41],[205,-127],[73,-232],[234,-40],[-41,-190],[114,-275],[355,-290],[-3,-168],[202,-234],[214,-579],[-112,-504],[78,-404],[-47,-367],[-175,-371]],[[47409,9198],[-759,338],[-325,720],[-240,268],[-54,542],[-251,703],[-703,-188],[-158,-239],[-149,12],[-282,316],[-24,380]],[[44932,31038],[-298,711],[95,294],[-48,243],[-233,419],[-108,-18]],[[44340,32687],[214,123],[133,287],[453,141],[1007,-1789],[282,-292],[278,160],[157,-220]],[[46864,31097],[125,-505],[-202,-484],[57,-120],[-58,-190],[-150,-169]],[[46636,29629],[-120,916],[-672,107],[-113,426],[-278,77],[-94,153],[-427,-270]],[[50523,18723],[-117,-1415],[594,-1083],[-89,-732],[92,-69],[220,142]],[[51223,15566],[361,-131],[-57,-332],[87,-136],[-14,-297],[388,-363]],[[51988,14307],[-136,-945]],[[51852,13362],[-790,-142]],[[51062,13220],[-163,479],[-323,266],[-1063,1365],[139,626],[-65,156],[340,462],[193,547],[109,786],[294,816]],[[26062,29410],[186,-484],[437,-71]],[[26685,28855],[109,-766],[456,-711],[40,-494],[193,-140],[177,-578],[-35,-235]],[[27625,25931],[-7,-480],[88,-141],[-447,-728]],[[27259,24582],[-145,-127],[-241,141],[-238,-89],[-129,138],[86,106],[-136,182],[-244,38],[-100,-197],[-142,134],[-19,207],[-386,-58],[-23,-283],[-102,-84],[-323,913],[130,349],[-44,236],[254,654],[24,486],[-122,107],[6,274],[218,186],[62,480],[240,232],[12,236],[186,306],[-21,261]],[[62431,29470],[-416,-35],[-140,137],[-413,-205],[-73,112]],[[61389,29479],[-79,418],[-313,328]],[[60997,30225],[-8,210],[108,86],[485,-37],[430,198]],[[62012,30682],[261,-552],[61,-550],[97,-110]],[[60660,28239],[5,-283],[-509,-57],[-111,-166],[-54,-475],[168,-172],[-72,-37],[-63,-476],[108,-73],[6,-215]],[[60138,26285],[-526,242],[-71,-198]],[[59541,26329],[-185,73],[-152,-102],[-152,170],[-169,-20]],[[58883,26450],[373,874],[162,158],[-90,127],[197,326],[38,340],[-171,931],[244,201]],[[59636,29407],[371,411],[296,-9]],[[60303,29809],[318,-993],[-84,-311],[123,-266]],[[67919,31823],[-408,-624],[-288,143],[-379,-118],[-156,249],[-164,-497],[-312,-295]],[[66212,30681],[-70,338]],[[66142,31019],[-291,511]],[[65851,31530],[3,749],[-146,205],[-54,370],[142,253]],[[65796,33107],[237,-241]],[[66033,32866],[1353,75],[384,368]],[[67770,33309],[209,-969],[-60,-517]],[[67935,25100],[314,348],[85,330]],[[68334,25778],[202,-330],[73,-772]],[[68609,24676],[-131,-678],[-200,-224],[100,-303],[-97,-96],[53,-428],[80,-130]],[[68414,22817],[-242,-454],[-151,441],[-161,-971]],[[67860,21833],[-128,-745],[79,-192],[-344,-205],[-518,240],[-126,-114]],[[66823,20817],[-95,27]],[[66728,20844],[311,368],[-187,1682],[133,1143],[-961,643]],[[66024,24680],[24,-3]],[[66048,24677],[447,105],[467,418],[587,-348],[238,310],[148,-62]],[[62754,10093],[558,774],[-531,1136]],[[62781,12003],[1276,447]],[[64057,12450],[-179,-606],[186,-222],[19,-199],[132,-10],[107,-211]],[[64322,11202],[-553,-613],[-282,11],[-153,-281],[-580,-226]]]}