{"type":"Topology","objects":{"data":{"geometries":[{"properties":{"cd_mun_ibge":"1100015"},"type":"MultiPolygon","arcs":[[[0,-125,-41,-18,-57,-32,-33,-49]]],"id":0},{"properties":{"cd_mun_ibge":"1100023"},"type":"MultiPolygon","arcs":[[[-51,-29,-16,-143,-135,-14,-60,-99]]],"id":1},{"properties":{"cd_mun_ibge":"1100031"},"type":"MultiPolygon","arcs":[[[1,-114,-5]]],"id":2},{"properties":{"cd_mun_ibge":"1100049"},"type":"MultiPolygon","arcs":[[[-21,-30,-70,-27,-89,2,-10]]],"id":3},{"properties":{"cd_mun_ibge":"1100056"},"type":"MultiPolygon","arcs":[[[-6,-112,-8]]],"id":4},{"properties":{"cd_mun_ibge":"1100064"},"type":"MultiPolygon","arcs":[[[3,4,-113,5,-7,-74,-35]]],"id":5},{"properties":{"cd_mun_ibge":"1100072"},"type":"MultiPolygon","arcs":[[[-111,-75,6,7]]],"id":6},{"properties":{"cd_mun_ibge":"1100080"},"type":"MultiPolygon","arcs":[[[-12,-128,-123,8]]],"id":7},{"properties":{"cd_mun_ibge":"1100098"},"type":"MultiPolygon","arcs":[[[9,10,-37,-22]]],"id":8},{"properties":{"cd_mun_ibge":"1100106"},"type":"MultiPolygon","arcs":[[[-44,-62,-82,-39,-129,11,12]]],"id":9},{"properties":{"cd_mun_ibge":"1100114"},"type":"MultiPolygon","arcs":[[[-19,-102,-95,-85,-61,13,-134,-148]]],"id":10},{"properties":{"cd_mun_ibge":"1100122"},"type":"MultiPolygon","arcs":[[[-136,-146,14,-91,-26,-140,-131,-20,-150]]],"id":11},{"properties":{"cd_mun_ibge":"1100130"},"type":"MultiPolygon","arcs":[[[15,-28,-78,-24,16,-144]]],"id":12},{"properties":{"cd_mun_ibge":"1100148"},"type":"MultiPolygon","arcs":[[[17,-40,-47,-25,-68,-58]]],"id":13},{"properties":{"cd_mun_ibge":"1100155"},"type":"MultiPolygon","arcs":[[[-103,18,-151,19,-133]]],"id":14},{"properties":{"cd_mun_ibge":"1100189"},"type":"MultiPolygon","arcs":[[[-119,-31,20,21,-36,-72,-106,-117]]],"id":15},{"properties":{"cd_mun_ibge":"1100205"},"type":"MultiPolygon","arcs":[[[-52,-55,-43,22,23,-77,-65]]],"id":16},{"properties":{"cd_mun_ibge":"1100254"},"type":"MultiPolygon","arcs":[[[24,-46,-141,25,-90,26,-69]]],"id":17},{"properties":{"cd_mun_ibge":"1100262"},"type":"MultiPolygon","arcs":[[[-53,-79,27,28]]],"id":18},{"properties":{"cd_mun_ibge":"1100288"},"type":"MultiPolygon","arcs":[[[29,30,-118,-34,31,-59,-71]]],"id":19},{"properties":{"cd_mun_ibge":"1100296"},"type":"MultiPolygon","arcs":[[[32,33,-122,-105,-50]]],"id":20},{"properties":{"cd_mun_ibge":"1100304"},"type":"MultiPolygon","arcs":[[[34,-73,35,36,37]]],"id":21},{"properties":{"cd_mun_ibge":"1100320"},"type":"MultiPolygon","arcs":[[[-130,38,-81,-45,39,40,-124]]],"id":22},{"properties":{"cd_mun_ibge":"1100338"},"type":"MultiPolygon","arcs":[[[41,42,-54,-63,43]]],"id":23},{"properties":{"cd_mun_ibge":"1100346"},"type":"MultiPolygon","arcs":[[[44,-80,-93,-142,45,46]]],"id":24},{"properties":{"cd_mun_ibge":"1100379"},"type":"MultiPolygon","arcs":[[[-104,-108,47,48,49]]],"id":25},{"properties":{"cd_mun_ibge":"1100403"},"type":"MultiPolygon","arcs":[[[50,-56,51,-66,-86,-76,52]]],"id":26},{"properties":{"cd_mun_ibge":"1100452"},"type":"MultiPolygon","arcs":[[[53,54,55,-98,-64]]],"id":27},{"properties":{"cd_mun_ibge":"1100502"},"type":"MultiPolygon","arcs":[[[56,57,-67,58]]],"id":28},{"properties":{"cd_mun_ibge":"1100601"},"type":"MultiPolygon","arcs":[[[-100,59,60,-84]]],"id":29},{"properties":{"cd_mun_ibge":"1100700"},"type":"MultiPolygon","arcs":[[[61,62,63,-97,-83]]],"id":30},{"properties":{"cd_mun_ibge":"1100809"},"type":"MultiPolygon","arcs":[[[64,-87,65]]],"id":31},{"properties":{"cd_mun_ibge":"1100908"},"type":"MultiPolygon","arcs":[[[66,67,68,69,70]]],"id":32},{"properties":{"cd_mun_ibge":"1100924"},"type":"MultiPolygon","arcs":[[[-110,-107,71,72,73,74]]],"id":33},{"properties":{"cd_mun_ibge":"1100940"},"type":"MultiPolygon","arcs":[[[75,-88,76,77,78]]],"id":34},{"properties":{"cd_mun_ibge":"1101005"},"type":"MultiPolygon","arcs":[[[-94,79,80,81,82,-96,83,84]]],"id":35},{"properties":{"cd_mun_ibge":"1101104"},"type":"MultiPolygon","arcs":[[[85,86,87]]],"id":36},{"properties":{"cd_mun_ibge":"1101203"},"type":"MultiPolygon","arcs":[[[88,89,90,91]]],"id":37},{"properties":{"cd_mun_ibge":"1101302"},"type":"MultiPolygon","arcs":[[[-137,92,93,94,-101]]],"id":38},{"properties":{"cd_mun_ibge":"1101401"},"type":"MultiPolygon","arcs":[[[95,96,97,98,99]]],"id":39},{"properties":{"cd_mun_ibge":"1101435"},"type":"MultiPolygon","arcs":[[[-138,100,101,102,-132]]],"id":40},{"properties":{"cd_mun_ibge":"1101450"},"type":"MultiPolygon","arcs":[[[103,104,-121,-116,105,106,-109]]],"id":41},{"properties":{"cd_mun_ibge":"1101468"},"type":"MultiPolygon","arcs":[[[107,108,109,110,111,112,113,114]]],"id":42},{"properties":{"cd_mun_ibge":"1101476"},"type":"MultiPolygon","arcs":[[[115,-120,116]]],"id":43},{"properties":{"cd_mun_ibge":"1101484"},"type":"MultiPolygon","arcs":[[[117,118,119,120,121]]],"id":44},{"properties":{"cd_mun_ibge":"1101492"},"type":"MultiPolygon","arcs":[[[122,-127,123,124,125]]],"id":45},{"properties":{"cd_mun_ibge":"1101500"},"type":"MultiPolygon","arcs":[[[126,127,128,129]]],"id":46},{"properties":{"cd_mun_ibge":"1101559"},"type":"MultiPolygon","arcs":[[[130,-139,131,132]]],"id":47},{"properties":{"cd_mun_ibge":"1101609"},"type":"MultiPolygon","arcs":[[[133,134,-147,135,-149]]],"id":48},{"properties":{"cd_mun_ibge":"1101708"},"type":"MultiPolygon","arcs":[[[136,137,138,139,140,141]]],"id":49},{"properties":{"cd_mun_ibge":"1101757"},"type":"MultiPolygon","arcs":[[[142,143,144,145,146]]],"id":50},{"properties":{"cd_mun_ibge":"1101807"},"type":"MultiPolygon","arcs":[[[147,148,149,150]]],"id":51}],"type":"GeometryCollection"}},"bbox":[-66.8102531,-13.693002523822823,-59.7743574,-7.9758683],"transform":{"scale":[7.035966059660594e-05,5.717191395736781e-05],"translate":[-66.8102531,-13.693002523822823]},"arcs":[[[62430,10041],[-238,297],[-36,374],[-291,-107],[49,383],[-256,-246],[-98,375],[-59,-327],[-278,-123],[-301,309],[-248,-176],[-965,551],[-71,311],[201,185],[-416,-10],[-31,455],[-295,16],[99,258],[-79,157],[-343,-443],[-276,-23],[-60,-185],[-378,27],[-57,-341],[-252,382],[-135,-319],[-322,133],[-395,725],[13,481],[-242,120],[-325,-262],[-63,136],[101,242],[-384,289],[-327,586],[15,319]],[[91510,6549],[90,-391],[-203,-600],[110,-588],[-228,-802],[-336,-122],[-291,-468],[-477,-12],[-645,-253],[-294,-254],[-20,-317],[-156,-5],[-62,-208],[-416,-294],[-775,-113],[-128,-435],[-61,65],[-576,-567],[-65,-415],[-164,-197],[73,-109],[-282,-275],[107,-189],[-856,154],[-66,401],[-510,105],[-263,451],[-663,141],[-647,918],[-57,209],[82,152]],[[76482,47322],[6089,-83]],[[92057,7609],[-84,-251],[-181,-12],[0,-327],[-163,-84],[23,-211],[-142,-175]],[[91510,6549],[-4740,-108]],[[86253,6438],[354,222],[-189,859],[59,346],[-193,508],[188,1293],[-239,315]],[[87525,12448],[-265,-221],[-422,10],[-170,-138],[29,-449],[-239,-100],[-188,-335],[-1,-260],[167,-245],[-203,-729]],[[86233,9981],[-281,-155],[-357,43],[-230,175],[-195,-38],[-73,237],[-405,185],[-334,-253],[-823,-183],[-313,-233],[-177,35],[-489,490],[-559,-317],[-1371,95],[-624,137],[-342,389],[-699,100],[-242,234],[-384,-1],[-870,481],[-265,-59],[-794,570],[-947,133]],[[44422,21688],[-696,253],[-435,-61],[-313,247],[-239,-337],[-212,4],[-226,-287],[-728,298],[-221,-622],[0,-421],[-742,-451],[-610,499],[-191,-257],[-155,171],[-284,-122],[-281,423],[-339,-171],[-119,293],[-432,-381],[0,343],[-161,170],[-140,-92],[-116,-488],[-180,-83],[-125,128],[7,709],[-339,-111],[-480,311],[-799,-838],[-172,213],[115,383],[-57,194],[-773,-37],[-811,225],[-563,627],[-202,421],[-678,507],[-76,251],[178,241],[109,626],[-217,1206],[-220,-10],[-333,-295],[-409,479],[-266,-6]],[[79570,37849],[216,96],[91,233],[250,-12],[264,225],[380,81],[284,617],[346,349],[277,-139],[98,375],[270,167],[271,-47],[248,342],[6,7103]],[[82571,47239],[7682,42]],[[44490,35832],[-123,-114],[-125,160],[-124,-158],[-309,176],[-199,-147],[-45,-229],[-444,16],[-644,-226],[-149,-176],[-120,52],[-557,-822],[-328,166],[-302,-202],[-356,23],[-245,-112],[-116,-324],[-238,113],[-400,-284],[-81,316],[-171,20],[-100,-95],[112,-55],[-59,-191],[-85,104],[-57,-150],[-729,-285],[56,-187],[-277,-591],[-145,-32],[75,-361],[-479,-1105],[-265,-80],[-152,146],[-265,-5],[16,-168],[-145,-71],[-47,100],[8,-137],[-596,-515],[215,-202],[-24,-232],[-143,-24],[-85,-205],[-364,-65],[-210,-341],[-319,104],[-434,-461],[-316,-402],[-103,-864],[-216,60],[-33,-121],[-151,69],[-109,-103],[-43,100],[-67,-476],[-82,87],[-219,-233],[149,-226],[-148,-120],[-1,-187],[-111,-167],[-292,-45],[110,-56],[-5,-164],[-245,-176],[-259,250],[-184,-315],[-313,-42],[-61,421],[-135,181],[-363,39],[-117,-110],[-111,-536]],[[31491,25840],[-1428,460],[-245,261],[-44,803],[254,489],[-166,236],[-418,-227],[29,-672],[-190,-334],[-273,243],[132,724],[-407,289],[-218,-33],[-257,-545],[-152,-50],[-140,474],[415,424],[51,280],[-243,596],[-183,168],[-606,-47],[-494,-263],[-446,611],[-251,-120],[-129,-322],[-361,443],[-448,-29],[-46,162],[136,263],[-201,7],[-31,152],[230,350],[151,759],[-154,172],[-481,99],[-153,239],[156,1372],[-404,1422],[-168,61],[-402,-256],[-778,-21],[-35,-151],[168,-325],[-111,-134],[-681,365],[-428,448],[1,181],[589,834],[-197,591],[98,340],[-143,426],[298,463],[30,307],[-186,245],[-1046,211],[-150,188],[-373,2426],[87,254],[496,119],[36,166],[-96,141],[-556,49],[-131,182],[-205,901],[9,491],[168,209],[344,-2],[86,250],[-99,184],[-343,-22],[-201,803],[387,557],[743,360],[50,454],[-290,551],[721,813],[-502,1014],[34,151],[239,-49],[-141,918],[-623,822],[-662,456],[20,283],[214,-9],[82,193],[-70,1732],[-317,391],[-448,91],[-185,389],[274,654],[-106,518],[-222,336],[135,453],[-261,553],[106,238],[266,11],[305,590]],[[58836,59569],[11,-10]],[[74412,69531],[112,-203],[501,-184],[-225,-833],[319,-143],[-102,-421],[225,-143],[111,-1064],[-235,-311],[23,-733],[-228,-273],[158,-79],[-41,-372],[-148,-101],[-203,-758],[-405,-361],[80,-343],[-325,-1354],[610,-347],[-16,-290],[115,-83],[-317,-195],[-38,-693],[463,-917],[-131,-105],[74,-164],[205,-271],[249,-45],[61,-279],[145,-59],[66,-627],[363,-272],[-66,-232],[204,-26],[-270,-1187],[24,-736],[182,-199],[-194,-488],[53,-674],[-190,-387],[151,-232],[-39,-456],[-184,-148],[-67,-368],[383,-286],[-227,-376],[107,-135],[100,-933],[-214,-27],[-127,297],[-186,-203],[106,-258],[-129,-241],[36,-255],[-185,-157],[-54,-679],[106,-129],[-70,-223],[142,-47],[-74,-740],[-115,-131],[-36,-381],[-237,24],[-49,-148]],[[62360,68012],[-187,422],[-824,137],[-198,197],[-409,511],[-260,1074]],[[64545,89506],[573,-259],[571,0],[167,-810],[-272,1],[-67,-130],[503,-614],[-95,-275],[327,-406],[-89,-373],[427,-1085],[384,-127],[337,181],[614,-20],[138,-418],[346,-299],[168,-663],[86,94],[583,-143],[343,71],[156,253],[615,173],[-18,864],[252,423],[-12,560],[108,257],[430,-264],[450,-7],[178,193],[-22,146],[274,200],[36,388],[406,129],[112,-345],[452,44],[611,-296],[15,-542],[334,-730],[535,-112],[360,-315],[316,-44],[132,-735],[383,-740],[229,-200],[-299,-348],[-306,-681],[-279,-1151],[-356,-881],[5,-684],[498,-1055],[-64,-893],[-112,-106],[-588,209],[-363,-333],[-408,-19],[-36,-398],[268,-15],[-60,-807]],[[65429,32551],[-367,-1343],[-235,147],[-418,-68],[-263,205],[-268,-212],[-304,160],[-187,-163],[-510,-15],[-598,-490],[-352,-609]],[[60901,52185],[3775,4069]],[[69638,62547],[-80,-861],[361,-482],[352,-213],[543,-1698],[-185,-106],[-216,80],[-762,-438],[47,-692],[110,-208],[-233,-767],[31,-557],[-213,-514],[-465,-208],[-2304,-7020]],[[74777,36275],[2790,29],[32,215],[-284,464],[114,276],[-148,454],[80,533],[92,-151],[81,184],[340,-153],[55,129],[479,135],[580,-327],[42,-156],[309,-17],[110,155],[121,-196]],[[79570,37849],[4130,-3850],[-27,207],[164,264],[285,3],[23,-156],[117,185],[460,-138],[388,530],[551,-32],[187,-170],[516,255],[883,-2],[211,458],[230,152],[9,181],[702,510],[-29,554],[219,79],[187,417],[301,184],[444,1245],[289,-67],[247,334],[150,-20]],[[20996,65569],[167,670],[463,704],[18,453],[-471,443],[-107,603],[-571,1282],[-380,367],[-726,292],[65,-302],[-80,-188],[-352,-290],[-209,102],[52,-346],[-257,-39],[-15,-979],[-163,-129],[-257,210],[-109,-363],[-356,-145],[161,-440],[-72,-162],[-170,115],[-383,-67],[-59,310],[-376,-221],[-91,523],[-218,-163],[-65,151],[138,235],[-227,13],[-124,215],[-311,-365],[15,-187],[-296,94],[149,335],[-115,387],[379,-22],[-50,320],[-627,-187],[-215,-392],[-404,418],[86,325],[-75,93],[-113,-131],[64,-438],[-120,-341],[-153,-96],[-159,65],[-105,274],[188,276],[-106,-97],[-136,132],[-51,-206],[-327,-298],[19,-122],[-376,-45],[-3,335],[99,107],[-135,251],[-140,24],[-311,-259],[-263,246],[-17,-192],[-160,-91],[-130,155],[-340,-185],[-111,-349],[159,-209],[-245,22],[-16,-131],[-235,114],[-16,138],[-347,-312],[-151,432],[-516,57],[-228,-101],[126,-106],[-216,-313],[-105,124],[10,388],[-322,-111],[-428,93],[-277,-132],[-54,-175],[-267,-52],[-22,-148],[153,-133],[-144,37],[21,-149],[-131,-103],[-483,351],[-60,-217],[-92,104],[-95,-215],[-281,-27],[-70,108],[-92,-280],[-265,164],[-49,-90],[-107,158],[-431,-139],[-191,-468],[-633,34],[-278,-467],[159,-71],[-195,-82],[-84,134],[103,319],[-155,135],[-345,-142],[54,-100],[-352,200],[-196,-279],[-82,158],[-389,-204],[-226,167],[-72,-198],[-184,138],[-5,-149],[-172,-12],[-114,-276],[-380,187],[-251,-51],[-2608,1400],[422,466],[-22,575],[96,95],[240,-127],[470,75],[477,388],[98,337],[864,592],[209,278],[329,-151],[702,524],[516,175],[81,559],[795,826],[219,500],[443,443],[33,784],[-86,317],[-264,272],[83,263],[484,-340],[305,171],[167,-182],[322,123],[163,-295],[331,82],[-89,344],[322,48],[346,-344],[550,60],[442,-148],[707,449],[912,-165],[246,277],[224,27],[801,-216],[546,-602],[274,-632],[450,-65],[488,-507],[-23,-278],[329,39],[100,-563],[256,-398],[121,-11],[296,355],[201,-63],[88,268],[290,-165],[91,70],[390,899],[215,127],[22,858],[420,72],[117,241],[638,343],[585,-150],[472,-428],[225,-14],[48,-390],[148,-64],[225,17],[129,234],[159,-196],[312,73],[-122,808],[-189,331],[149,534],[-13,950],[97,81],[333,-136],[331,-351],[118,27],[109,238],[374,23],[121,239],[832,686],[533,220],[549,-489],[-13,-420],[293,-616],[-111,-532],[321,-178],[-169,-727],[605,-346],[640,250],[127,130],[-48,274],[204,147],[347,-20],[253,478],[-51,266],[475,281],[-97,260],[173,421],[204,222],[331,-15],[131,376],[250,270],[233,622],[-288,1674],[345,874],[-23,550],[330,-10],[334,552],[444,316],[678,135],[541,-601],[772,568],[226,-94],[170,-370],[424,143],[433,-172],[329,121],[129,369],[142,-58],[267,236],[1471,24],[1751,840],[196,-98],[-234,-793],[210,-291],[657,141],[453,-69],[827,555],[363,29],[109,243],[-233,1782],[408,665],[-217,502],[24,585],[173,365],[89,95],[424,-204],[389,309],[562,-87],[-108,387],[271,452],[164,731],[196,149],[69,555],[195,56],[377,-473],[304,594],[20,284],[-319,154],[26,418],[-436,689],[18,153],[460,458],[-44,298],[-483,264],[14,182],[449,383],[17,991],[176,114],[298,-67],[226,463],[343,231],[646,-303],[484,-473],[252,218],[383,884],[339,362],[-367,728],[22,162],[762,704],[334,641],[106,359],[-65,343],[643,909],[7,928],[10726,12],[480,-324],[324,-541],[339,-18],[600,-331],[734,-833],[191,-324],[-94,-88],[177,-505],[-174,-357],[32,-259],[329,-334],[141,-654],[709,-616],[209,6],[229,-269],[104,57],[148,-1297],[170,1],[191,-436],[109,-30],[753,787],[472,-564],[686,-97],[269,-236],[72,-279],[-132,-684],[46,-830],[172,-317],[236,-87],[164,-823],[-230,-545],[88,-256],[775,-509],[-171,745],[347,354]],[[64545,89506],[394,-504],[-54,-823],[112,-207],[-107,-445],[-424,-228],[-801,-129],[-202,161],[-3,370],[-313,107],[62,-536],[-212,-434],[98,4],[25,-271]],[[69042,42024],[-268,-198],[-426,225],[-355,-294],[-230,149],[-200,-159],[-212,207],[-310,-25]],[[66314,46572],[421,523],[356,-167],[-92,-611],[499,-897],[67,-430],[203,-179],[-123,-609],[179,-830],[161,156],[-38,200],[131,331],[-87,522],[165,284],[540,438],[5,208],[401,116],[53,461],[-192,734],[226,513],[4408,8]],[[72029,41271],[-182,-785],[-167,-40],[-230,-374],[-181,73]],[[62362,72903],[-166,-509],[-364,-276],[7,-486],[-616,-583],[-174,-478],[112,-71],[-39,-104],[-640,-43]],[[60482,70353],[-178,-458],[-245,-113],[22,-336],[-230,-243],[-156,9],[-280,-579],[-352,-206],[-88,-531],[-277,-637],[-807,591],[-816,213],[-603,886],[-2266,-15],[-345,104],[-1151,-115]],[[73850,36892],[60,161],[71,-118],[91,59],[-7,-236],[117,-102],[123,114],[472,-495]],[[74777,36275],[-137,-261],[-9,-396],[-235,-223],[184,-478],[274,-99],[-73,-311],[193,-162],[7,-240]],[[69923,31242],[-142,259],[-263,24],[-30,416],[-168,73],[-831,-128],[-404,214],[-435,-167]],[[69952,30212],[-29,1030]],[[69923,31242],[99,380],[633,292],[98,200],[3806,11]],[[92057,7609],[-204,133],[58,312],[-201,393],[51,621],[-93,171],[187,224],[19,510],[-125,350],[-179,-177],[-40,363],[-346,395],[-172,0],[-198,957],[-232,210],[-501,-135],[-15,206],[-448,541],[4,331],[-291,-315],[-386,137],[-320,-523],[-86,282],[-159,83],[-295,-423]],[[87554,25041],[4942,51],[-52,1068],[-136,529],[58,295],[-193,259],[-144,647],[-424,475],[65,131],[-202,233],[-42,730],[-137,353],[576,597],[-398,377],[60,539],[-235,513],[137,168],[-149,161],[-91,-118],[-144,378],[-419,272],[108,213],[-525,514],[117,309],[-28,323],[183,265],[179,15],[-141,45],[13,169],[215,47],[-235,67],[-48,235],[-199,-71],[185,531],[-214,234],[94,68],[5,468],[243,286],[-65,648],[83,148],[-222,47],[156,437],[-79,462],[101,270],[-474,225],[129,318]],[[90207,38972],[26,145],[333,170],[9,394],[-303,701],[-30,457],[-330,-181],[-13,325],[-152,47],[40,726],[129,225],[-562,542],[-202,802],[272,1186],[-246,212],[221,103],[-100,264],[275,232],[-71,621],[534,355],[146,402],[-43,480],[113,101]],[[90253,47281],[315,-469],[-123,-446],[240,82],[221,-105],[-4,-420],[146,-33],[179,-427],[260,-6],[359,-261],[86,462],[-92,150],[197,-154],[473,450],[269,-120],[22,-481],[139,-126],[457,66],[505,-324],[169,-11],[197,259],[260,63],[239,-176],[423,56],[235,-144],[170,244],[249,-502],[416,143],[206,-231],[102,250],[290,-156],[121,186],[143,-137],[-45,-305],[-130,31],[59,-157],[-182,-76],[246,-494],[233,-166],[-243,-256],[-13,-521],[201,-339],[120,-732],[451,-274],[104,-288],[-3,-1244],[-75,-306],[-229,-128],[-39,-166],[-447,-121],[-131,-527],[-488,-484],[-163,67],[64,-218],[-369,-400],[-68,-237],[-415,-330],[-58,106],[-48,-139],[98,-93],[-158,4],[95,-142],[-141,-23],[102,-149],[-280,-28],[60,-491],[-167,-1689],[130,-177],[-60,-124],[133,-344],[-71,-180],[133,-232],[-87,-140],[114,-1],[-105,-219],[180,-117],[-126,-53],[128,-269],[-109,-17],[58,-189],[-135,-167],[109,72],[69,-410],[52,100],[21,-139],[111,46],[95,-469],[229,-170],[688,34],[374,-333],[-42,-304],[122,-249],[-97,-286],[222,-173],[14,-333],[-131,-40],[185,-278],[-182,-391],[139,-52],[108,-417],[465,-387],[419,-678],[-5,-938],[-151,-273],[262,-1032],[1677,-1670],[-264,-85],[-374,-576],[7,-195],[-338,-612],[-23,-740],[-768,-603],[30,-608],[-474,-756],[-259,-343],[-356,-187],[-126,311],[-309,-3],[-2,-189],[-362,-270],[-234,-405],[-6,-346],[-272,-163],[-13,-402],[144,-172],[-275,-518],[233,-926],[-139,-65],[40,-364],[-244,-733],[-18,-758],[-299,-411],[-171,-701],[-322,-187],[-154,108],[-549,-124],[-347,-628],[-23,-349],[-370,-200],[-374,-679],[-218,-58],[34,-963],[172,-163],[-502,-584],[-63,-370],[-287,-539],[40,-401],[-107,-83]],[[45558,36573],[87,146],[-85,528],[-265,426],[155,35],[-4,298],[258,274],[-320,259],[137,147],[124,687],[101,-59],[-117,146],[58,224],[-85,187],[692,-70],[59,70],[-123,181],[124,258],[112,-31],[3,173],[302,170],[-140,569],[-196,205],[74,312],[-210,26],[-325,423],[-183,-2],[-72,491],[113,130],[-71,133],[80,208],[111,49],[-155,275],[2,456],[-213,729],[127,1070],[165,198],[25,665],[-661,457]],[[61576,37047],[-12,-4983],[187,-81],[8,-1651],[168,-169]],[[61927,30163],[-352,-251],[-141,-359],[-368,-61],[-95,-267],[-340,-191],[-13,-261],[-143,-138],[-819,-517],[102,-470],[-132,-130],[172,-532],[-45,-619],[-161,-391],[-313,-266],[-44,-246]],[[20306,57090],[17,492],[-163,463],[993,1344],[155,690],[316,670],[-259,960],[92,1121],[-248,323],[-164,500],[135,925],[-184,991]],[[20996,65569],[223,128],[589,-462],[351,44],[333,-143],[473,121],[394,-666],[11733,-3]],[[44109,49902],[-3185,-582],[-290,190],[-222,-111],[-39,319],[-166,226],[-274,23],[-114,-35],[-174,-493],[-400,-90],[-634,211],[-290,-135],[-150,169],[-182,-49],[-253,514],[-92,-65],[-515,640],[-86,378],[-250,285],[-173,-57],[-35,181],[-239,1],[-131,-142],[-149,101],[-260,-98],[-745,67],[-320,-320],[-219,124],[-211,-398],[-229,-102],[33,-479],[-534,-200],[-233,152],[-431,-72],[-213,290],[-223,-35],[-227,418],[-369,-274],[-378,-23],[-100,163],[-557,216],[-275,338],[-1207,5487],[-421,-401],[-244,-6],[-292,-570],[-186,15],[-107,230],[-983,-803],[-360,54],[-201,372],[-491,101],[-1297,-295],[-728,27],[-297,-204],[-624,18],[-332,-436],[-177,183],[-174,-58],[-64,178],[-117,-143],[-241,44],[-39,-127],[-498,303],[-156,276],[173,301],[-85,132],[-113,-44],[-118,351],[-250,59],[-33,581],[-222,260],[-385,57]],[[61576,37047],[-173,296],[30,325],[-557,1091],[-239,-23],[-163,171],[-311,-177],[-119,-219],[-776,835],[-150,-97],[-408,298],[-215,-13],[-349,-280],[-481,79],[352,555],[-63,319],[-613,138],[-327,546],[-54,314],[-380,139],[-123,456],[-796,-224],[-821,-733],[-289,215],[-414,104],[-112,-103],[-298,164],[-846,-340],[-177,392],[85,442],[-103,494],[-214,397],[96,683],[-420,370],[19,180],[-140,196],[148,805],[-149,261],[-341,-28],[-309,220]],[[66104,45918],[82,-123],[-193,-302],[298,-401],[-53,-637],[278,-587],[186,-107],[-319,-291],[-478,-910],[-132,-6],[-3,-402],[558,39],[104,-305],[505,266],[104,-223]],[[67041,41929],[-168,-144],[-213,-1129],[-850,-1103],[-248,144],[-286,-203],[-580,79],[-393,-221],[-144,-361],[-145,-83],[6,-195],[-488,-470],[-154,-392],[-265,-149],[-162,-410],[-566,-232],[-261,-726],[-52,201],[-296,37],[27,223],[-227,252]],[[66729,9258],[-192,268],[-302,-260],[-15,211],[-263,297],[-13,355],[-156,-67],[46,-442],[-181,-189],[-132,57],[-12,455],[-195,231],[-210,-179],[-197,74],[-36,-487],[-264,-15],[-2,-126],[-170,124],[63,-170],[-216,268],[-170,-175],[-248,281],[-66,-307],[-129,211],[-149,-174],[51,165],[-115,59],[-92,-108],[-293,45],[-141,173],[-135,-69],[-58,356],[-254,-244],[-53,165]],[[62430,10041],[102,203],[386,57],[278,467],[10,-141],[92,34],[43,442],[112,12],[132,-387],[236,-12],[40,-510],[112,227],[145,17],[41,307],[213,-172],[371,131],[190,564],[877,483],[205,283],[69,421],[725,457],[246,693],[748,123],[163,300],[127,1215],[265,502],[0,9145],[-103,3],[-3,2367],[564,-5],[2,818],[549,-10],[-51,1963],[636,174]],[[69952,30212],[211,-326],[182,145],[245,-183],[-77,-221],[235,-388],[-47,-857],[292,-442],[169,-69],[92,-465],[320,-427],[381,-850],[100,-919],[-183,-407],[389,-992],[-3,-494],[132,-372],[370,-318],[56,-351],[159,-171]],[[52710,68923],[163,-522],[-2921,-83],[138,-461],[-86,-343],[-2943,-5],[0,2081],[-1059,-2],[154,-527],[-254,-808],[1,-686],[-119,-385],[139,-429],[-537,-916],[1,-609],[151,-152],[131,-488]],[[44414,67516],[85,377],[-139,160],[251,313],[-129,48],[-6,239],[261,211],[-140,217],[454,947],[-14,337],[157,34],[172,276],[-101,85],[-10,155],[134,2],[-120,245],[195,53],[47,287],[231,159],[56,241],[356,182],[33,474],[39,-166],[137,59],[-38,299],[-172,100],[18,189],[197,197],[-289,191],[212,214],[-186,652],[160,127],[-146,97],[-242,-199],[101,283],[-105,303],[-185,-77],[-28,-185],[-199,124],[-131,-66],[-2,-267],[-311,288],[36,-251],[-275,24],[-5,-133],[-155,-15],[109,260],[-218,85],[22,154],[-129,-85],[-65,-318],[-162,47],[-102,-408],[-183,247],[-196,-31],[2,241],[-138,143],[157,111],[-269,117],[84,203],[-133,62]],[[53062,72903],[22,-2179],[-333,-327],[-304,-955],[106,-483],[157,-36]],[[36968,61160],[-369,495],[75,627],[-176,246],[-2,366],[150,284],[-176,217],[-18,411],[-161,156],[-69,574],[-1130,52]],[[35092,64588],[-76,568],[328,733],[3,1014],[362,423],[-193,546],[212,-82],[301,-435],[213,180],[486,-279],[342,243],[245,-126],[368,326],[328,-193],[6403,10]],[[44414,67516],[-92,-185],[82,-163],[-220,-96],[118,-400],[-218,-58],[-113,-605],[-95,-45],[70,-165],[-143,-11],[-73,-491],[-446,-480],[90,-117],[-105,-110],[2400,-2]],[[67650,31933],[-478,-161],[-143,651],[-459,-93],[-443,-458],[-177,-5],[-179,67],[132,263],[-229,425],[-245,-71]],[[65429,32551],[264,344],[-6,179],[-107,213],[34,504],[-274,848],[275,492],[-143,322],[456,920],[-62,481],[173,359],[-127,316],[459,430],[287,-76],[172,318],[313,148]],[[69592,36871],[-187,-543],[-198,-68],[4,-130],[-311,-70],[68,-439],[-330,-335],[125,-228],[-74,-580],[263,-235],[-431,-304],[-526,-1165],[-168,-109],[22,-364],[-199,-368]],[[51180,61673],[5355,-7],[819,-744],[482,-622],[229,-29],[771,-702]],[[58836,59569],[-1670,-3588]],[[45952,50050],[-276,129],[-198,-48],[-199,-259],[-792,155],[-378,-125]],[[44109,49902],[-508,238],[-97,208],[-263,-48],[-271,365],[-364,-91],[-349,196],[-24,157],[-186,-48],[-117,264],[-242,3],[-80,233],[-228,79],[-56,896],[-403,608],[9,477],[-678,331],[-106,-264],[-49,443],[-393,390],[100,724],[130,-79],[297,222],[-131,64],[86,156],[194,27],[-550,559],[-10,283],[-257,195],[-516,-169],[-345,117],[-194,320],[-349,198],[-48,-158],[-133,78],[24,120],[-126,24],[-184,413],[-384,135],[-137,494],[-395,438],[59,258],[-91,281],[273,284],[208,529],[-85,445],[-124,82],[52,401],[-149,-3],[49,383]],[[36968,61160],[631,-138],[160,-195],[231,112],[377,-600],[696,-131],[473,1702],[83,-42],[269,-285],[23,-378],[949,-1023],[55,-442],[521,-347],[-80,-1118],[666,83],[113,-98],[315,181],[165,395],[702,54],[3,516],[444,232],[28,665],[2910,-75]],[[43397,75174],[-88,34],[47,150],[-162,61],[81,183],[-302,-73],[269,210],[-167,-54],[-39,255],[130,189],[-253,132],[244,671],[-136,17],[312,272],[-126,261],[87,103],[-135,-133],[-213,239],[127,78],[-12,290],[137,14],[-77,241],[71,212],[-97,50],[215,226],[-257,-64],[-66,161],[5,385],[216,128],[-98,241],[-252,179],[268,269],[-240,164],[138,611],[119,-4],[-315,391],[174,116],[-118,216],[135,145],[-42,150],[217,-73],[26,214],[-204,115],[287,177],[-51,289],[138,-226],[203,272],[-82,181],[185,-106],[88,124],[-109,-18],[-134,351],[-112,-13],[204,68],[-60,145],[297,24],[-225,80],[-51,151],[96,166],[-125,226],[315,20],[-402,261],[164,213],[-136,155],[286,145],[-287,67],[90,281],[202,-211],[133,237],[180,19],[104,257],[-294,103],[4,148],[131,-48],[121,294],[-264,15],[-48,201],[117,107],[50,-240],[112,180],[-34,457],[87,-66],[195,148],[-132,272],[-225,-2],[214,296],[23,-176],[167,-76],[50,221],[159,59],[-40,-298],[203,153],[243,-173],[-198,-87],[5,-217],[126,194],[206,-84],[48,122],[-127,185],[284,263],[48,-147],[301,315],[90,482],[125,-64],[-75,-153],[277,-159],[-34,901],[227,-162],[62,77],[192,-239],[267,644],[920,366],[5,284],[-367,29],[-149,141],[240,282],[225,795],[8928,1],[-302,-131],[20,-212],[403,-341],[-96,-100],[102,-323],[130,68],[-3,-225],[134,-105],[164,356],[193,-84],[-166,-50],[237,-160],[-263,-379],[130,-127],[68,225],[394,-279],[-215,-213],[23,-153],[400,-205],[-181,-5],[41,-194],[290,-59],[-216,-27],[-56,-333],[-167,-72],[30,-167],[-242,-7],[139,-256],[-73,-359],[-227,122],[152,27],[-23,135],[-225,-108],[405,-641],[-222,-169],[166,-345],[-117,-311]],[[49521,74591],[-6124,583]],[[69592,36871],[-1244,-5],[13,1488],[-1218,-5]],[[67143,38349],[92,706],[678,613],[161,919],[172,111],[-20,157],[180,165],[95,353],[175,65],[366,586]],[[69042,42024],[357,-139],[133,103],[822,-1334],[359,-272],[476,-71],[80,-166]],[[71269,40145],[148,-186],[663,-79],[84,-248],[-74,-173],[138,-60],[-19,-360],[193,-38],[-76,-219],[111,-265],[-46,-361],[274,-208],[42,-230],[95,72],[63,-240],[486,-258],[267,3],[232,-403]],[[73850,36892],[-4258,-21]],[[80011,26689],[6656,19],[542,-1487],[345,-180]],[[87554,25041],[-503,-3],[15,-596],[-218,-498],[-792,-334],[-472,-472],[-292,-93],[-12,-1267],[2558,51],[-67,-1644],[2649,4],[67,-5275],[-810,721],[-489,99],[-70,218],[-116,-55],[-202,290],[-208,-664],[27,-422],[-153,-350],[60,-274],[-218,-864],[101,-359],[-324,-999]],[[88085,12255],[-188,339],[-372,-146]],[[87525,12448],[129,662],[-102,254],[67,487],[-114,599],[-494,600],[-243,9],[-294,463],[-494,-366],[-229,-467],[-142,169],[-57,489],[-350,-79],[-180,234],[-269,-284],[-310,9],[-66,-259],[-498,-311],[-66,-319],[-260,-315],[-83,-440],[-471,-383],[-32,527],[-178,351],[146,315],[-70,467],[168,229],[-52,364],[105,294],[-283,741],[-321,-213],[0,-204],[-156,126],[-169,-58],[-18,207],[-205,230],[-7,396],[-147,295],[-322,65],[-654,-446],[-604,-79],[-3,-367],[-374,-692],[34,519],[-107,244],[-418,31],[-101,262],[-830,174],[-715,490],[65,223],[-134,233],[156,147],[90,382],[-88,200]],[[53062,72903],[-18,297],[-305,477]],[[57506,85618],[534,-34],[324,-231],[555,268],[138,379],[366,-4],[48,327],[313,130],[223,-226],[89,318],[318,76],[99,-180],[230,-9],[641,397],[80,-516],[195,-235],[338,60],[-10,242],[194,307],[264,17],[113,-197],[201,121],[361,-57]],[[63120,86571],[44,-144],[313,-103],[71,-591],[388,-214],[189,-428],[123,-29],[-95,-437],[-530,-460],[69,-424],[-231,-478],[300,-202],[-15,-239],[-71,-343],[-280,-302],[309,-1016],[-135,-260],[137,-782],[-113,-1820],[112,-757],[291,-875],[-379,-710],[-394,21],[-174,-473],[-199,112],[36,-414],[-372,-508],[-132,-868],[65,-121],[-146,-239],[138,-90],[-158,-265],[81,-209]],[[62362,72903],[-9300,0]],[[51362,45659],[91,-158],[-77,-206]],[[51376,45295],[-537,-418],[-264,-416],[-524,-38],[-248,202],[46,198],[-404,531],[-58,191],[105,229],[-190,214],[-514,-203],[-94,317],[-422,143],[-274,335],[-682,48],[-273,-271],[-376,-59],[-221,197],[-158,-81],[-65,132],[-122,-35],[-226,406],[-633,99]],[[45242,47016],[568,27],[147,186],[-215,610],[-181,25],[-61,754],[55,466],[232,-19],[246,215],[-81,770]],[[45952,50050],[147,528],[-274,567],[79,657],[155,-122],[246,193],[-131,1493],[239,236],[-55,272],[166,42],[108,328],[-246,173],[-169,487],[152,183],[-136,171],[348,94],[-113,385],[154,241]],[[51118,55983],[6048,-2]],[[57166,55981],[175,-232],[328,-44],[276,-369],[479,110],[511,-182],[478,281],[226,-33],[365,361],[200,-205],[34,-321],[-130,-307],[-647,-271],[79,-201],[-148,-227],[90,-136],[-343,-284],[79,-351],[-145,-187],[55,-206],[-249,-39],[-57,-278],[-350,-22],[-52,-117],[-197,127],[-319,-505],[-371,-31],[8,-183],[-442,-255],[72,-551],[-40,-324],[-122,-113],[67,-152],[-292,-37],[-307,-472],[-118,12],[-265,-313],[-616,263],[-363,-525],[-6,-311],[-633,-342],[-35,-165],[-291,-212],[-41,-527],[-372,-173],[-258,64],[-92,-278],[-394,-199],[-170,66],[-75,-347],[-256,-111],[-313,-387],[-52,-885]],[[52739,73677],[-22,490],[-3196,424]],[[49521,74591],[272,448],[-60,457],[272,261],[-138,124],[37,172],[-152,28],[-38,572],[107,373],[-216,-171],[-11,158],[-344,193],[-45,268],[-91,-158],[-410,-132],[-178,84],[-122,378],[215,361],[-239,86],[173,355],[8,320],[-231,-71],[-106,165],[-506,-323],[-109,391],[70,145],[132,-26],[-131,385],[-362,117],[-75,150],[-132,-17],[-86,-309],[-150,49],[39,576],[-148,249],[66,134],[-168,-117],[-62,122],[82,240],[-119,364],[306,-113],[479,875],[404,241],[329,-927],[-266,-552],[712,-85],[282,285],[143,-12],[143,255],[-77,335],[136,492],[166,94],[-30,235],[248,129],[-89,956],[231,171],[337,-47],[-386,589],[15,487],[274,-66],[-29,141],[-272,114],[11,130],[278,-43],[225,-582],[283,-236],[-75,-375],[69,-180],[729,-649],[142,-319],[-108,-258],[3110,4],[107,303],[204,25],[482,571],[58,496],[417,-184],[184,168],[209,-194],[134,22],[4,209],[107,-140],[-36,121],[252,274],[167,-145],[-49,300],[157,47],[-4,232],[196,249],[-116,80],[65,347],[311,279],[-169,132],[279,264],[-110,-22],[-23,213],[224,-31],[23,163],[148,-242]],[[57506,85618],[221,-128],[-128,-150],[168,-29],[103,-196],[130,-17],[-5,138],[204,-588],[231,150],[-38,-137],[199,-60],[135,-251],[-46,-265],[272,-117],[-138,-223],[219,-118],[-62,-228],[331,-159],[-54,-492],[70,-535],[125,-136],[-1535,0],[39,-6806],[-5208,-1594]],[[76482,47322],[32,-2212],[-1052,-6],[-6,-3834],[-3427,1]],[[72029,41271],[-29,174],[193,346],[150,-53],[185,202],[87,478],[360,233],[136,-75],[-12,2456],[493,5],[5,2306]],[[73597,47343],[1162,4]],[[74759,47347],[1723,-25]],[[58541,44833],[-532,-319],[-82,-140],[84,-186],[-129,-44],[119,-159],[-108,15],[6,-103],[-263,88],[-189,-309],[-83,99],[-318,-111],[-251,162],[-282,-255],[-295,72],[-8,106],[-529,-356],[-246,172],[-413,-102],[-417,146],[-314,-71],[-401,352],[-279,-103],[-275,165],[-779,-253],[-3,497],[-243,370],[-343,987],[-292,151],[-314,-45]],[[51362,45659],[230,289],[535,-93]],[[52127,45855],[354,13],[358,296],[373,-103],[357,384],[2128,123],[2477,2665]],[[51118,55983],[-4496,-5]],[[46622,55978],[-42,485],[233,80],[212,-60],[97,-190],[81,86],[30,196],[-376,412],[229,84],[156,384],[-67,125],[685,18],[-40,420],[-242,45],[-205,631],[230,514],[-156,325],[19,330],[-218,6],[-546,359]],[[46702,60228],[-204,201],[-327,-101],[-181,457],[-224,208],[107,182],[-39,617],[128,777],[-157,291],[57,1209],[-193,519]],[[45669,64588],[6877,-1],[-105,-625],[-359,-639],[-8,-412],[-173,-273],[-239,-104],[28,-300],[-111,-84],[-130,115],[-338,-318],[118,-50],[-121,-139],[72,-85]],[[51180,61673],[-91,-361],[101,-146],[-212,-5],[83,-242],[-234,-369],[48,-351],[-113,-334],[113,-230],[-197,-92],[115,-229],[-37,-398],[-70,-216],[-205,36],[-54,-627],[164,-91],[-114,-363],[217,-117],[-149,-341],[318,-340],[-144,-174],[26,-207],[101,-18],[-36,-314],[308,-161]],[[60562,45949],[-2388,3284]],[[58174,49233],[2727,2952]],[[60901,52185],[2457,-3226]],[[74533,21437],[-78,-101],[-573,232],[-197,-84],[-195,285],[-515,336]],[[72975,22105],[-41,5938],[2105,13]],[[79876,29604],[162,-22],[238,-533],[175,-23],[109,-673],[-175,-1018],[-202,-277],[-191,5],[19,-374]],[[80011,26689],[86,-100],[-229,-189],[-107,-629],[246,-1645],[-215,-427],[43,-105],[-309,-260],[-51,-381],[-244,-316],[-831,-2126],[-183,-151],[-499,-1699]],[[66729,9258],[123,-320],[309,417],[379,137],[87,225],[219,-39],[948,2263],[772,718],[6,495],[214,178],[-21,236],[113,173],[-26,532],[200,307],[367,-49],[310,172],[461,592],[492,141],[1222,1158],[672,274],[412,400],[597,215],[242,362],[287,1053],[-112,308],[121,304],[-134,164],[90,538],[-546,1225]],[[74533,21437],[1280,54],[577,-777],[221,19],[278,361],[203,-5],[62,-627],[204,-221],[-40,-539],[212,-142],[0,-375],[188,-524]],[[77718,18661],[57,-8]],[[77775,18653],[-289,-351],[-122,-421],[-174,75],[-194,-284],[144,-96],[-43,-363],[118,98],[65,-220],[-735,-242],[-204,-524],[-46,-690],[-252,-276],[-135,-505],[126,-346],[-135,-581],[-264,-349],[30,-175],[-414,-1104],[208,-253]],[[75459,12046],[-56,-296],[-275,-295],[-892,244],[-190,-282],[-568,-317],[227,-632],[-91,-707],[-75,-294],[-458,-534],[-733,-464],[-504,-7],[-434,214],[-369,-21],[-90,-128],[-125,85],[26,-108],[-118,78],[-148,-223],[-145,1],[27,-112],[-202,-11],[-247,-455],[-294,-135],[-43,-345],[143,26],[129,-335],[136,-40],[340,119],[208,-217],[261,104],[282,-70],[437,210],[240,444],[305,-83],[260,100],[726,-648],[779,76],[240,-167],[764,386],[478,-134],[310,521],[572,-84],[422,523],[729,94],[-84,-1157],[194,-1210],[4468,34],[11,2038],[1253,-49],[-3,-1370],[1593,10],[9,-108],[693,115],[211,-88],[279,171],[186,-75]],[[86253,6438],[517,3]],[[86770,6441],[-193,-1179],[-712,-17],[-1369,-2598],[-400,-278],[-361,66],[-4,96]],[[83731,2531],[-212,133],[-244,-196],[-300,261],[-476,-233],[-96,387],[209,10],[-161,371],[294,106],[-378,224],[-455,50],[-57,-188],[220,-98],[-354,-189],[-46,171],[-441,172],[-164,-690],[-281,206],[-194,-159],[16,291],[-127,-117],[7,-226],[-139,259],[-366,50],[-23,112],[18,-346],[-163,-154],[-194,193],[-364,7],[-210,503],[-456,-164],[-226,487],[-128,-74],[-13,-368],[-428,-44],[-201,-272],[-559,24],[-215,-150],[-1,-199],[-923,-272],[-544,128],[-684,520],[-228,-6],[-93,152],[31,372],[-444,-404],[-112,5],[-104,257],[5,-313],[-316,137],[-91,-208],[-246,238],[-247,-72],[-137,153],[28,-134],[-131,-123],[-450,-61],[55,-138],[-383,41],[6,-287],[-273,399],[-102,-335],[-474,166],[83,-224],[-141,112],[-283,-264],[11,384],[-179,-201],[-117,54],[-313,666],[-2,708],[-137,453],[-304,-49],[-370,453],[-108,-132],[-322,161],[118,263],[-213,54],[84,241],[-375,193],[49,-132],[-88,-3],[-194,325],[7,383],[-270,-55],[-344,382],[-1,412],[-203,-138],[-185,102],[-13,143],[-409,369],[69,734],[-87,968]],[[79876,29604],[-2025,-1],[-241,-154],[-216,-457],[-250,-108],[-67,-170],[-192,38],[-234,-650]],[[76683,34090],[-142,246],[2280,1],[-75,-303],[1086,9],[-18,-433],[-260,-263],[-151,-647],[-212,-312],[-85,-779],[51,-282],[235,-192],[55,-729],[156,-238],[-16,-424],[289,-140]],[[74559,32125],[372,715],[77,336],[-78,139],[183,28],[-44,278],[100,201],[-272,133],[84,150]],[[74981,34105],[1702,-15]],[[76683,34090],[327,-1],[7,-2533],[394,-5],[-200,-246],[-61,-418],[-255,78],[-248,-331],[4,-2532]],[[76651,28102],[-278,-36],[-47,263],[-465,-253],[-822,-20]],[[75039,28056],[-2,4072],[-478,-3]],[[44422,21688],[469,136],[338,367],[53,438],[-379,748],[38,387],[-938,1],[-117,128],[-297,611],[-55,840],[-298,263],[-255,641],[-181,-109],[-1179,284],[-333,-55],[-454,-563],[-679,180],[-147,-217],[-507,-87],[-292,107],[-480,620],[362,141],[46,317],[312,85],[584,1082],[-97,520],[131,600],[380,260],[205,492],[708,293],[518,617],[86,254],[-50,545],[185,239],[327,15],[95,660],[3374,-100]],[[52322,26078],[1401,122],[1086,-198],[1397,207],[592,-132],[215,283],[462,194],[126,565],[342,307],[30,266],[1262,-2228]],[[59235,25464],[287,-300],[418,92],[358,-404],[109,50],[347,-273],[264,23],[448,-323],[246,49],[1045,-773],[1468,431],[575,-1456],[-16,-358],[-173,-84],[77,-412],[-231,-391],[95,-136],[1,-537],[-432,-637],[-896,-908],[-232,-687],[-183,-367],[-154,-18],[-356,-854],[-361,-303],[-198,-384],[-474,-88],[-259,-497],[-59,-467],[-366,225],[-179,-240],[-253,10],[-564,-996],[-386,-272],[-110,-345],[-589,-3],[-133,-326],[-384,-112],[-155,273],[99,350],[-94,168],[-187,-67],[30,223],[-218,-187],[-300,111],[1,283],[-93,31],[-323,-149],[-354,79],[-330,-275],[-374,357]],[[55687,14590],[-415,315],[-235,-37],[-137,-274],[-169,202],[-240,-224],[-102,276],[-366,111],[10,472],[-182,93],[17,272],[-195,161],[-190,700],[-158,210],[-326,81],[10,353],[280,267],[-535,122],[95,444],[109,16],[-122,378],[-344,158],[-101,-255],[-323,27],[-190,429],[-116,-165],[33,-345],[-403,336],[-55,-142],[108,-275],[-114,-185],[-689,-73],[209,-374],[-79,-121],[-873,145],[-699,448],[-381,-33],[-210,175],[-312,660],[-401,47],[-12,136],[201,67],[-169,214],[25,339],[-918,-52],[-363,379],[-330,651],[-902,406],[-116,216],[-724,170],[-166,177]],[[52322,26078],[-212,-396],[4,119],[-151,10],[-68,-337],[-187,-85],[-318,195],[-65,-101],[-50,119],[-103,-202],[-367,-196],[82,-409],[-184,-424],[-132,161],[-217,-44],[-123,207],[-73,-165],[-116,84],[-124,-413],[-290,353],[-195,-162],[53,218],[-133,291],[124,297],[-4,588],[155,279],[-75,290],[180,114],[36,514],[189,198],[121,1283],[290,234],[159,494],[-223,569],[7,400],[-316,382],[-263,5],[-420,274],[-267,346],[-372,821],[269,432],[-3048,7]],[[45895,32428],[-366,675],[308,469],[501,277],[73,472],[-1331,730],[-197,-13],[-393,794]],[[44490,35832],[3,351],[182,-108],[110,381],[173,-312],[149,332],[451,97]],[[45558,36573],[415,-117],[329,259],[147,-57],[316,295],[386,696],[220,48],[193,-321],[409,-33],[897,457],[980,129],[265,133],[164,319],[560,225],[672,-1],[108,401],[300,310],[70,-544],[507,-279],[424,59],[317,509],[410,205],[190,-30],[199,-396],[384,11],[848,-557],[7,-501],[362,-650],[425,-445],[606,-1241],[203,-735],[10,-434],[-245,-573],[270,-568],[-172,-505],[132,-518],[-484,-887],[-412,-466],[-44,-239],[-242,-106],[32,139],[-119,92],[-239,-176],[-196,119],[-387,-43],[-48,-161],[-698,-271],[-118,-119],[49,-201],[-213,-283],[-142,-1],[-138,-381],[-463,-149],[-43,-179],[-253,-123],[54,-271],[-335,-260],[59,-329],[-145,-167],[42,-311],[117,-95],[-51,-250],[111,-109],[-238,-819]],[[66624,48863],[-585,-1771],[110,-443]],[[61339,46639],[1484,1486],[535,834]],[[63358,48959],[669,1036],[2597,-1132]],[[66453,60664],[-592,23],[-310,-119],[-60,-201],[-340,-36],[-80,-153],[-292,97],[-162,-285],[-265,-27],[-117,-262],[-16,95],[-271,-128],[-315,-297],[-279,-464],[-227,10],[-318,302],[-214,-100],[-228,250],[-527,-6],[-121,300],[-1286,-1586],[-1586,1482]],[[58847,59559],[743,1621],[210,8],[138,194],[33,552],[152,399],[-91,359],[261,168],[-125,105],[61,443],[179,243],[366,31],[426,1525],[585,603],[-4,257],[194,395],[-79,537],[67,589],[389,403]],[[69014,65475],[-142,-650],[-432,-486],[318,-614],[-3,-311]],[[58541,44833],[56,300],[148,-82],[211,145],[-93,67],[68,478],[224,-83],[252,258],[-1,-333],[176,-38],[433,463],[212,-386],[335,327]],[[60562,45949],[86,-130],[691,820]],[[61339,46639],[4020,377],[790,-367]],[[66149,46649],[165,-77]],[[66314,46572],[-109,-261],[-245,150],[144,-543]],[[66104,45918],[-230,-137],[48,159],[-203,-77],[-25,313],[-211,-361],[-162,13],[0,-654],[-143,124],[-207,-82],[-76,-342],[-199,-90],[81,-135],[-174,-560],[-2566,-74],[-1973,-843],[-1523,1661]],[[62352,67991],[8,21]],[[62360,68012],[424,295],[360,487],[353,40],[364,377],[304,37],[700,-428],[390,312],[233,10],[173,542],[585,66],[350,437],[148,324],[-34,302],[241,431],[460,279],[20,303],[246,372],[-77,118],[106,273],[351,213],[159,-27],[-82,-361],[159,-454],[28,-561],[286,-206],[37,-177],[-72,-708],[-404,55],[-149,-249],[41,-327],[218,-79],[38,-223],[140,63],[81,-125],[-159,-175],[95,-441],[-292,223],[-23,-521],[201,-187],[365,7],[766,1683],[-361,526],[398,1893],[831,-272],[423,1171],[1387,2],[194,327],[308,174],[-230,552],[46,205],[286,-405],[129,52],[-37,1093],[353,-72],[364,1067],[240,44]],[[73821,76369],[-138,-233],[0,-400],[195,124],[846,-551],[-125,-229],[155,-301],[-87,-313],[-355,-411],[131,-78],[-88,-140],[751,-528],[-337,-235],[318,-316],[195,83],[44,-639],[215,-239],[-111,-640],[103,-165],[270,-69],[-246,-537],[-182,-45],[23,-514],[-386,-357],[-194,-63],[-99,143],[-307,-185]],[[74412,69531],[-480,587],[-515,-393],[-951,-431],[-693,47],[-202,202],[-250,-45],[-89,-327],[61,-361],[-195,-364],[16,-350],[-464,-205],[-77,-385],[73,-466],[-526,-780],[218,-793],[-10,-625],[-527,132],[-142,-190],[-399,723],[-190,-129],[-56,97]],[[69014,65475],[-880,14],[-163,-412],[-723,-460],[-322,-708],[-271,17],[-255,-232],[-363,-54],[-648,374],[-493,573],[-77,492],[-168,192],[62,126],[-428,250],[-69,172],[-933,423],[-299,-37],[-105,-214],[-191,148],[-81,825],[-362,652],[107,375]],[[64676,56254],[1957,2131],[-259,484],[-10,658],[102,261],[-174,163],[161,713]],[[66453,60664],[188,263],[-67,313],[191,-66],[99,300],[133,-110],[472,180],[155,314],[314,165],[137,433],[209,-183],[226,47],[-117,427],[158,301],[120,-83],[-68,467],[152,-18]],[[68755,63414],[58,-182],[501,-149],[324,-536]],[[69638,62547],[-666,-818],[-2036,-8670],[-1982,774],[365,1635],[-643,786]]]}