{"type":"Topology","objects":{"data":{"geometries":[{"properties":{"cd_mun_ibge":"3300100"},"type":"MultiPolygon","arcs":[[[0]],[[1]],[[2]],[[3]],[[4]],[[5]],[[6]],[[7]],[[8]],[[9]],[[10]],[[11]],[[12]],[[13]],[[14]],[[15]],[[16]],[[17]],[[18]],[[19]],[[20]],[[21]],[[22]],[[23]],[[24]],[[25]],[[26]],[[27]],[[28]],[[29]],[[30]],[[31]],[[32]],[[33]],[[34]],[[-435,35,-531,-322,36]],[[37]],[[38]],[[39]],[[40]],[[41]],[[42]],[[43]],[[44]],[[45]],[[46]],[[47]],[[48]],[[49]],[[50]],[[51]],[[52]],[[53]],[[54]],[[55]],[[56]],[[57]],[[58]],[[59]],[[60]],[[61]],[[62]],[[63]],[[64]],[[65]],[[66]],[[67]],[[68]],[[69]],[[70]],[[71]],[[72]],[[73]],[[74]],[[75]],[[76]],[[77]],[[78]],[[79]],[[80]],[[81]],[[82]],[[83]],[[84]],[[85]],[[86]],[[87]],[[88]],[[89]],[[90]],[[91]],[[92]],[[93]],[[94]],[[95]],[[96]],[[97]],[[98]],[[99]],[[100]],[[101]],[[102]],[[103]],[[104]],[[105]],[[106]],[[107]],[[108]],[[109]],[[110]],[[111]],[[112]],[[113]],[[114]],[[115]],[[116]],[[117]],[[118]],[[119]],[[120]],[[121]],[[122]],[[123]],[[124]],[[125]],[[126]],[[127]],[[128]],[[129]],[[130]],[[131]],[[132]],[[133]],[[134]],[[135]],[[136]],[[137]],[[138]],[[139]],[[140]],[[141]],[[142]],[[143]],[[144]],[[145]],[[146]],[[147]],[[148]],[[149]],[[150]],[[151]],[[152]],[[153]]],"id":0},{"properties":{"cd_mun_ibge":"3300159"},"type":"MultiPolygon","arcs":[[[-272,-720,-207]]],"id":1},{"properties":{"cd_mun_ibge":"3300209"},"type":"MultiPolygon","arcs":[[[-791,-526,-797,-219,-199,-772,-234,-185,154]]],"id":2},{"properties":{"cd_mun_ibge":"3300225"},"type":"MultiPolygon","arcs":[[[-418,-829,-500]]],"id":3},{"properties":{"cd_mun_ibge":"3300233"},"type":"MultiPolygon","arcs":[[[155]],[[156]],[[157]],[[158]],[[-196,159]],[[160]],[[161]],[[162]],[[163]],[[164]],[[165]],[[166]],[[167]],[[168]],[[169]],[[170]],[[171]],[[172]],[[173]],[[174]],[[175]],[[176]],[[177]],[[178]]],"id":4},{"properties":{"cd_mun_ibge":"3300258"},"type":"MultiPolygon","arcs":[[[179]],[[180]],[[181]],[[182]],[[183]],[[184,-235,-770,-198,185]]],"id":5},{"properties":{"cd_mun_ibge":"3300308"},"type":"MultiPolygon","arcs":[[[-501,-848,-187,-831,-841,-373,-503]]],"id":6},{"properties":{"cd_mun_ibge":"3300407"},"type":"MultiPolygon","arcs":[[[-520,-509,-511,-832,186,-851,-527,187]]],"id":7},{"properties":{"cd_mun_ibge":"3300456"},"type":"MultiPolygon","arcs":[[[-230,-764,-375,-406]]],"id":8},{"properties":{"cd_mun_ibge":"3300506"},"type":"MultiPolygon","arcs":[[[-226,-225,-820,-402]]],"id":9},{"properties":{"cd_mun_ibge":"3300605"},"type":"MultiPolygon","arcs":[[[-383,-838,188,-211,-277]]],"id":10},{"properties":{"cd_mun_ibge":"3300704"},"type":"MultiPolygon","arcs":[[[189]],[[190]],[[191]],[[192]],[[193]],[[194]],[[195,196,197,-773,198,-221,199]],[[200]],[[201]],[[202]],[[203]],[[204]],[[205]]],"id":11},{"properties":{"cd_mun_ibge":"3300803"},"type":"MultiPolygon","arcs":[[[-233,-816,-405,-799,-525,-238]]],"id":12},{"properties":{"cd_mun_ibge":"3300902"},"type":"MultiPolygon","arcs":[[[-270,-738,-273,206,-725,-765,-275]]],"id":13},{"properties":{"cd_mun_ibge":"3300936"},"type":"MultiPolygon","arcs":[[[-223,-515,207,-288]]],"id":14},{"properties":{"cd_mun_ibge":"3300951"},"type":"MultiPolygon","arcs":[[[-825,-417,208]]],"id":15},{"properties":{"cd_mun_ibge":"3301009"},"type":"MultiPolygon","arcs":[[[209]],[[-222,-718,-735,-215,-268,210,211,-731,-751,212,-517]]],"id":16},{"properties":{"cd_mun_ibge":"3301108"},"type":"MultiPolygon","arcs":[[[-296,-224,-228,-217,213,-722,-271,-775]]],"id":17},{"properties":{"cd_mun_ibge":"3301157"},"type":"MultiPolygon","arcs":[[[214,-734,-269]]],"id":18},{"properties":{"cd_mun_ibge":"3301207"},"type":"MultiPolygon","arcs":[[[-779,215,216,-227,-805]]],"id":19},{"properties":{"cd_mun_ibge":"3301306"},"type":"MultiPolygon","arcs":[[[217]],[[218,-801,-404,-286,-549,219,220]]],"id":20},{"properties":{"cd_mun_ibge":"3301405"},"type":"MultiPolygon","arcs":[[[-817,-719,221,-516,222,-287]]],"id":21},{"properties":{"cd_mun_ibge":"3301504"},"type":"MultiPolygon","arcs":[[[223,-295,-821,224,-229]]],"id":22},{"properties":{"cd_mun_ibge":"3301603"},"type":"MultiPolygon","arcs":[[[225,-401,-806,226,227,228]]],"id":23},{"properties":{"cd_mun_ibge":"3301702"},"type":"MultiPolygon","arcs":[[[-760,229,-410,-376,-496,-302,230,-617]]],"id":24},{"properties":{"cd_mun_ibge":"3301801"},"type":"MultiPolygon","arcs":[[[-415,-374,-847,-378]]],"id":25},{"properties":{"cd_mun_ibge":"3301850"},"type":"MultiPolygon","arcs":[[[-237,231,-303,-494,-811,232]]],"id":26},{"properties":{"cd_mun_ibge":"3301876"},"type":"MultiPolygon","arcs":[[[233,-771,234]]],"id":27},{"properties":{"cd_mun_ibge":"3301900"},"type":"MultiPolygon","arcs":[[[235,236,237,-807,-371,-744]],[[238]]],"id":28},{"properties":{"cd_mun_ibge":"3302007"},"type":"MultiPolygon","arcs":[[[239]],[[240]],[[241]],[[242]],[[243]],[[244]],[[-362,245]],[[246]],[[247]],[[248]],[[249]],[[250]],[[251]],[[252]],[[253]],[[-344,254,-595,255]],[[256]],[[257]],[[258]],[[259]],[[260]],[[261]],[[262]],[[263]],[[264]],[[265]],[[266,-323,-529,-506,-413,-796,-613]]],"id":29},{"properties":{"cd_mun_ibge":"3302056"},"type":"MultiPolygon","arcs":[[[-274,267,268,-733,269]]],"id":30},{"properties":{"cd_mun_ibge":"3302106"},"type":"MultiPolygon","arcs":[[[-776,270,-721,271,272,-737]]],"id":31},{"properties":{"cd_mun_ibge":"3302205"},"type":"MultiPolygon","arcs":[[[273,274,-768,-381,-280,275,-384,276]]],"id":32},{"properties":{"cd_mun_ibge":"3302254"},"type":"MultiPolygon","arcs":[[[277,-522]]],"id":33},{"properties":{"cd_mun_ibge":"3302270"},"type":"MultiPolygon","arcs":[[[-513,-793,-412,-377,-408]]],"id":34},{"properties":{"cd_mun_ibge":"3302304"},"type":"MultiPolygon","arcs":[[[278,279,-380]]],"id":35},{"properties":{"cd_mun_ibge":"3302403"},"type":"MultiPolygon","arcs":[[[280]],[[281]],[[282]],[[283]],[[284]],[[-550,285,-403,-818,286,287,288]],[[289]],[[290]],[[291]],[[292]],[[293]]],"id":36},{"properties":{"cd_mun_ibge":"3302452"},"type":"MultiPolygon","arcs":[[[-822,294,295,-774]]],"id":37},{"properties":{"cd_mun_ibge":"3302502"},"type":"MultiPolygon","arcs":[[[296]],[[297]],[[298]],[[299]],[[300,301,-495,302]]],"id":38},{"properties":{"cd_mun_ibge":"3302601"},"type":"MultiPolygon","arcs":[[[303]],[[304]],[[305]],[[306]],[[307]],[[308]],[[309]],[[310]],[[311]],[[312]],[[313]],[[314]],[[315]],[[316]],[[317]],[[318]],[[319]],[[320]],[[321,-530,322,323]],[[324]],[[325]],[[326]],[[327]],[[328]],[[329]],[[330]],[[331]],[[332]],[[333]],[[334]],[[335]],[[336]],[[337]],[[338]],[[339]],[[340]],[[341]],[[342]],[[343,344]],[[345]],[[346]],[[347]],[[348]],[[349]],[[350]],[[351]],[[352]],[[353]],[[354]],[[355]],[[356]],[[357]],[[358]],[[359]],[[360]],[[361,362]],[[363]]],"id":39},{"properties":{"cd_mun_ibge":"3302700"},"type":"MultiPolygon","arcs":[[[364]],[[365]],[[366]],[[367]],[[368]],[[369]],[[-399,-745,370,-810,-789,371]]],"id":40},{"properties":{"cd_mun_ibge":"3302809"},"type":"MultiPolygon","arcs":[[[-414,-504,372,-840,373]]],"id":41},{"properties":{"cd_mun_ibge":"3302858"},"type":"MultiPolygon","arcs":[[[-385,-615,-407,374,-763]]],"id":42},{"properties":{"cd_mun_ibge":"3302908"},"type":"MultiPolygon","arcs":[[[-497,375,-409,376,-411,377,-846,-493]]],"id":43},{"properties":{"cd_mun_ibge":"3303005"},"type":"MultiPolygon","arcs":[[[378,379,380,-767,-724]]],"id":44},{"properties":{"cd_mun_ibge":"3303104"},"type":"MultiPolygon","arcs":[[[381,-507,-839,382,383]]],"id":45},{"properties":{"cd_mun_ibge":"3303203"},"type":"MultiPolygon","arcs":[[[384,-762,-616]]],"id":46},{"properties":{"cd_mun_ibge":"3303302"},"type":"MultiPolygon","arcs":[[[385]],[[386]],[[387]],[[388]],[[389]],[[390]],[[391]],[[392]],[[393]],[[394]],[[395]],[[396]],[[397]],[[-746,398,399]]],"id":47},{"properties":{"cd_mun_ibge":"3303401"},"type":"MultiPolygon","arcs":[[[-815,-802,400,401,-819,402,403,-800,404]]],"id":48},{"properties":{"cd_mun_ibge":"3303500"},"type":"MultiPolygon","arcs":[[[405,406,-614,-795,-514,407,408,409]]],"id":49},{"properties":{"cd_mun_ibge":"3303609"},"type":"MultiPolygon","arcs":[[[410,411,-792,412,-505,413,414]]],"id":50},{"properties":{"cd_mun_ibge":"3303708"},"type":"MultiPolygon","arcs":[[[-844,-533,415,416,-830,417,-499,-492]]],"id":51},{"properties":{"cd_mun_ibge":"3303807"},"type":"MultiPolygon","arcs":[[[418]],[[419]],[[420]],[[421]],[[422]],[[423]],[[424]],[[425]],[[426]],[[427]],[[428]],[[429]],[[430]],[[431]],[[432]],[[433]],[[434,435]],[[436]],[[437]],[[438]],[[439]],[[440]],[[441]],[[442]],[[443]],[[444]],[[445]],[[446]],[[447]],[[448]],[[449]],[[450]],[[451]],[[452]],[[453]],[[454]],[[455]],[[456]],[[457]],[[458]],[[459]],[[460]],[[461]],[[462]],[[463]],[[464]],[[465]],[[466]],[[467]],[[468]],[[469]],[[470]],[[471]],[[472]],[[473]],[[474]],[[475]],[[476]],[[477]],[[478]],[[479]],[[480]],[[481]],[[482]],[[483]],[[484]],[[485]],[[486]],[[487]],[[488]],[[489]],[[490]]],"id":52},{"properties":{"cd_mun_ibge":"3303856"},"type":"MultiPolygon","arcs":[[[-845,491,-498,492]]],"id":53},{"properties":{"cd_mun_ibge":"3303906"},"type":"MultiPolygon","arcs":[[[493,494,495,496,497,498,499,-769,-812]]],"id":54},{"properties":{"cd_mun_ibge":"3303955"},"type":"MultiPolygon","arcs":[[[-502,-849,500]]],"id":55},{"properties":{"cd_mun_ibge":"3304003"},"type":"MultiPolygon","arcs":[[[-850,501,502,503,504,505,-528]]],"id":56},{"properties":{"cd_mun_ibge":"3304102"},"type":"MultiPolygon","arcs":[[[-836,506,507]]],"id":57},{"properties":{"cd_mun_ibge":"3304110"},"type":"MultiPolygon","arcs":[[[-519,-512,508]]],"id":58},{"properties":{"cd_mun_ibge":"3304128"},"type":"MultiPolygon","arcs":[[[509,-833,510,511,-524]]],"id":59},{"properties":{"cd_mun_ibge":"3304144"},"type":"MultiPolygon","arcs":[[[-794,512,513]]],"id":60},{"properties":{"cd_mun_ibge":"3304151"},"type":"MultiPolygon","arcs":[[[514,515,516,517]]],"id":61},{"properties":{"cd_mun_ibge":"3304201"},"type":"MultiPolygon","arcs":[[[518,519,520,521,522,523]]],"id":62},{"properties":{"cd_mun_ibge":"3304300"},"type":"MultiPolygon","arcs":[[[-790,-808,524,-798,525]]],"id":63},{"properties":{"cd_mun_ibge":"3304409"},"type":"MultiPolygon","arcs":[[[526,527,528,529,530,531]]],"id":64},{"properties":{"cd_mun_ibge":"3304508"},"type":"MultiPolygon","arcs":[[[532,-843,-835,533]]],"id":65},{"properties":{"cd_mun_ibge":"3304524"},"type":"MultiPolygon","arcs":[[[534]],[[535]],[[536]],[[537]],[[538]],[[539]],[[540]],[[541]],[[542]],[[543]],[[544]],[[545]],[[546]],[[547,548,549]],[[550]],[[551]],[[552]],[[553]],[[554]],[[555]],[[556]],[[557]],[[558]],[[559]],[[560]],[[561]],[[562]],[[563]],[[564]],[[565]],[[566]],[[567]],[[568]],[[569]],[[570]],[[571]],[[572]],[[573]],[[574]],[[575]],[[576]],[[577]]],"id":66},{"properties":{"cd_mun_ibge":"3304557"},"type":"MultiPolygon","arcs":[[[578]],[[579]],[[580]],[[581]],[[582]],[[583]],[[584]],[[585]],[[586]],[[587]],[[588]],[[589]],[[590]],[[591]],[[592]],[[593]],[[594,595]],[[596]],[[597]],[[598]],[[599]],[[600]],[[601]],[[602]],[[603]],[[604]],[[605]],[[606]],[[607]],[[608]],[[609]],[[610]],[[611,612,613,614,615,-761,616]],[[617]],[[618]],[[619]],[[620]],[[621]],[[622]],[[623]],[[624]],[[625]],[[626]],[[627]],[[628]],[[629]],[[630]],[[631]],[[632]],[[633]],[[634]],[[635]],[[636]],[[637]],[[638]],[[639]],[[640]],[[641]],[[642]],[[643]],[[644]],[[645]],[[646]],[[647]],[[648]],[[649]],[[650]],[[651]],[[652]],[[653]],[[654]],[[655]],[[656]],[[657]],[[658]],[[659]],[[660]],[[661]],[[662]],[[663]],[[664]],[[665]],[[666]],[[667]],[[668]],[[669]],[[670]],[[671]],[[672]],[[673]],[[674]],[[675]],[[676]],[[677]],[[678]],[[679]],[[680]],[[681]],[[682]],[[683]],[[684]],[[685]],[[686]],[[687]],[[688]],[[689]],[[690]],[[691]],[[692]],[[693]],[[694]],[[695]],[[696]],[[697]],[[698]],[[699]],[[700]],[[701]],[[702]],[[703]],[[704]],[[705]],[[706]],[[707]],[[708]],[[709]],[[710]],[[711]],[[712]],[[713]],[[714]],[[715]],[[716]]],"id":67},{"properties":{"cd_mun_ibge":"3304607"},"type":"MultiPolygon","arcs":[[[-778,-736,717,718,-824]]],"id":68},{"properties":{"cd_mun_ibge":"3304706"},"type":"MultiPolygon","arcs":[[[719,720,721,722,723,-766,724]]],"id":69},{"properties":{"cd_mun_ibge":"3304755"},"type":"MultiPolygon","arcs":[[[725]],[[726]],[[727]],[[728]],[[729]],[[-752,730,731]]],"id":70},{"properties":{"cd_mun_ibge":"3304805"},"type":"MultiPolygon","arcs":[[[732,733,734,735,-777,736,737]]],"id":71},{"properties":{"cd_mun_ibge":"3304904"},"type":"MultiPolygon","arcs":[[[738]],[[739]],[[740]],[[741]],[[742,743,744,745]],[[746]],[[747]],[[748]],[[749]]],"id":72},{"properties":{"cd_mun_ibge":"3305000"},"type":"MultiPolygon","arcs":[[[750,751,752]],[[753]],[[754]],[[755]],[[756]],[[757]],[[758]]],"id":73},{"properties":{"cd_mun_ibge":"3305109"},"type":"MultiPolygon","arcs":[[[759,760,761,762,763]]],"id":74},{"properties":{"cd_mun_ibge":"3305133"},"type":"MultiPolygon","arcs":[[[764,765,766,767]]],"id":75},{"properties":{"cd_mun_ibge":"3305158"},"type":"MultiPolygon","arcs":[[[-803,-813,768,-828,-780]]],"id":76},{"properties":{"cd_mun_ibge":"3305208"},"type":"MultiPolygon","arcs":[[[769,770,771,772]]],"id":77},{"properties":{"cd_mun_ibge":"3305307"},"type":"MultiPolygon","arcs":[[[-823,773,774,775,776,777]]],"id":78},{"properties":{"cd_mun_ibge":"3305406"},"type":"MultiPolygon","arcs":[[[778,-804,779,-827,780]]],"id":79},{"properties":{"cd_mun_ibge":"3305505"},"type":"MultiPolygon","arcs":[[[781]],[[782]],[[783]],[[784]],[[785]],[[786]],[[787,788,-809,789,790]]],"id":80},{"properties":{"cd_mun_ibge":"3305554"},"type":"MultiPolygon","arcs":[[[791,792,793,794,795]]],"id":81},{"properties":{"cd_mun_ibge":"3305604"},"type":"MultiPolygon","arcs":[[[796,797,798,799,800]]],"id":82},{"properties":{"cd_mun_ibge":"3305703"},"type":"MultiPolygon","arcs":[[[801,-814,802,803,804,805]]],"id":83},{"properties":{"cd_mun_ibge":"3305752"},"type":"MultiPolygon","arcs":[[[806,807,808,809]]],"id":84},{"properties":{"cd_mun_ibge":"3305802"},"type":"MultiPolygon","arcs":[[[810,811,812,813,814,815]]],"id":85},{"properties":{"cd_mun_ibge":"3305901"},"type":"MultiPolygon","arcs":[[[816,817,818,819,820,821,822,823]]],"id":86},{"properties":{"cd_mun_ibge":"3306008"},"type":"MultiPolygon","arcs":[[[824,825,826,827,828,829]]],"id":87},{"properties":{"cd_mun_ibge":"3306107"},"type":"MultiPolygon","arcs":[[[-842,830,831,832,833,834]]],"id":88},{"properties":{"cd_mun_ibge":"3306156"},"type":"MultiPolygon","arcs":[[[835,836,837,838]]],"id":89},{"properties":{"cd_mun_ibge":"3306206"},"type":"MultiPolygon","arcs":[[[839,840,841,842,843,844,845,846]]],"id":90},{"properties":{"cd_mun_ibge":"3306305"},"type":"MultiPolygon","arcs":[[[847,848,849,850]]],"id":91}],"type":"GeometryCollection"}},"bbox":[-44.8893206,-23.368932,-40.95928936458556,-20.763385295308296],"transform":{"scale":[3.9300705361198005e-05,2.6055727604193086e-05],"translate":[-44.8893206,-23.368932]},"arcs":[[[12482,10360],[6,-9],[-37,-22],[22,46],[9,-15]],[[12190,11768],[9,-44],[-51,-17],[8,46],[34,15]],[[12272,11837],[-16,17],[23,14],[2,-7],[-9,-24]],[[12291,11882],[4,15],[10,-4],[-7,-24],[-7,13]],[[11943,11891],[133,85],[64,-78],[-158,-81],[-39,74]],[[12352,11996],[38,76],[25,-109],[-63,-37],[0,70]],[[12143,12020],[-10,-9],[-5,8],[11,8],[4,-7]],[[11909,12098],[9,17],[7,2],[1,-15],[-17,-4]],[[10299,12463],[-181,-319],[-292,-97],[32,258],[441,158]],[[12469,12388],[-3,-19],[-9,2],[5,19],[7,-2]],[[12465,12421],[2,-9],[-8,-4],[-1,11],[7,2]],[[10096,12463],[-7,3],[-13,-9],[18,29],[2,-23]],[[9429,12694],[-48,23],[130,76],[-5,-28],[-77,-71]],[[12481,12821],[45,-11],[-87,-67],[1,69],[41,9]],[[12115,12842],[26,37],[23,-47],[-19,-28],[-30,38]],[[11177,12878],[71,69],[52,127],[-65,-232],[-58,36]],[[10352,12938],[14,62],[39,13],[-12,-45],[-41,-30]],[[12319,12907],[58,232],[92,8],[-45,-209],[-105,-31]],[[11525,13205],[23,-40],[-16,-14],[-21,11],[14,43]],[[11788,13568],[-11,23],[10,10],[11,-18],[-10,-15]],[[11884,14026],[-7,-12],[-5,22],[7,4],[5,-14]],[[11665,14085],[0,-52],[-33,-19],[0,74],[33,-3]],[[11857,14077],[-4,-10],[-5,1],[5,12],[4,-3]],[[11891,14341],[-11,-9],[-17,6],[26,43],[2,-40]],[[12233,14357],[-22,90],[101,-58],[-38,-111],[-41,79]],[[12443,14394],[0,17],[16,-13],[-7,-4],[-9,0]],[[12346,14510],[64,34],[33,-63],[-26,-47],[-71,76]],[[12104,14537],[-79,86],[8,68],[190,-138],[-119,-16]],[[12131,14787],[15,7],[25,-25],[-79,0],[39,18]],[[12266,14871],[129,202],[178,-120],[-105,-215],[-202,133]],[[12244,14996],[7,14],[14,-4],[-13,-18],[-8,8]],[[11644,15103],[-24,45],[47,9],[4,-30],[-27,-24]],[[11839,15334],[197,96],[50,-60],[-224,-211],[-23,175]],[[12271,15613],[25,-19],[-68,7],[21,22],[22,-10]],[[12466,16040],[1,-32],[-28,-24],[-1,35],[28,21]],[[6378,17454],[798,1110],[191,-212],[612,489],[503,-387],[314,121],[121,432],[1125,1033],[406,-157],[-36,-600],[355,-724],[726,471],[495,959],[1034,-392],[1330,789],[38,-454],[146,173]],[[18413,12857],[-264,-94],[111,-392],[-276,43],[-80,-287],[-241,-50],[32,506],[-190,106],[-1089,-646],[-160,250],[750,1254],[-756,698],[-267,-363],[-310,123],[-437,-786],[-402,19],[236,545],[-150,290],[-359,-263],[55,-235],[-294,50],[6,-267],[-652,-362],[37,283],[-322,180],[205,754],[353,310],[342,-174],[-45,449],[303,-78],[449,1026],[-485,84],[-365,-423],[-125,377],[245,136],[-140,280],[367,400],[-638,554],[-220,-354],[-137,297],[-154,-29],[123,-296],[-350,-372],[87,-260],[151,303],[379,-203],[-249,-449],[-369,-87],[-79,-388],[-212,-85],[188,537],[-459,140],[1,257],[-36,-298],[-17,210],[-417,-156],[163,129],[-111,379],[-337,-818],[-234,-45],[-76,-386],[172,-192],[-261,-528],[415,-209],[-556,-563],[388,-336],[-341,-243],[-163,412],[-223,-57],[36,360],[-285,-142],[194,180],[-390,74],[-660,-921],[-448,97]],[[12182,16230],[0,-6],[-5,0],[2,5],[3,1]],[[12175,16245],[6,-7],[-6,-9],[-5,7],[5,9]],[[12203,16272],[-5,-13],[-4,1],[0,11],[9,1]],[[13528,6007],[1,-74],[-82,-8],[40,75],[41,7]],[[12548,11421],[18,99],[87,32],[-32,-148],[-73,17]],[[13043,11918],[1,20],[10,-5],[0,-20],[-11,5]],[[13035,11974],[-3,-12],[-11,-10],[-2,17],[16,5]],[[13044,12001],[-12,-6],[3,22],[15,2],[-6,-18]],[[13216,12662],[327,147],[264,-161],[-119,-771],[194,-162],[-49,-196],[-143,195],[-285,-305],[223,318],[-209,654],[-762,61],[363,507],[196,-287]],[[12561,12628],[111,8],[4,-63],[-101,-53],[-14,108]],[[13969,12711],[-30,-65],[-42,-7],[-1,58],[73,14]],[[12506,12737],[2,-6],[-5,-2],[1,4],[2,4]],[[12864,12850],[-3,2],[4,10],[3,-6],[-4,-6]],[[13381,13622],[4,4],[5,-16],[-7,1],[-2,11]],[[13246,13702],[-14,-21],[-10,16],[16,13],[8,-8]],[[13221,13768],[3,-3],[-10,-11],[0,8],[7,6]],[[13385,13785],[3,-9],[-25,-16],[9,28],[13,-3]],[[12889,13903],[-10,-28],[-26,24],[4,11],[32,-7]],[[13322,14172],[-5,-11],[-9,2],[11,19],[3,-10]],[[13645,14419],[16,20],[12,-27],[-24,-5],[-4,12]],[[13833,14505],[3,23],[16,-1],[-6,-16],[-13,-6]],[[13955,14724],[-5,-52],[-24,-1],[-1,44],[30,9]],[[13478,14752],[-36,-82],[-54,-28],[37,75],[53,35]],[[13596,14769],[90,126],[40,-13],[-194,-226],[64,113]],[[13853,15095],[-38,-73],[-47,-25],[36,92],[49,6]],[[13092,15153],[-13,-44],[-38,-27],[0,19],[51,52]],[[12665,15132],[4,0],[4,-4],[-8,-1],[0,5]],[[12702,15237],[49,14],[23,-41],[-54,-45],[-18,72]],[[13265,15366],[-45,-49],[-67,-27],[65,135],[47,-59]],[[13384,15514],[-24,-17],[-8,44],[31,16],[1,-43]],[[13915,15565],[26,45],[17,-1],[1,-41],[-44,-3]],[[13797,15678],[40,-87],[-153,-78],[-4,98],[117,67]],[[13942,15660],[-39,-62],[-34,7],[55,88],[18,-33]],[[12508,15828],[7,-63],[-41,-31],[1,68],[33,26]],[[13673,15970],[0,-77],[-36,-14],[7,40],[29,51]],[[13251,16201],[4,-10],[-12,-1],[5,11],[3,0]],[[13233,16196],[-10,-9],[22,63],[3,-31],[-15,-23]],[[13241,16309],[-7,-14],[-7,21],[6,3],[8,-10]],[[13245,16373],[9,-53],[-39,8],[-3,9],[33,36]],[[13246,16432],[1,-41],[-29,-19],[-4,47],[32,13]],[[13759,16759],[-2,-6],[-8,-3],[3,8],[7,1]],[[13798,16812],[30,18],[6,-59],[-45,13],[9,28]],[[14747,10647],[-9,12],[16,28],[11,-26],[-18,-14]],[[14667,10871],[23,26],[48,-12],[-46,-58],[-25,44]],[[14164,10856],[30,93],[60,11],[-14,-146],[-76,42]],[[14605,11685],[-20,-16],[-8,6],[15,35],[13,-25]],[[14015,11789],[-6,11],[11,4],[0,-8],[-5,-7]],[[14539,11881],[121,85],[107,-63],[-187,-159],[-41,137]],[[14242,12012],[-15,-14],[-10,34],[32,10],[-7,-30]],[[14269,12033],[-6,-24],[-7,3],[21,46],[-8,-25]],[[14163,12030],[-11,-8],[-11,14],[22,24],[0,-30]],[[14562,12094],[39,-23],[73,43],[-103,-103],[-9,83]],[[14129,12119],[32,5],[13,-28],[-45,-38],[0,61]],[[14785,12210],[-7,-15],[-15,17],[11,17],[11,-19]],[[15038,12669],[-5,-2],[-4,21],[9,-8],[0,-11]],[[15032,12715],[6,-4],[-4,-9],[-4,10],[2,3]],[[15093,12947],[-5,-21],[-18,-11],[20,57],[3,-25]],[[14312,13025],[-9,-1],[16,39],[-1,-24],[-6,-14]],[[14182,13159],[66,-23],[1,-39],[-115,39],[48,23]],[[15354,13165],[-17,-68],[-41,26],[14,47],[44,-5]],[[15367,13150],[-5,7],[19,3],[-10,-14],[-4,4]],[[14735,13208],[27,-28],[-17,-76],[-18,97],[8,7]],[[14188,13252],[-4,18],[16,4],[-1,-10],[-11,-12]],[[14523,13440],[-17,-51],[-17,5],[9,51],[25,-5]],[[14462,13492],[-12,0],[14,32],[3,-10],[-5,-22]],[[14947,13846],[10,-29],[-21,-56],[-4,64],[15,21]],[[14803,13849],[-28,-61],[-7,-3],[-3,66],[38,-2]],[[14105,14875],[-7,-28],[-17,6],[8,22],[16,0]],[[14253,14991],[-18,-66],[-18,-18],[-3,36],[39,48]],[[13937,15049],[61,-31],[-40,-69],[-30,62],[9,38]],[[14292,15224],[-16,-16],[-22,16],[27,10],[11,-10]],[[14579,15328],[14,29],[23,-12],[-19,-23],[-18,6]],[[14674,15412],[4,37],[21,-6],[3,-22],[-28,-9]],[[14567,15442],[-31,-35],[-34,2],[30,55],[35,-22]],[[14457,15696],[29,-65],[-32,-39],[-24,31],[27,73]],[[14065,16035],[58,129],[-8,-226],[-102,-55],[52,152]],[[14076,16208],[4,-11],[-9,-8],[-4,11],[9,8]],[[13883,16531],[113,143],[77,-86],[-146,-241],[-44,184]],[[14131,16899],[-1,12],[7,9],[1,-22],[-7,1]],[[14199,16917],[-2,-9],[-17,-17],[10,37],[9,-11]],[[14203,16998],[-24,-85],[-15,-10],[-22,57],[61,38]],[[18539,5479],[143,401],[146,-31],[15,-252],[-304,-118]],[[18050,7134],[18,-21],[-39,-22],[-10,24],[31,19]],[[17982,7112],[-18,-15],[-17,9],[50,23],[-15,-17]],[[20226,7439],[0,9],[5,0],[2,-7],[-7,-2]],[[20290,7517],[29,-6],[-23,-40],[-32,30],[26,16]],[[13696,5959],[266,1197],[-431,-350],[-114,489],[-312,-135],[-65,423],[938,686],[371,-34],[135,410],[-193,219],[434,26],[-19,369],[411,526],[-53,-668],[365,-201],[190,746],[651,276],[35,296],[-273,137],[547,227],[68,383],[-145,69],[228,219],[-44,-587],[439,31],[140,-347],[530,-145],[-243,-241],[-188,215],[-285,-98],[301,-86],[121,-452],[792,74],[7,-741],[187,-189],[375,662],[541,208],[64,-207],[-413,-539],[197,-248],[-201,-462],[666,357],[178,-644],[423,-79],[-697,-733],[-345,-55],[221,392],[-429,394],[-607,-282],[-179,-399],[-353,192],[-134,-349],[209,-201],[-376,-371],[-266,433],[-1185,-497],[3,620],[-444,-303],[22,630],[-735,132],[-435,-255],[-457,-1539],[-364,-111],[217,337],[-287,173]],[[19548,8477],[1,24],[11,2],[3,-18],[-15,-8]],[[19877,8643],[-14,18],[11,13],[10,-12],[-7,-19]],[[19878,8853],[107,23],[-153,-188],[3,106],[43,59]],[[20008,8851],[-6,-11],[-6,3],[2,6],[10,2]],[[18362,8872],[1,9],[7,0],[-2,-12],[-6,3]],[[18375,8978],[26,-15],[-16,-57],[-14,3],[4,69]],[[18796,9318],[-18,0],[40,20],[-5,-15],[-17,-5]],[[19054,9583],[9,-11],[-18,-8],[3,11],[6,8]],[[18405,9737],[-35,-3],[70,35],[-4,-14],[-31,-18]],[[19029,10048],[0,-6],[-3,-1],[-1,3],[4,4]],[[19052,10079],[17,9],[12,0],[-41,-21],[12,12]],[[19611,10370],[4,-19],[-68,-52],[44,80],[20,-9]],[[16530,10853],[-9,-16],[-34,-8],[25,52],[18,-28]],[[17137,10863],[7,6],[13,-5],[-8,-21],[-12,20]],[[16514,10896],[2,-4],[-7,0],[2,2],[3,2]],[[16435,10951],[57,-2],[35,-29],[-109,5],[17,26]],[[16498,10947],[7,3],[1,-1],[-11,-7],[3,5]],[[16794,10949],[-23,6],[50,25],[-9,-20],[-18,-11]],[[16496,11166],[-3,24],[30,3],[-11,-29],[-16,2]],[[16825,11190],[15,13],[12,-15],[-24,-21],[-3,23]],[[16242,11480],[-23,-76],[-87,39],[17,14],[93,23]],[[15803,12077],[-10,-14],[-14,6],[17,38],[7,-30]],[[15513,12855],[15,-52],[-24,-23],[-10,66],[19,9]],[[15419,12861],[-11,-19],[-17,16],[10,25],[18,-22]],[[15486,13132],[1,-14],[-3,-6],[-6,14],[8,6]],[[15526,13133],[-18,-20],[41,75],[-21,-43],[-2,-12]],[[15394,13221],[10,-49],[-20,-26],[-11,66],[21,9]],[[15779,13193],[-8,13],[13,26],[3,-6],[-8,-33]],[[15599,13466],[-7,-5],[-17,27],[21,-9],[3,-13]],[[15789,13591],[-1,34],[40,8],[-14,-34],[-25,-8]],[[66363,16482],[-2555,146]],[[75605,21198],[-37,-3],[3,35],[25,-1],[9,-31]],[[75621,21232],[-8,-22],[-13,21],[7,7],[14,-6]],[[75575,21244],[-13,-13],[-5,9],[5,12],[13,-8]],[[75510,21332],[22,-14],[17,-45],[-79,49],[-8,41],[48,-31]],[[74194,24538],[474,-82],[292,-978],[532,-538],[301,108],[-15,447],[322,272],[322,-183],[83,519],[260,136],[-29,-642],[249,-33],[-241,-433],[-81,183],[-39,-552],[-274,198],[165,-260],[27,-263],[-136,273],[-210,-342],[-384,282],[-479,-693],[16,-673],[-311,190],[-741,-512]],[[75973,23520],[-13,8],[7,19],[9,-11],[-3,-16]],[[75004,24157],[1,6],[4,0],[-3,-5],[-2,-1]],[[74934,24182],[64,-11],[-58,-73],[-71,128],[65,-44]],[[74882,24266],[1,5],[10,0],[-7,-8],[-4,3]],[[75037,24278],[-5,1],[-7,-21],[0,32],[12,-12]],[[74892,24601],[-5,-2],[9,11],[0,-7],[-4,-2]],[[75544,24780],[-43,-85],[-113,68],[133,83],[23,-66]],[[76151,22380],[6,-11],[-2,-9],[-2,4],[-2,16]],[[76261,22426],[2,-1],[1,-5],[-2,2],[-1,4]],[[77881,22424],[-9,-7],[-7,3],[19,19],[-3,-15]],[[77870,22453],[-3,-21],[-17,2],[10,18],[10,1]],[[76002,22468],[-3,-4],[-2,2],[3,4],[2,-2]],[[76068,22497],[-3,5],[1,3],[2,-2],[0,-6]],[[76066,22508],[-1,0],[-2,6],[4,-1],[-1,-5]],[[78048,22824],[-87,-82],[-34,150],[178,25],[-57,-93]],[[79012,22986],[-54,-45],[-195,-20],[115,166],[134,-101]],[[76762,23129],[8,20],[4,-37],[-8,-3],[-4,20]],[[76393,23661],[-1,-18],[-12,0],[3,22],[10,-4]],[[76722,24477],[-35,7],[30,55],[35,-34],[-30,-28]],[[74078,14963],[-15,-722],[-670,-613],[-207,574],[183,-152],[101,442],[608,471]],[[72563,14782],[14,-19],[-10,-16],[-9,14],[5,21]],[[72560,14832],[-28,-1],[16,74],[25,-20],[-13,-53]],[[73746,15576],[143,-29],[-188,-210],[-12,214],[57,25]],[[72766,16389],[-7,53],[27,25],[-7,-52],[-13,-26]],[[66363,16482],[160,968],[-196,541],[1160,1406]],[[72570,16726],[118,-515],[253,6],[-5,-545],[534,411],[-193,-389],[372,-67],[-637,-368],[4,-299],[301,-159],[-124,-544],[-176,511],[-395,197],[-32,409],[-544,366],[-5683,742]],[[21956,41130],[16,-401],[-950,-988],[-552,-1805],[2015,-1021]],[[18415,26692],[-149,538],[-475,416],[149,434],[-511,420],[-78,550],[-304,-212],[-178,498],[-688,-304],[-390,526],[-432,-420],[-248,432],[-1186,354]],[[80097,95808],[372,341],[391,-314],[-379,-787],[200,-259],[-98,-926],[-382,-179],[157,-720],[351,-244],[188,-1458],[-290,-421],[175,-515],[-272,-678],[230,-536],[-180,-329],[-155,230],[-87,-630],[285,-278],[-374,-1080],[791,-309],[-386,-508],[392,-195],[-20,268],[294,209],[420,-335],[30,-381],[339,358],[-56,-280],[287,-390],[663,-97],[393,-473],[657,289],[73,-587],[490,-728],[218,436],[198,-419],[454,126],[340,-296],[141,456],[338,-356],[299,201],[429,-879]],[[73968,18338],[154,-324],[-116,-118],[-209,401],[171,41]],[[74517,18632],[11,10],[-14,-86],[-3,54],[6,22]],[[74546,18667],[39,5],[-30,-67],[-15,27],[6,35]],[[75044,18838],[-50,-72],[-24,57],[81,66],[-7,-51]],[[74765,19030],[-56,-117],[-19,10],[111,206],[-36,-99]],[[75163,19384],[-126,-374],[-196,-14],[63,392],[259,-4]],[[74194,24538],[-928,-1817],[218,-726],[813,-1033]],[[74297,20962],[-432,-1148],[170,-797],[-553,-630],[-259,275],[-305,-358],[-348,-1578]],[[72570,16726],[-1303,14],[-858,939]],[[70162,27463],[-1285,3864]],[[73736,29584],[-163,-439],[8,-2236],[228,-1580],[385,-791]],[[75092,19153],[5,-8],[-9,-12],[-5,12],[9,8]],[[75581,19382],[-29,-64],[-32,77],[25,7],[36,-20]],[[75514,19369],[-41,-23],[-41,21],[59,38],[23,-36]],[[75970,19821],[-13,-288],[-215,-91],[163,381],[65,-2]],[[75990,19885],[-12,4],[-4,12],[14,1],[2,-17]],[[76310,20107],[-40,-54],[-45,30],[73,93],[12,-69]],[[72072,66477],[-573,416],[-303,-117],[-641,664],[-86,392]],[[85162,43535],[-3733,-2511]],[[39252,52394],[179,-256],[502,187],[76,-424],[374,-169],[1445,554],[609,-1043],[513,304],[-41,-445],[850,600],[405,-429],[628,154],[-43,-232]],[[95998,49420],[5,-3],[-1,-13],[-7,8],[3,8]],[[84076,78737],[14,299],[788,507],[996,1348],[198,-148],[266,771],[665,522],[10,1099]],[[87013,83135],[860,-501],[485,599],[1021,170],[110,-297],[903,-141],[282,-435],[244,192],[-19,-324],[178,96],[321,-598],[537,-195]],[[99426,55952],[172,-2133],[-383,-1641],[-3657,-3303]],[[61821,60800],[2466,1649],[746,-156],[1700,1204]],[[84942,74451],[2585,1170],[909,-1490],[24,-1063],[582,-532],[377,-802],[381,-1701],[-130,-495],[-351,-133],[-555,-835],[-123,-898],[-502,-211],[-1643,-2445],[-680,1469],[-546,566]],[[56589,57403],[5232,3397]],[[61821,60800],[-235,-523],[747,-1188],[-204,-126],[198,-313],[-344,-411],[588,-757],[-2005,-1393]],[[73946,29630],[11,28],[11,12],[-1,-31],[-21,-9]],[[68877,31327],[-115,-108]],[[74049,30952],[-313,-1368]],[[73736,29584],[-95,892],[-228,-387],[-169,504],[-243,-236],[-9,345],[-233,-74],[-118,426],[-177,-351],[-542,345],[27,-498],[-285,208],[-185,-291],[-348,141],[4,369],[-782,-109],[81,370],[-321,7],[66,322],[-186,240],[-224,-34],[159,-291],[-258,-310],[22,300],[-277,158],[-538,-303]],[[79868,49223],[317,58],[896,1285],[1096,-170]],[[81312,48382],[-1970,-2786]],[[62967,51096],[400,431],[-76,263],[452,779],[712,-366],[972,458]],[[66037,48143],[-166,-285],[-392,477],[-464,-608],[-218,40],[-137,631]],[[64660,48398],[-696,-357],[-315,-497],[-222,401],[-787,211],[-307,-324],[-706,435],[-116,-196],[167,-547],[-1445,-1124]],[[59577,52553],[-271,1620],[254,241],[341,1571],[665,104]],[[60566,56089],[2401,-4993]],[[62967,51096],[1693,-2698]],[[39695,23528],[242,1784],[-224,552],[-498,-134],[-438,514]],[[42614,24608],[-81,-391],[-1252,-938],[-297,-695],[147,-1126]],[[47414,24671],[-243,533],[74,709],[-162,43]],[[50155,35229],[-84,-958],[390,-853],[425,-255],[-236,-577],[329,-1080],[517,-776],[-562,-919],[-498,-346],[-90,-695],[290,-737],[-193,-643]],[[67487,19397],[-311,581],[248,315],[-366,1850]],[[68132,18852],[-645,545]],[[47396,24019],[18,652]],[[47414,24671],[284,24],[218,418],[387,-532],[722,115],[71,397],[332,152],[710,1130],[305,1015]],[[50443,27390],[1570,732],[1407,63],[1085,-1995]],[[47268,23915],[-28,131],[52,77],[87,-138],[-111,-70]],[[25781,15723],[-6,3],[15,6],[-1,-3],[-8,-6]],[[26080,15868],[15,1],[2,-3],[-30,0],[13,2]],[[26191,16219],[107,-158],[-44,-169],[-146,-32],[83,359]],[[26247,16238],[-18,-14],[-13,-1],[52,32],[-21,-17]],[[26030,16236],[9,56],[46,-27],[-22,-30],[-33,1]],[[26328,16394],[5,2],[12,21],[-3,-19],[-14,-4]],[[25619,17044],[372,-60],[-261,-511],[128,-319],[-233,-27]],[[26090,17028],[-26,-28],[-30,20],[30,34],[26,-26]],[[25788,17095],[1,-6],[-4,-20],[-20,-1],[23,27]],[[25769,17132],[-2,-10],[-7,-3],[0,6],[9,7]],[[26669,17704],[-4,1],[0,4],[5,0],[-1,-5]],[[26667,17712],[2,5],[3,-3],[-3,-3],[-2,1]],[[26637,17753],[1,-5],[-3,-2],[-2,4],[4,3]],[[26652,17764],[7,-15],[-15,-3],[-1,3],[9,15]],[[26805,9738],[29,-20],[-42,-30],[-7,14],[20,36]],[[27892,11801],[3219,724]],[[31082,12123],[-3186,-418]],[[27388,17016],[-3,48],[96,58],[-31,-105],[-62,-1]],[[27442,17258],[-24,-42],[-64,-21],[61,74],[27,-11]],[[26674,17725],[9,-4],[2,-4],[-11,-2],[0,10]],[[26698,17759],[-3,-7],[-3,0],[5,11],[1,-4]],[[26693,17760],[-6,-15],[-7,-3],[16,39],[-3,-21]],[[26716,17769],[3,6],[3,-1],[-3,-9],[-3,4]],[[26699,17782],[5,3],[5,-17],[-8,-2],[-2,16]],[[26712,17785],[5,-9],[-3,-6],[-9,9],[7,6]],[[26730,17775],[-5,8],[0,5],[10,-13],[-5,0]],[[26732,17790],[3,-1],[1,-5],[-3,-1],[-1,7]],[[27819,17342],[-138,-285],[-224,266],[-815,-560],[-307,514],[393,273],[-76,381],[-652,-84],[-334,-455]],[[84076,78737],[866,-4286]],[[84942,74451],[-601,-682],[-652,-1334],[-473,366],[-971,-272],[765,-4474]],[[80065,73098],[833,307],[-1812,2142]],[[69263,57962],[-1009,2875],[-768,3323]],[[68826,64764],[1334,-876],[1608,1880],[304,709]],[[72072,66477],[885,317],[324,-435],[1847,1656]],[[84076,78737],[-101,-335],[-878,-574],[56,-645],[-679,435],[-57,-447],[-607,446],[-654,-585],[-98,-447],[-449,241],[-1523,-1279]],[[79086,75547],[-178,102],[241,296],[-949,2403]],[[68548,84767],[96,505],[532,709],[169,1058],[606,-92],[175,873],[336,134],[-2,356],[395,494],[92,802],[196,-204],[338,356]],[[77611,87785],[586,-853],[-350,-692],[791,24],[-139,-826],[947,-299],[79,-984],[961,211],[226,-976],[-264,-961],[561,56],[598,-1437],[540,463],[544,-14],[253,-351],[-213,-250],[748,-627],[71,-575],[448,-421],[78,-536]],[[5788,37936],[483,1050],[392,276],[34,405],[409,339],[581,238],[600,-493],[455,367],[51,-334]],[[67813,77953],[-350,704],[221,432],[20,1019],[987,1196],[-135,436],[176,336],[-377,381],[216,718],[-354,872],[331,720]],[[68548,84767],[507,-700],[138,742],[264,-22],[-148,-571],[406,533],[693,-258],[-291,-535],[551,-1265],[257,1174],[384,-433],[167,681],[840,-141],[-149,-447],[272,-2],[265,-829],[-564,-467],[-12,-297],[630,-431],[-664,-313],[-137,-523],[-480,-276],[28,-978],[-247,-280],[355,-480],[-461,-964]],[[80791,36447],[29,-104],[-108,194],[22,13],[57,-103]],[[78588,36794],[-1,6],[4,14],[3,-10],[-6,-10]],[[79467,37484],[-9,12],[8,50],[24,-29],[-23,-33]],[[79514,37579],[7,-31],[-19,-17],[-6,22],[18,26]],[[79627,37842],[38,4],[-5,-65],[-32,9],[-1,52]],[[71902,36313],[-9,-455],[-1067,-78],[236,1092],[-522,232],[-218,-404],[-295,1],[-185,-590],[-188,281],[-240,-301],[-237,269],[-297,-426],[-479,83],[-79,632],[-384,311],[312,718],[-224,150],[0,359],[268,185]],[[74185,47411],[-20,-1219],[192,478],[395,20],[454,-450],[359,55],[3,-332],[270,-134],[-83,-436],[278,-153],[-126,-596],[-290,-232],[22,-670],[387,-120],[-133,-392],[253,-105],[468,-1136],[476,196],[500,2725],[522,475],[-134,1550],[1364,-1339]],[[79342,45596],[1700,-2737],[-99,-587],[486,-1248]],[[81429,41024],[-2075,-2302],[-165,-464],[295,-188],[-61,-532],[-1268,-1005]],[[81159,36870],[-15,-444],[-226,92],[-33,294],[274,58]],[[81396,37074],[-7,-25],[-14,18],[10,10],[11,-3]],[[81461,37120],[-17,-9],[-17,7],[11,20],[23,-18]],[[81353,37277],[44,-149],[-123,-149],[-61,219],[140,79]],[[81504,37167],[-57,1],[-15,38],[75,20],[-3,-59]],[[66665,49114],[-209,-114],[-817,699],[-45,640],[385,654],[-24,403],[-398,-71],[-130,1336]],[[65427,52661],[223,596],[234,-39],[-6,308],[1092,-600],[365,657]],[[43473,24673],[-2,-12],[-13,13],[11,3],[4,-4]],[[46437,25878],[8,15],[13,-16],[-10,-5],[-11,6]],[[45407,25965],[-11,0],[-3,16],[12,0],[2,-16]],[[46508,26045],[27,33],[3,-5],[-23,-52],[-7,24]],[[47083,25956],[-316,-4],[-85,308],[-315,-158],[-447,455],[-792,-745],[-305,-715],[-690,252],[-1519,-741]],[[42614,24608],[-180,127],[160,1288],[-242,616],[189,856],[591,1116],[-784,2296]],[[46489,33939],[893,-607],[-30,-509],[267,-484],[209,-4212],[-745,-2171]],[[22335,10855],[21,29],[7,-6],[-43,-55],[15,32]],[[19156,12597],[10,-111],[-78,-6],[-3,58],[71,59]],[[18529,12673],[53,74],[0,-200],[-76,62],[23,64]],[[19337,12756],[116,-44],[30,-111],[-168,-47],[22,202]],[[19778,12684],[-6,15],[18,2],[-3,-29],[-9,12]],[[19773,12744],[-3,-22],[-15,2],[7,41],[11,-21]],[[19826,13168],[-8,-5],[-8,8],[9,10],[7,-13]],[[19815,13208],[5,8],[5,-6],[-5,-7],[-5,5]],[[19859,13267],[3,-8],[-5,-3],[-3,8],[5,3]],[[19840,13272],[-13,-31],[-22,21],[25,48],[10,-38]],[[20675,13710],[0,-11],[-14,-7],[9,17],[5,1]],[[21626,13770],[-333,263],[580,279],[-5,-447],[-242,-95]],[[21486,14597],[61,80],[60,-98],[-29,-65],[-92,83]],[[22451,15496],[4,5],[2,3],[-8,-16],[2,8]],[[22473,15517],[-6,3],[3,9],[6,-4],[-3,-8]],[[22613,15581],[-21,-1],[46,51],[-3,-26],[-22,-24]],[[22669,15688],[8,5],[1,-12],[-6,2],[-3,5]],[[22424,16166],[-23,-14],[-9,38],[32,5],[0,-29]],[[18413,12857],[62,985],[-397,1066],[-350,1980]],[[24181,18719],[281,-509],[374,381],[660,15],[170,-1214]],[[25666,17392],[-754,-585],[-1035,156],[-1397,-583],[-628,-849],[-54,-645],[-262,-133],[-330,142],[409,1153],[-355,326],[-650,-553],[94,-625],[-177,-768],[-344,-100],[4,-355],[-442,-704],[-999,-684],[-333,272]],[[23813,13248],[-37,11],[42,39],[58,-118],[-63,68]],[[24001,13316],[52,73],[-94,-175],[6,76],[36,26]],[[24072,13449],[-5,-24],[-29,-6],[12,31],[22,-1]],[[24160,13540],[-7,-19],[-17,0],[4,19],[20,0]],[[24144,13567],[-9,4],[-1,5],[12,0],[-2,-9]],[[23504,13577],[6,1],[-6,-10],[-13,2],[13,7]],[[23525,13640],[-19,3],[23,31],[5,-6],[-9,-28]],[[23815,13919],[-43,14],[151,-4],[-87,-150],[-21,140]],[[23936,13981],[-2,3],[8,20],[0,-22],[-6,-1]],[[24034,14014],[-5,-26],[-13,15],[4,9],[14,2]],[[23999,14013],[-2,-17],[-28,-16],[4,35],[26,-2]],[[24073,14022],[0,-14],[-14,-6],[9,18],[5,2]],[[23951,14010],[-4,19],[15,-4],[-1,-16],[-10,1]],[[23810,14096],[42,21],[-36,-101],[-37,43],[31,37]],[[23861,15689],[111,32],[15,-32],[-18,-37],[-108,37]],[[23458,16325],[47,2],[-41,-79],[16,61],[-22,16]],[[23607,16343],[-5,-47],[-42,-23],[-8,45],[55,25]],[[23651,16723],[6,-1],[-7,-11],[-3,5],[4,7]],[[23620,16740],[4,9],[4,-1],[-3,-13],[-5,5]],[[27892,11801],[4,-96]],[[27896,11705],[-4104,-883],[-858,-593],[-470,228],[-142,642],[975,1314],[491,176],[535,-624],[864,-446],[436,69],[33,955],[-707,611],[-105,204],[1802,-1286],[1246,-271]],[[24400,13664],[-4,16],[3,22],[12,-34],[-11,-4]],[[24545,13868],[-7,-7],[-11,7],[9,8],[9,-8]],[[24732,14367],[-195,-201],[-266,-586],[-38,651],[241,354],[248,16],[10,-234]],[[24847,14273],[-4,29],[18,5],[-1,-20],[-13,-14]],[[24767,14335],[-5,-1],[-16,5],[14,23],[7,-27]],[[24847,14374],[21,94],[105,78],[-56,-195],[-70,23]],[[24631,14725],[70,-53],[-112,-57],[0,69],[42,41]],[[24570,14829],[26,-10],[-30,-52],[-8,34],[12,28]],[[24292,14869],[-20,-27],[-21,-4],[23,46],[18,-15]],[[24798,14922],[144,26],[46,-78],[-164,-91],[-26,143]],[[24761,14999],[3,-17],[-27,-15],[13,37],[11,-5]],[[24874,15674],[21,6],[-18,-79],[-15,34],[12,39]],[[25865,15782],[15,-6],[-46,-22],[6,13],[25,15]],[[24466,16143],[-15,-18],[-16,-4],[36,66],[-5,-44]],[[24594,16259],[-24,-14],[34,57],[6,-12],[-16,-31]],[[24664,16401],[91,37],[31,46],[-132,-212],[10,129]],[[25619,17044],[6,-917]],[[25625,16127],[-616,-389],[-169,605],[19,307],[479,39],[281,355]],[[25494,16974],[4,-36],[-20,-16],[-5,34],[21,18]],[[49877,13202],[1,-10],[-6,-1],[-1,12],[6,-1]],[[49959,13301],[-51,-74],[-27,0],[91,139],[-13,-65]],[[50260,13860],[-140,-340],[-110,-76],[76,221],[174,195]],[[50418,13872],[-24,5],[48,68],[-7,-51],[-17,-22]],[[50430,13964],[-26,-35],[-28,4],[46,46],[8,-15]],[[55903,15614],[18,13],[15,-14],[-9,-7],[-24,8]],[[50975,19239],[727,-363],[1597,1079],[696,243],[468,-362],[390,434]],[[57203,16557],[-999,-331],[-242,-612],[-954,227],[-4781,-717],[-2273,198],[-231,-271]],[[27778,31358],[705,1302],[105,2270],[281,-42]],[[30556,34767],[-298,-2849],[-289,-470]],[[37622,23061],[346,-366]],[[40532,34281],[-905,-1670],[-902,-292],[-193,238],[-673,-490]],[[32228,27891],[-963,866]],[[32872,30736],[906,2611]],[[66511,74512],[-65,704],[185,318],[270,-341],[574,290],[6,359],[-373,228],[550,762],[24,595],[-190,242],[321,284]],[[67813,77953],[689,864],[881,-124],[492,476],[118,-257],[182,196],[-18,-390],[411,-688],[584,-345]],[[71152,77685],[-37,-196],[548,-229],[620,84],[354,396]],[[71481,89758],[-121,278]],[[78581,91413],[-160,-898],[-773,-1734],[-327,-240],[290,-756]],[[77611,87785],[-826,-773],[-146,-554],[-431,-32],[-137,-709],[-497,184],[149,-227],[-194,-13],[-224,-740],[-1192,865],[-39,486],[-808,-52],[-336,-540],[-329,899],[505,1198],[-167,336],[-432,-75],[-194,1413],[-832,307]],[[36134,20284],[1489,1871]],[[44877,17614],[11,1],[-23,-26],[8,23],[4,2]],[[44743,17656],[-1,-4],[-7,4],[3,2],[5,-2]],[[45060,18900],[-138,-2],[-31,74],[167,-17],[2,-55]],[[44717,19107],[10,-100],[-94,-71],[-55,-21],[-26,18],[5,251],[160,-77]],[[44750,19368],[62,105],[46,-40],[-66,-140],[-42,75]],[[44852,19459],[93,122],[157,10],[-55,-200],[-195,68]],[[45097,19750],[13,19],[17,4],[-4,-31],[-26,8]],[[46005,14708],[-112,-152],[-81,63],[120,88],[73,1]],[[46468,14763],[-106,-76],[-32,14],[149,183],[-11,-121]],[[46721,15035],[6,-87],[-49,-64],[14,128],[29,23]],[[45401,15786],[13,71],[62,17],[-1,-60],[-74,-28]],[[45123,15996],[-19,13],[45,-17],[-15,-6],[-11,10]],[[45488,16809],[0,-12],[-11,1],[3,9],[8,2]],[[49172,17966],[59,-309],[-1715,-1983],[-39,-411],[246,-212]],[[47723,15051],[-358,-158],[-301,245],[-306,-281],[151,358],[-157,340],[-1488,383],[-253,315],[74,334],[-453,-55],[237,149],[52,438],[308,-479],[409,388],[-2,373],[-387,8],[-124,404],[-384,-250],[-168,307],[331,336],[-265,431],[81,225],[441,-147],[-273,344],[289,299],[54,-498],[210,831]],[[59333,46258],[345,351],[555,-209]],[[60233,46400],[1276,-1964],[-65,-495],[2949,-2981],[1809,366]],[[67134,40791],[-275,-538],[1170,-819],[265,-1062]],[[68294,38372],[-525,659],[88,-261],[-882,-296],[-942,-992],[140,-475],[283,113]],[[59509,35047],[-639,586],[495,634],[-51,859],[182,578],[-338,1040],[-515,159],[-803,-1158],[-881,-410],[-210,396],[-639,-291],[-239,166],[-442,439],[10,618],[-434,229]],[[38777,26244],[-126,-350],[-281,204],[-1278,-525],[111,-510],[-175,-332],[594,-1670]],[[37622,23061],[-547,80],[-1004,-848],[-781,-203],[265,-315],[-110,-471],[159,-64]],[[33940,26451],[546,956],[-331,-37],[-284,721],[-369,136],[91,923],[-1365,-1259]],[[32228,27891],[-155,633],[181,350],[1047,1444],[510,-12],[14,466],[240,-242],[230,318],[800,-256],[479,896],[1156,863],[669,-462],[460,178]],[[37859,32067],[3,-329],[-220,-129],[497,-506],[101,-522],[-750,-1040],[119,-440],[744,-398],[-490,-1368],[774,-642],[140,-449]],[[32872,30736],[-1607,-1979]],[[31265,28757],[-260,-1277]],[[28914,25669],[-817,285]],[[28426,29283],[18,400],[1525,1765]],[[29969,31448],[96,-587],[428,509],[233,-146],[-252,-784],[619,-420],[210,243],[-415,418],[282,457],[-109,358],[745,324],[399,19],[667,-1103]],[[36954,50237],[2298,2157]],[[39252,52394],[16,-2006],[162,232],[572,-575],[862,-70],[256,-362],[494,769],[-126,-1809]],[[44012,45137],[-561,-4156]],[[4341,459],[-9,-91],[-41,8],[-5,23],[55,60]],[[5340,1029],[-23,-27],[-11,17],[17,15],[17,-5]],[[5295,1039],[-5,11],[15,12],[2,-15],[-12,-8]],[[5005,5848],[-5,51],[81,14],[-33,-121],[-43,56]],[[5078,6107],[-1,21],[19,2],[-5,-24],[-13,1]],[[5081,6178],[7,14],[12,-1],[-14,-21],[-5,8]],[[4645,6269],[-7,-27],[-6,-1],[-1,16],[14,12]],[[5281,6274],[-22,-19],[-9,3],[37,34],[-6,-18]],[[4584,6320],[6,-36],[-41,6],[6,26],[29,4]],[[5182,7211],[13,-15],[3,-34],[-39,13],[23,36]],[[5355,7217],[8,7],[3,-2],[-7,-10],[-4,5]],[[5222,7356],[51,-6],[12,-34],[-66,-20],[3,60]],[[5324,7425],[11,20],[8,1],[1,-9],[-20,-12]],[[5337,7504],[3,-24],[-17,-2],[-2,34],[16,-8]],[[5381,7630],[-16,19],[110,-18],[-113,-87],[19,86]],[[5037,7753],[-90,413],[293,204],[57,-253],[-260,-364]],[[6378,17454],[214,-112],[254,-865],[1491,-569],[28,-666],[258,-40],[251,-889],[-193,-304],[51,-634],[638,-263]],[[9370,13112],[-913,-373],[-1023,-1041],[194,525],[-170,207],[-1844,-353],[-674,-1718],[-95,-850],[271,-203],[-275,-162],[154,-604],[-369,-662],[234,-416],[-453,-303],[245,-119],[-370,-480],[273,-499],[0,-920],[393,90],[696,1062],[215,-120],[120,673],[271,204],[-1,-429],[705,-284],[-318,-771],[-317,179],[114,300],[-12,32],[-366,-444],[-293,310],[-28,-535],[235,36],[-305,-307],[-160,173],[-136,-293],[159,-61],[-283,-25],[108,-210],[-340,-238],[582,302],[48,-47],[-70,-106],[28,-78],[440,586],[516,-205],[465,260],[-1117,-2250],[236,-373],[268,27],[-223,436],[403,305],[241,907],[606,539],[-54,297],[992,388],[-464,-779],[-125,-820],[906,-240],[250,290],[893,-1013],[-169,-304],[-492,548],[-292,-689],[-393,45],[-268,-746],[77,-383],[-562,-1020],[-548,-275],[3,721],[-290,-142],[-151,482],[-260,-506],[139,570],[-285,246],[-380,-458],[-205,145],[83,-318],[-319,93],[-74,350],[-279,-619],[-381,452],[-375,-189],[-139,-476],[-273,-51],[103,-385],[-811,1063],[-438,105],[-31,900],[-732,1211],[-498,-312],[75,420],[-413,664],[91,290],[-969,341],[-377,781],[371,1608],[1280,844],[-27,728],[240,131],[139,951],[-148,296],[193,321],[-250,363],[98,857],[199,177],[-125,328],[247,220],[161,901],[77,594],[-249,390],[247,240],[26,443],[932,60],[291,1271],[773,665],[654,-265],[354,719],[378,-380],[517,529]],[[5178,9216],[35,-44],[-70,-30],[-6,36],[41,38]],[[5358,9352],[33,-5],[-28,-58],[-26,17],[21,46]],[[5407,9901],[78,-7],[18,-36],[-124,-90],[28,133]],[[5347,9947],[-41,15],[4,34],[28,14],[9,-63]],[[5164,10067],[23,7],[-90,-129],[20,67],[47,55]],[[5429,10491],[-8,-11],[-12,-4],[7,7],[13,8]],[[5257,10829],[-36,-67],[-19,-3],[19,62],[36,8]],[[5554,542],[-10,-62],[-32,2],[0,40],[42,20]],[[5683,673],[5,27],[11,5],[-5,-29],[-11,-3]],[[5713,722],[-6,-4],[-2,6],[7,5],[1,-7]],[[6430,3412],[-1,14],[18,-2],[-4,-19],[-13,7]],[[6567,3703],[40,-29],[-19,-47],[-38,50],[17,26]],[[5587,4981],[47,-21],[-97,0],[12,31],[38,-10]],[[6122,5383],[289,180],[89,-62],[-432,-227],[54,109]],[[5526,6489],[7,-19],[-23,-37],[-7,35],[23,21]],[[6734,6699],[-22,-29],[-10,8],[17,28],[15,-7]],[[6450,6772],[17,-54],[-39,-25],[-12,27],[34,52]],[[5850,7058],[-7,105],[50,44],[21,-266],[-64,117]],[[6480,7401],[5,-14],[-13,-10],[-3,6],[11,18]],[[6466,7462],[19,20],[14,-29],[-16,-27],[-17,36]],[[5694,7995],[41,66],[63,-10],[-68,-165],[-36,109]],[[5431,9084],[28,20],[5,-5],[-37,-53],[4,38]],[[5652,9096],[3,2],[-3,-9],[-3,3],[3,4]],[[5670,9512],[-31,-79],[-14,4],[17,42],[28,33]],[[5593,10447],[-46,-69],[-65,0],[40,51],[71,18]],[[5888,10594],[0,-10],[-11,-1],[3,17],[8,-6]],[[6231,11413],[61,133],[174,17],[-155,-259],[-80,109]],[[6542,11487],[35,70],[33,-124],[-53,-37],[-15,91]],[[6410,11610],[16,-23],[-20,-14],[-18,33],[22,4]],[[6626,11810],[15,31],[58,-20],[-48,-74],[-25,63]],[[5845,11895],[-8,-20],[-18,25],[12,18],[14,-23]],[[8213,807],[-68,-151],[-41,-22],[32,160],[77,13]],[[8094,3967],[51,39],[27,10],[-92,-124],[14,75]],[[8452,5662],[51,54],[38,-8],[-78,-137],[-11,91]],[[6855,5669],[645,740],[254,-67],[-457,-717],[-442,44]],[[7786,6098],[-13,-61],[-38,26],[8,20],[43,15]],[[7814,6407],[-60,71],[93,79],[50,-143],[-83,-7]],[[8042,6660],[17,0],[11,-37],[-59,13],[31,24]],[[7161,6695],[34,-15],[-9,-42],[-44,7],[19,50]],[[6767,6825],[10,52],[56,3],[-87,-105],[21,50]],[[7943,6952],[12,135],[80,52],[23,-194],[-115,7]],[[7483,10821],[15,67],[45,-24],[-74,-111],[14,68]],[[8466,11206],[-15,7],[2,14],[19,6],[-6,-27]],[[7611,11449],[-3,-1],[14,24],[-1,-11],[-10,-12]],[[7258,11554],[37,51],[17,-24],[-13,-66],[-41,39]],[[8292,11554],[-29,-9],[-5,15],[21,22],[13,-28]],[[7449,11630],[34,24],[17,-41],[-47,-30],[-4,47]],[[6948,11783],[-20,-17],[-4,30],[25,5],[-1,-18]],[[8322,11772],[151,270],[114,-54],[-307,-394],[42,178]],[[7133,11788],[46,92],[171,132],[-207,-315],[-10,91]],[[6748,11907],[31,73],[105,-49],[-115,-81],[-21,57]],[[7112,12078],[21,6],[-29,-41],[3,28],[5,7]],[[8332,12179],[39,13],[28,-18],[-99,-48],[32,53]],[[8769,12340],[15,21],[-48,-117],[-4,52],[37,44]],[[8799,12410],[-3,-22],[-13,-10],[9,36],[14,7],[-7,-11]],[[39794,41842],[934,-3532]],[[38652,35202],[-858,-682],[-838,-195],[-45,1110],[-1343,984]],[[47339,34836],[-469,40],[-381,-937]],[[46489,33939],[-443,-107],[230,-503],[-145,-401],[-807,-874],[-375,105],[-2601,-1252]],[[42348,30907],[-775,-372],[-133,690],[374,1087],[299,164],[197,-259],[105,304],[-1883,1760]],[[40532,34281],[-97,253],[298,343],[-259,349],[-552,-304],[-807,405],[-463,-125]],[[38652,35202],[-179,355],[410,872],[590,192],[559,1283],[696,406]],[[40728,38310],[520,1422],[176,1],[-50,487],[542,684],[167,-327],[714,501],[654,-97]],[[43451,40981],[198,-347],[581,58],[352,536],[-67,383],[327,340],[525,-218],[129,602],[290,173],[-103,730],[1175,1294]],[[21850,33459],[49,397],[216,93],[701,-1268],[2014,-130]],[[20885,29802],[759,391],[610,-157],[841,300],[-281,592],[211,411],[756,-618],[1049,1830]],[[24830,32551],[1141,-300],[611,1060],[419,-598],[426,197],[152,-436],[-367,-384],[12,-507],[274,-313],[280,88]],[[27778,31358],[241,48],[302,-628],[105,-1495]],[[28426,29283],[-1748,-1619],[591,-688],[55,-807],[773,-215]],[[28097,25954],[-1209,-1426],[-155,-1094],[668,-516],[-653,-1007],[-908,-426]],[[75762,93646],[-613,-645],[-314,272],[-120,-725],[-775,14],[-392,-336],[-24,-1606],[-102,-214],[-1699,-593],[-363,223]],[[71360,90036],[-1439,1164],[-251,578],[109,387],[511,439],[295,-113],[25,336],[522,561],[710,-129],[1090,532],[1193,-409],[-93,496],[334,227],[-16,706],[447,982],[-118,296],[467,385],[237,631],[-227,425],[179,1288],[677,-95],[552,616],[142,562],[556,98],[119,-422],[606,-534],[-90,-338],[563,-16],[-176,-210],[-31,-95],[986,215]],[[14969,35291],[-461,-775],[-513,-114],[172,-137],[12,-678]],[[16016,42251],[256,294],[68,-271],[303,41],[563,780],[302,-197],[307,415]],[[18861,39820],[-551,117],[342,-1810],[-1320,-454],[-85,-1237],[-317,-930],[111,-323],[-165,-102],[216,-326],[-101,-622],[-795,-214],[-1227,1372]],[[14969,35291],[687,1668],[-859,322],[-150,-175]],[[31822,24892],[261,-85],[468,1148],[337,267],[278,-283],[663,91],[111,421]],[[33940,26451],[1100,-451],[-771,-898],[8,-816],[253,-98],[-80,-501],[-308,-273],[-1607,432],[-422,-955],[88,-383],[-280,-32]],[[85162,43535],[-284,1219],[342,186],[32,312],[-887,1967],[-3053,1163]],[[81312,48382],[-610,951],[895,592],[509,-15],[71,486]],[[82177,50396],[1075,380],[1810,-348],[721,1452],[2045,1174],[4070,-3022],[518,-1291],[1370,108],[220,-314],[53,276],[419,50],[414,-230],[53,322],[324,-230],[64,376],[225,-224]],[[95558,48875],[-2717,-1941],[-5362,-2163],[-2317,-1236]],[[14647,37106],[-347,-504],[-614,54],[-72,-1136],[-486,-675],[557,-1167],[494,-91]],[[14179,33587],[339,-522],[-248,-484],[202,-1157],[-185,-874],[-478,-26],[116,-600]],[[13925,29924],[-209,-244],[27,-516],[-269,-185],[-2,799],[-269,127],[268,334],[-817,333],[-449,-617],[200,-701],[-755,309],[-850,-665],[-508,464],[-604,-1422],[-179,416],[-392,-4],[-101,-303],[221,722],[-286,42],[-324,554],[-351,-316],[-254,394],[-244,-940],[-469,708],[-222,-369],[-310,470],[-462,-96],[-84,1997],[-435,179],[-404,-405],[163,953],[-709,967],[-442,-106],[127,689],[-349,479],[185,631],[-413,1322],[-545,677],[-1376,352],[408,738],[1239,433],[490,639],[445,-380],[1066,-145],[107,-302]],[[5788,37936],[-26,-740],[320,-177],[331,-1180],[-339,-667],[102,-632],[-397,-562],[1055,-970],[-149,-1017],[283,-844],[517,-326],[812,1306],[-379,223],[272,702],[1366,878],[23,455],[635,163],[235,516],[-212,742],[-2851,1437],[-694,989],[379,-315],[906,906],[507,-297],[309,1258]],[[8793,39784],[2133,2009],[84,873],[494,-21],[102,245],[977,-288],[183,-522],[651,788],[639,-253],[331,185],[39,-283],[785,693],[713,-14],[92,-945]],[[16016,42251],[-7,-1274],[646,-544],[-218,-65],[-365,496],[-375,-256],[-5,-361],[-505,37],[-998,-626],[9,-781],[-249,-157],[-33,-701],[341,-704],[390,-209]],[[54505,26190],[1230,889],[205,357],[-58,440],[639,225],[132,-285],[546,120],[393,-620],[899,1103],[662,320]],[[62277,24510],[-128,-3548]],[[18415,26692],[441,946],[813,199],[714,-198],[50,314]],[[20433,27953],[205,-264],[-187,-714],[219,-684],[-91,647],[400,650],[384,373],[833,-2],[689,-1095],[753,223],[54,-849],[388,-429],[-30,-543],[321,53],[203,400],[280,-579],[785,445],[45,-964],[-479,-201],[-132,-690],[474,-240],[-176,-359],[103,-312],[-210,-109],[576,-1225]],[[25840,21485],[-526,-839],[-469,-213],[11,-509],[-675,-1205]],[[24181,18719],[-717,-143],[-337,728],[159,439],[-409,467],[-1306,-1569],[-253,212],[-940,-228],[-596,943],[-797,-919],[-303,-735],[-264,-72],[-232,-908],[-458,-46]],[[17728,16888],[-569,-114],[-668,656],[246,1664],[-333,128],[-414,787],[-785,196],[-262,-446],[-407,346]],[[14536,20105],[548,660],[276,-14],[58,-303],[400,265],[162,882],[389,98],[152,450],[-416,163],[-31,797],[479,431],[-95,272],[393,572],[715,-59],[-121,686],[704,451],[-19,500],[393,552],[-108,184]],[[36954,50237],[931,-6000]],[[31065,49233],[65,438],[495,379],[655,-400],[8,-340],[191,70],[36,411],[208,-38],[100,516],[340,291],[50,-751],[393,-238],[103,-433],[1010,622],[306,504],[229,-612],[1056,108],[644,477]],[[75183,31755],[12,4],[8,-7],[-15,-8],[-5,11]],[[75004,31746],[-14,14],[7,15],[11,-5],[-4,-24]],[[75172,31790],[-3,-7],[-3,2],[1,8],[5,-3]],[[75006,31794],[-1,-1],[-2,3],[2,3],[1,-5]],[[75204,31799],[2,2],[-4,-6],[0,4],[2,0]],[[75199,31804],[-2,-9],[-2,0],[1,8],[3,1]],[[75189,31815],[6,3],[3,-2],[-7,-6],[-2,5]],[[74968,31828],[3,-6],[0,-1],[-8,7],[5,0]],[[75153,31834],[-2,-1],[-1,3],[4,2],[-1,-4]],[[75139,31834],[-37,-22],[-9,6],[19,53],[27,-37]],[[75584,32077],[-27,-13],[21,63],[30,-39],[-24,-11]],[[75588,32128],[-2,12],[5,0],[1,-9],[-4,-3]],[[75560,32316],[-4,3],[6,10],[3,-10],[-5,-3]],[[78155,36533],[-917,-1190],[-192,-1113],[-395,-418],[-419,-20],[-997,-1884],[-267,361],[-429,-184],[-490,-1133]],[[74049,30952],[-310,2314],[-906,1295],[317,1633],[-1248,119]],[[71902,36313],[1011,1337],[672,-474],[1287,417],[249,486],[-22,-686],[788,-207],[703,-685],[1303,368],[262,-336]],[[75836,31924],[-7,1],[1,8],[10,-5],[-4,-4]],[[75821,31947],[-1,3],[5,-3],[-1,-1],[-3,1]],[[75640,32099],[-10,1],[0,13],[16,2],[-6,-16]],[[76448,33738],[-3,4],[13,1],[-2,-3],[-8,-2]],[[76480,33739],[-11,9],[20,6],[0,-11],[-9,-4]],[[76444,33755],[5,0],[3,-4],[-7,-2],[-1,6]],[[76451,33814],[18,0],[1,-11],[-17,-3],[-2,14]],[[76956,34171],[11,-12],[6,-14],[-31,34],[14,-8]],[[77043,34294],[-11,13],[4,11],[18,-16],[-11,-8]],[[77141,34318],[-15,16],[23,36],[18,-48],[-26,-4]],[[77138,34387],[1,-16],[-15,12],[5,9],[9,-5]],[[77163,34614],[14,10],[5,-47],[-20,19],[1,18]],[[77213,34999],[-3,0],[1,10],[2,-1],[0,-9]],[[77209,35007],[-1,-7],[-3,-1],[3,12],[1,-4]],[[77363,34164],[9,11],[8,-4],[-4,-15],[-13,8]],[[77343,34178],[1,-14],[-9,-1],[0,4],[8,11]],[[77312,34166],[-11,3],[15,32],[5,-25],[-9,-10]],[[77306,34697],[5,-9],[-15,11],[2,2],[8,-4]],[[77285,34729],[-7,-2],[-4,9],[3,-1],[8,-6]],[[77258,34770],[-10,-29],[-18,17],[4,27],[24,-15]],[[77273,34774],[-2,2],[-2,10],[11,-5],[-7,-7]],[[77237,35047],[-10,15],[0,18],[10,-18],[0,-15]],[[77223,35084],[3,-4],[-6,-2],[2,5],[1,1]],[[77299,35098],[-15,-25],[-14,41],[51,-17],[-22,1]],[[77868,36203],[9,9],[7,-5],[-9,-12],[-7,8]],[[77890,36250],[5,-4],[-1,-4],[-5,6],[1,2]],[[77901,36242],[-1,7],[5,0],[-2,-7],[-2,0]],[[77894,36252],[3,4],[3,-3],[-3,-2],[-3,1]],[[33601,11029],[-7,-1],[-3,9],[5,1],[5,-9]],[[33810,11049],[-30,-49],[-52,15],[61,122],[21,-88]],[[33466,11343],[-6,23],[33,-2],[-5,-19],[-22,-2]],[[35021,11752],[58,54],[71,-135],[-156,-30],[27,111]],[[35059,11845],[11,3],[-43,-38],[10,22],[22,13]],[[33636,11865],[-3,-9],[-2,0],[1,13],[4,-4]],[[33658,11892],[5,18],[12,-4],[-5,-15],[-12,1]],[[33631,11903],[10,29],[31,-1],[-31,-59],[-10,31]],[[33677,11901],[-1,1],[1,5],[2,-3],[-2,-3]],[[33726,11940],[23,-11],[-18,-39],[-8,13],[3,37]],[[33687,11930],[-12,43],[8,59],[17,-42],[-13,-60]],[[33717,12070],[-25,43],[1,2],[48,-60],[-24,15]],[[35110,12120],[31,22],[13,-30],[-42,-31],[-2,39]],[[33659,12144],[-62,37],[-14,23],[128,-32],[-52,-28]],[[33590,12210],[-4,-4],[-6,4],[14,2],[-4,-2]],[[33578,12221],[-20,8],[-8,24],[33,-8],[-5,-24]],[[31082,12123],[29,402]],[[31111,12525],[1339,445],[1182,-882],[31,-300],[-1011,433],[-1570,-98]],[[33215,12463],[27,-38],[-3,-7],[-42,38],[18,7]],[[33127,12488],[-23,52],[68,-99],[-31,16],[-14,31]],[[32997,12521],[-42,24],[142,-6],[-9,-20],[-91,2]],[[32990,12583],[-9,-14],[-8,6],[12,10],[5,-2]],[[33321,12515],[-42,145],[-175,131],[122,-42],[112,-152],[37,-126],[-54,44]],[[33356,12396],[-607,265],[-45,381],[525,-356],[127,-290]],[[36117,12705],[-59,61],[56,98],[63,-121],[-60,-38]],[[32672,12887],[-81,73],[-84,30],[160,9],[5,-112]],[[32794,13125],[-55,-75],[-49,58],[54,43],[50,-26]],[[31460,14040],[8,8],[5,-9],[-16,-10],[3,11]],[[31529,14068],[-4,-9],[-11,1],[12,14],[3,-6]],[[31254,14167],[11,13],[5,-8],[-8,-11],[-8,6]],[[31265,14201],[-21,17],[42,10],[-4,-10],[-17,-17]],[[30362,14677],[5,10],[16,-1],[-25,-16],[4,7]],[[30081,14678],[91,50],[17,-2],[-77,-58],[-31,10]],[[41131,21458],[205,-639],[548,-606],[275,-1034],[196,-234],[377,319],[217,-171],[-371,-572],[131,-432],[808,205],[440,-480],[4,-461],[-282,7],[104,-849],[-303,-323],[268,-198],[466,521],[37,-468],[-362,-146],[124,-372],[-610,-319],[-167,-690],[-930,83],[-359,-456],[-864,-71],[-298,-544],[-2582,128],[-2669,-852],[-400,-470],[-679,-125],[-349,-380],[-74,-594],[-524,112],[256,772],[-946,1162],[-594,576],[-771,196],[-536,862],[-392,-441],[-542,815],[-221,-94],[-127,473],[-1816,1674]],[[27819,17342],[134,105],[-103,415],[1099,568],[86,414],[1902,533]],[[30937,19377],[747,319],[525,-272],[777,89],[114,837],[2504,890]],[[35604,21240],[530,-956]],[[36134,20284],[282,-331],[1720,1352]],[[39653,21733],[608,102],[429,-399],[441,22]],[[28119,16919],[-42,-31],[-26,95],[86,33],[-18,-97]],[[42991,11304],[-1,54],[42,-59],[-19,-9],[-22,14]],[[43184,11526],[-16,-211],[-161,101],[73,144],[104,-34]],[[40183,12360],[-4,-17],[-13,30],[18,-5],[-1,-8]],[[40176,12451],[-2,4],[6,13],[5,-16],[-9,-1]],[[40358,12685],[-34,16],[-86,-23],[100,80],[20,-73]],[[40038,12715],[-17,1],[-7,12],[14,3],[10,-16]],[[42891,12670],[-117,-41],[293,198],[-88,-113],[-88,-44]],[[40318,12850],[-5,1],[3,9],[2,-4],[0,-6]],[[40294,12882],[10,1],[0,-14],[-5,-4],[-5,17]],[[43114,12913],[-7,-49],[-26,-12],[22,26],[11,35]],[[40477,12879],[-68,-1],[-1,63],[71,19],[-2,-81]],[[43145,12947],[18,16],[9,-2],[-20,-27],[-7,13]],[[40989,13001],[64,52],[18,-44],[-31,-29],[-51,21]],[[43190,12999],[-19,36],[26,17],[14,-29],[-21,-24]],[[43231,13117],[-38,-21],[-88,13],[92,79],[34,-71]],[[42963,13125],[-119,1],[-20,44],[109,11],[30,-56]],[[43420,13283],[-24,16],[8,35],[20,0],[11,-88],[-15,37]],[[43622,18092],[6,168],[187,-90],[-101,-121],[-92,43]],[[42759,18518],[38,-104],[-44,-108],[-51,185],[57,27]],[[43054,18457],[-13,12],[58,24],[-4,-16],[-41,-20]],[[43655,18605],[-56,-10],[-28,9],[48,58],[36,-57]],[[42522,19143],[-455,336],[-163,934],[484,-95],[92,-202],[-47,-149],[-81,273],[-192,-218],[219,-423],[392,-3],[-283,-131],[34,-322]],[[43603,20431],[30,-10],[40,-70],[-40,-12],[-30,92]],[[41604,20846],[-1,6],[-6,6],[9,-5],[-2,-7]],[[41517,20887],[-3,-71],[-42,6],[-12,50],[57,15]],[[41591,20896],[7,-22],[-6,-11],[-21,31],[20,2]],[[43225,22336],[466,434],[48,-280],[359,127],[-563,-861],[86,-678],[285,-106],[-163,-336],[-136,287],[-234,-377],[-163,510],[-486,179],[-797,-702],[-614,809],[229,593],[580,224],[77,275],[978,-464],[48,366]],[[43774,23034],[-1,-1],[-1,1],[1,3],[1,-3]],[[43763,23075],[0,4],[8,0],[-5,-7],[-3,3]],[[43769,23090],[1,6],[8,0],[-5,-16],[-4,10]],[[43770,23102],[1,0],[-1,-2],[-1,1],[1,1]],[[43768,23102],[-1,1],[1,1],[1,-1],[-1,-1]],[[43771,23107],[-2,-1],[-2,4],[1,1],[3,-4]],[[43769,23116],[2,0],[0,-3],[-2,0],[0,3]],[[43974,17366],[12,134],[72,13],[-70,-151],[-14,4]],[[43844,18125],[13,-7],[-29,-19],[-4,18],[20,8]],[[43821,20713],[-7,-4],[-5,4],[10,4],[2,-4]],[[43935,21087],[4,-14],[-7,-7],[4,-4],[-5,-7],[-9,18],[13,14]],[[43956,21401],[14,-144],[-95,54],[2,64],[79,26]],[[43783,21843],[3,-18],[-20,-16],[-1,24],[18,10]],[[44067,21825],[-10,-1],[3,16],[8,-5],[-1,-10]],[[44109,22039],[-1,2],[3,-2],[-2,-1],[0,1]],[[44117,22042],[0,1],[1,-1],[-1,-1],[-1,1],[1,0]],[[44106,22048],[-2,2],[1,3],[2,-1],[-1,-4]],[[44133,22061],[-2,-2],[-1,2],[1,1],[2,-1]],[[44109,22065],[0,-1],[0,1]],[[44127,22054],[-14,-14],[-8,2],[5,47],[17,-35]],[[44111,22140],[1,-1],[-2,0],[1,1]],[[44119,22142],[-2,-3],[-1,2],[1,2],[2,-1]],[[44116,22145],[1,0],[-1,-1],[-1,0],[1,1]],[[44114,22146],[-1,-2],[-1,1],[0,2],[2,-1]],[[44116,22146],[0,1],[1,-1],[-1,0]],[[44116,22148],[0,-2],[-2,0],[0,2],[2,0]],[[44109,22149],[1,1],[0,-2],[-1,1]],[[44116,22149],[1,0],[0,-1],[-1,1]],[[44119,22152],[1,0],[0,-1],[-1,1]],[[44111,22152],[0,2],[1,0],[-1,-3],[0,1]],[[44001,22979],[185,-57],[21,-86],[-201,-60],[-5,203]],[[43788,23047],[15,22],[9,-29],[-14,-19],[-10,26]],[[43784,23063],[-1,-5],[-2,-1],[1,6],[2,0]],[[43791,23068],[-3,-2],[-5,5],[7,0],[1,-3]],[[43791,23077],[0,3],[3,-7],[-2,0],[-1,4]],[[43796,23082],[4,3],[5,-9],[-7,-1],[-2,7]],[[43778,23086],[5,-5],[-4,-4],[-3,5],[2,4]],[[43785,23082],[-3,4],[0,3],[4,-2],[-1,-5]],[[43790,23092],[-1,2],[3,0],[0,-2],[-2,0]],[[43774,23101],[2,2],[1,-4],[-2,0],[-1,2]],[[43782,23111],[-1,-2],[-1,1],[0,2],[2,-1]],[[44398,11746],[54,-115],[-191,232],[40,9],[97,-126]],[[44308,15528],[-60,-94],[-28,2],[43,175],[45,-83]],[[44309,16644],[-13,-9],[-3,1],[15,16],[1,-8]],[[44346,16662],[-19,-8],[-5,14],[33,17],[-9,-23]],[[44946,21625],[-10,-60],[-12,-3],[31,102],[-9,-39]],[[45040,21727],[47,13],[13,-28],[-26,-47],[-34,62]],[[45232,21771],[62,64],[28,-32],[-91,-92],[1,60]],[[44929,21920],[22,-47],[-26,-11],[-5,34],[9,24]],[[45219,21943],[-32,-5],[-9,36],[54,26],[-13,-57]],[[44984,21991],[7,-21],[-33,-25],[-8,30],[34,16]],[[44132,22058],[-1,1],[2,-1],[-1,0]],[[44134,22062],[0,-1],[-1,0],[0,1],[1,0]],[[45413,22171],[0,-28],[-12,37],[30,13],[-18,-22]],[[45387,22181],[-15,-28],[-11,13],[44,42],[-18,-27]],[[44197,22204],[2,7],[2,1],[0,-7],[-4,-1]],[[44225,22235],[-11,-20],[-4,-23],[5,50],[10,-7]],[[45488,22226],[12,18],[5,0],[-7,-19],[-10,1]],[[44291,22255],[-3,-17],[-19,12],[5,13],[17,-8]],[[45520,22246],[-1,25],[34,1],[-13,-4],[-20,-22]],[[44288,22338],[-52,-47],[-21,29],[38,27],[35,-9]],[[44578,22484],[-14,-10],[-12,20],[21,6],[5,-16]],[[44497,22529],[-5,-6],[-4,7],[12,9],[1,-18],[-3,-3],[-1,11]],[[45400,22699],[-28,-11],[-21,33],[32,12],[17,-34]],[[44569,22735],[-12,-30],[-8,3],[0,35],[20,-8]],[[44499,22745],[23,9],[11,-32],[-64,30],[30,-7]],[[45160,23002],[-19,-32],[-6,7],[11,23],[14,2]],[[45108,23028],[4,-12],[-18,-9],[6,23],[8,-2]],[[45489,23269],[-9,-25],[-8,3],[9,28],[8,-6]],[[45239,23337],[51,457],[176,-63],[-153,-269],[142,-320],[-280,-77],[64,272]],[[45088,23613],[71,-103],[-151,-71],[-11,66],[91,108]],[[44852,23896],[25,-11],[38,-67],[-128,31],[65,47]],[[76473,57438],[-75,-322],[969,-264],[1322,414],[202,-443],[443,-108],[1734,53],[-326,-829],[-44,-2844],[-911,-1147],[-216,-156],[-51,451],[-486,-246],[-242,-412],[418,111],[298,-458],[56,-1136],[304,-879]],[[79868,49223],[-449,79],[-518,-595],[-835,-10],[-389,1076],[-290,27],[-486,733],[-516,127],[-520,-731],[-718,427],[-145,-519],[-511,-287]],[[70469,67832],[-490,-104],[-477,-708],[-633,-419],[-100,179],[-417,-562],[474,-1454]],[[68826,64764],[-1340,-604]],[[67486,64160],[-753,-663]],[[66733,63497],[-137,6],[181,785],[-139,474],[-330,21],[20,406],[-466,585],[-997,-264],[-202,776],[-194,-230],[-363,321],[367,543],[-347,204],[192,676],[937,1263],[-153,354],[528,306],[191,512],[-97,377],[232,213],[295,-176],[299,930],[490,649],[-424,459],[7,344],[-537,233],[425,1248]],[[66511,74512],[1860,-1579],[1956,-206],[471,817],[669,71],[574,654]],[[73568,72156],[-1443,-1439],[37,-751],[-614,-1122],[-709,-1032],[-370,20]],[[98586,67172],[-35,212],[12,97],[74,-170],[-51,-139]],[[98527,67409],[-732,-141],[10,1201],[680,-859],[42,-201]],[[97753,68546],[-2,-27],[-17,-9],[0,33],[19,3]],[[98039,73122],[7,0],[-11,-14],[1,11],[3,3]],[[98057,73130],[-19,18],[4,11],[9,0],[6,-29]],[[95545,64899],[-133,254],[-479,-127],[-484,-558],[-495,255],[401,3472],[-418,-35],[-1449,1407],[265,2140],[-443,415],[143,1688],[-277,1462],[241,724],[360,10],[156,498],[-152,348],[-527,93],[-157,469],[532,1635],[-1627,-93],[653,2125],[390,385],[-110,235]],[[91935,81701],[886,760],[916,-920],[304,120],[72,-290],[195,487],[539,-382],[524,267],[134,474],[403,-135],[706,465],[840,-635],[457,-779],[418,351],[514,-203],[227,-1347],[276,-49],[147,288],[-41,-350],[547,-531],[-54,-2220],[-196,-546],[-712,-918],[-598,-1643],[-928,-1412],[-364,-1004],[-32,-804],[635,-2342],[-439,1302],[427,-2498]],[[80065,73098],[1609,-1994],[1336,-3049]],[[83010,68055],[2176,1339],[-60,-2136],[144,-207]],[[85270,67051],[-386,-323],[-68,-395],[-352,8],[-544,-913],[-1266,-276],[-368,-867],[-1033,-786],[-43,-953],[-931,-904],[-442,-704],[114,-294],[-1239,191],[2,-402],[-984,-1017],[-74,-471],[-1204,-967],[21,-540]],[[76473,57438],[-338,-229],[-1002,230],[-400,643],[-479,2014]],[[75119,62470],[9,5545]],[[75128,68015],[910,811],[415,-170],[410,243],[-54,691],[1197,1643],[200,823],[-235,353],[2094,689]],[[45369,19990],[16,73],[50,13],[-8,-74],[-58,-12]],[[45321,20017],[-6,12],[15,23],[8,-12],[-17,-23]],[[45382,20549],[-52,-279],[-196,277],[102,122],[146,-120]],[[45619,20915],[-140,-219],[-62,12],[234,389],[-32,-182]],[[45441,19691],[161,1065],[815,967],[-352,146],[-66,373],[335,413],[-10,336],[1072,1028]],[[47396,24019],[752,342],[151,-592],[1198,-764],[136,-1270],[473,-656],[356,108],[513,-1948]],[[50975,19239],[-1781,-1004],[-22,-269]],[[49172,17966],[-688,-322],[-174,807],[-457,-132],[-507,612],[-1905,760]],[[44999,21588],[5,27],[10,-2],[4,-17],[-19,-8]],[[46233,22821],[-8,-15],[-6,5],[6,13],[8,-3]],[[46199,22813],[-16,15],[13,31],[26,-18],[-23,-28]],[[46295,23345],[4,17],[4,-2],[0,-14],[-8,-1]],[[99426,55952],[-3717,-34],[-647,1123],[-162,533],[271,1903],[-718,1625],[132,1080],[-566,855],[396,184],[1130,1678]],[[95545,64899],[838,122],[158,901],[1197,1285]],[[97738,67207],[912,-122],[-295,-4284],[1071,-6849]],[[98289,67002],[-73,39],[-11,27],[66,-6],[18,-60]],[[98400,67086],[-67,-78],[-95,87],[139,3],[23,-12]],[[98539,67075],[-5,7],[33,4],[-13,-20],[-15,9]],[[98555,67108],[-19,-16],[-20,9],[9,33],[30,-26]],[[98466,67120],[47,20],[3,-7],[-70,-24],[20,11]],[[98535,67139],[31,28],[9,-13],[-15,-34],[-25,19]],[[39695,23528],[-42,-1795]],[[39653,21733],[-1517,-428]],[[38136,21305],[-513,850]],[[37623,22155],[345,540]],[[37968,22695],[305,428],[1422,405]],[[78200,78348],[-1000,-679],[-323,-802],[-810,-606],[51,-466],[-198,-343],[-1135,-1125],[-514,-1488],[-703,-683]],[[73568,72156],[-239,489],[344,438],[-211,1248],[-1421,-62]],[[72041,74269],[715,1653],[34,546],[-282,401],[129,871]],[[72637,77740],[347,563],[842,224],[73,382],[1343,9],[369,671],[451,-328],[355,328],[397,-376],[360,86],[432,553],[594,-1504]],[[48567,42380],[17,588],[-428,892],[-548,127],[-273,776],[-477,-231]],[[70409,17679],[-770,552],[-446,774],[-1061,-153]],[[68132,18852],[891,1924],[-401,231],[-201,1013],[193,228],[-287,347],[-1269,-452]],[[67058,22143],[903,834],[1311,3447],[890,1039]],[[70162,27463],[2720,-5490],[-412,-2661],[-1485,144],[-237,-293],[-27,-1313],[-312,-171]],[[67934,52158],[-148,1075],[-451,350]],[[67335,53583],[-3,778],[236,606],[346,746],[265,-66],[-299,420],[272,1080],[697,148],[414,667]],[[69263,57962],[637,-1],[110,232],[-203,408],[218,204],[429,-522],[104,506],[-231,508],[309,-60],[259,614],[278,-147],[71,458],[790,12],[-125,403],[311,460],[216,-207],[281,694],[454,-241],[-232,634],[284,413],[1492,629],[404,-489]],[[75119,62470],[184,-30],[-206,-392],[91,-570],[-471,-159],[-463,-1223]],[[74254,60096],[-874,-1317],[33,-322],[-516,-610],[-248,-947],[-715,-1235],[-362,142],[24,-822],[-645,376],[478,-1019],[-159,-302],[-326,195],[102,-793],[-443,-308],[-550,-1543]],[[56589,57403],[55,-671],[-174,-278],[166,-671],[-346,-1121],[-564,-580],[284,-119],[-74,-247]],[[54293,48001],[-972,-151],[-665,-957],[-196,167],[-923,-863],[-268,413],[255,1032],[-199,1005],[-305,56],[-507,-485],[-325,523],[-307,-176],[-155,344],[-348,-15],[-160,401],[-371,-149]],[[48017,51278],[316,-53],[530,742],[1573,977],[730,908],[-76,250],[2383,1140],[3116,2161]],[[61602,16310],[-19,-23],[-10,6],[9,31],[20,-14]],[[61403,16488],[11,-4],[-11,-41],[-16,26],[16,19]],[[61425,16502],[-1,-9],[-6,-2],[-1,12],[8,-1]],[[61445,16512],[-5,-2],[-6,5],[7,5],[4,-8]],[[61449,16536],[2,-3],[-4,-14],[-7,11],[9,6]],[[61473,16528],[-2,-10],[-5,26],[4,-3],[3,-13]],[[63808,16628],[-6605,-71]],[[57203,16557],[178,683],[-315,455],[-841,-35],[146,197],[-84,995],[439,718]],[[57103,19728],[332,362],[-56,330],[1363,1200],[337,54],[364,-417],[540,242],[113,-367],[742,-483],[670,412],[641,-99]],[[62149,20962],[1956,-485],[-430,-2208],[226,-568],[-93,-1073]],[[28914,25669],[127,565],[937,1441],[-49,254],[1076,-449]],[[31005,27480],[276,-273],[482,363],[182,-331],[-62,-412],[-411,-405],[350,-1530]],[[31822,24892],[-155,-963],[254,-1453]],[[31921,22476],[309,-1640],[-1211,-1011],[-82,-448]],[[30937,19377],[-2557,2103],[-497,699],[119,736],[394,105],[0,400],[183,65],[-192,103],[214,955],[320,-60],[353,765],[-360,421]],[[68762,31219],[-726,-1425],[-300,115],[36,-256],[-300,-110],[30,-390],[-992,142],[-660,-912],[-333,-714],[-445,-2160],[-762,-338],[-175,-429],[-633,108],[-598,-551],[-627,211]],[[62277,24510],[-431,448],[-1016,-269],[-817,329],[70,3277],[-930,444]],[[59153,28739],[-987,3048],[1343,3260]],[[59509,35047],[357,-74],[627,876],[478,-26],[557,-526],[515,590],[1208,182],[355,340],[1550,-315],[1300,1026]],[[66456,37120],[214,-30],[-650,-1054],[-197,-1326],[338,-38],[479,-776],[224,-803],[-106,-503],[392,-1022],[932,302],[680,-651]],[[59333,46258],[54,-365],[-470,-309],[-499,123],[-458,-706],[-772,351],[-24,-875],[-424,6],[-463,-1255],[-926,-904]],[[54570,47638],[-277,363]],[[54293,48001],[-97,670],[680,447],[-260,1593],[647,-182],[171,748],[-117,288],[466,949],[-138,291],[291,911]],[[55936,53716],[3641,-1163]],[[59577,52553],[-323,42],[-282,-447],[-117,-600],[336,-137],[-74,-532],[-333,-166],[133,-641],[-754,-745],[-15,-522],[322,-331],[-303,-183],[-95,-628],[-274,-242],[220,-277],[803,4],[107,-884],[405,-6]],[[54853,20270],[-383,700],[313,610],[-543,383],[-781,-245],[-429,504],[386,95],[173,367],[-203,231],[91,611],[-282,32],[-115,752],[1013,-145],[58,806],[391,588],[-37,631]],[[54505,26190],[1198,-1558],[250,-1329],[371,-338],[-314,-857],[760,-308],[-299,-411],[43,-397],[308,-248],[-324,-622],[590,-3],[15,-391]],[[57103,19728],[-377,-158]],[[56726,19570],[-928,68],[-98,273],[-406,-136],[-441,495]],[[50155,35229],[-397,64],[-936,-838],[-744,442],[-424,-285],[-315,224]],[[47339,34836],[170,773],[-401,1001],[242,759],[-159,214],[162,434],[-180,231],[355,658],[-247,406],[23,511],[-402,356],[245,525],[568,244],[-66,441],[684,463],[234,528]],[[48567,42380],[263,401],[374,27],[555,941],[692,156],[366,1353],[601,-47],[1364,1052],[962,1268],[826,107]],[[54570,47638],[-285,-916],[278,-944],[-169,-582],[231,-34],[269,-959],[-307,-640],[716,-751],[48,-488]],[[55351,42324],[-102,-477],[178,-334],[-385,-1111],[214,-452],[-227,-301],[108,-632],[-132,-125]],[[55005,38892],[-316,-208],[25,-365],[-727,-533],[-911,219],[28,-321],[-328,-171],[118,-527],[-1065,-448],[44,-343],[-463,-233],[-126,-670],[-418,-358],[-711,295]],[[74491,49550],[98,-1527],[-404,-612]],[[74185,47411],[-114,281],[-1245,-1216],[-1541,-480],[-230,-487],[88,-749],[-1670,-475],[-620,-1130],[-363,-82],[-750,-1051],[-149,-541],[-297,-86],[-160,-604]],[[67134,40791],[-376,-36],[-280,537],[-276,34]],[[66202,41326],[-135,393],[1039,981],[44,729],[428,487],[-806,303],[-533,612],[205,289],[-499,1613],[169,446],[284,-79],[70,383],[-431,660]],[[66037,48143],[762,-263],[-60,603],[-241,-94],[-74,474],[241,251]],[[66665,49114],[165,1498],[583,616],[-285,211],[255,190],[206,-219],[345,748]],[[67934,52158],[847,-290],[151,429],[314,52],[360,-209],[182,-548],[190,211],[75,-212]],[[70053,51591],[-14,-324],[954,109],[-113,-753],[1295,-332],[1646,31],[670,-772]],[[41488,48573],[1109,1242],[1797,878],[355,502]],[[44749,51195],[-69,-898],[-544,-734],[488,-1242],[477,950],[984,80],[79,-397],[304,208],[762,847],[-153,818],[940,451]],[[48017,51278],[-199,-243],[157,-355],[-158,-292],[89,-552],[-247,-592],[1188,-98]],[[48847,49146],[-108,-339],[480,-1598],[-1184,-579],[-400,218],[-777,-2316]],[[46858,44532],[-284,718],[415,384],[220,505],[-133,150],[-1624,-953],[-162,-471],[-564,348],[-714,-76]],[[44012,45137],[-987,-303],[-60,898],[-1477,2841]],[[29022,37064],[-402,460],[-255,942],[-595,133],[44,237],[-284,194],[-310,-608],[-474,-243],[47,-465],[-215,72],[-79,633],[-262,-216],[203,1410],[538,619],[-116,431],[-1355,-821],[-154,-543],[-501,-208],[44,-399],[-1006,423],[-248,397],[-159,-154],[-159,1181],[-911,89],[-457,502]],[[21956,41130],[-1741,-1250],[-616,-10],[-130,-347],[-608,297]],[[18861,39820],[-1,436],[-254,250],[312,427],[-31,846],[-562,471],[318,633],[-828,430]],[[17815,43313],[303,530],[321,-256],[290,238],[123,555],[171,-300],[517,439],[-48,816],[495,138],[87,421],[274,-82],[62,-358],[451,836],[712,76],[379,377],[565,-446],[1005,893],[290,-114],[277,378],[1602,709],[11,556],[937,-5],[1951,1438],[252,-539],[-138,-165],[661,-638],[393,633],[710,373],[270,-32],[203,-710],[124,159]],[[31065,49233],[238,-703],[-51,-1930],[-338,-464],[434,-534],[-51,-581],[185,-301],[1102,-804],[-64,-664],[214,-188],[-192,-268],[580,-390],[-159,-76],[188,-386],[-221,-343],[164,-127]],[[75762,93646],[-83,346],[345,872],[-82,715],[218,136],[-223,634],[1119,-203],[78,327],[723,405],[1382,1721]],[[79239,98599],[899,-677],[90,-707],[-244,-634],[113,-773]],[[80097,95808],[-199,89],[-492,-657],[-1100,-2088],[86,-563],[482,-368],[-293,-808]],[[78581,91413],[-422,470],[167,381],[-517,519],[-154,-217],[-434,225],[-317,-831],[-699,-17],[-603,961],[160,742]],[[30556,34767],[-472,-15],[-207,323],[-553,-1106],[-455,919]],[[28869,34888],[-636,834],[789,1342]],[[29022,37064],[485,1003],[695,-320],[257,957],[451,107],[-105,491],[445,189],[-201,558],[386,512],[349,-217],[402,502],[484,-100],[424,728]],[[33094,41474],[695,907],[936,-435],[251,1517],[857,-513],[293,1318],[1095,-789],[183,460],[481,298]],[[37885,44237],[1909,-2395]],[[39794,41842],[-4535,-1246],[-92,-928],[226,-1160],[271,-306],[-514,-1066],[418,-717]],[[35568,36419],[-429,-254],[128,-193],[-352,-603],[-365,190],[-209,-332],[-385,-2894],[-178,1014]],[[33778,33347],[-261,1493],[-264,166],[-2697,-239]],[[22485,36915],[-1674,-2012],[1039,-1444]],[[21850,33459],[-32,-1576],[-241,-527],[-326,61],[-366,-1615]],[[20885,29802],[-452,-1849]],[[20433,27953],[-34,1388],[-235,313],[146,667],[-171,74],[335,1214],[-160,616],[-1143,-331],[-512,815],[121,2457],[485,995],[585,204],[519,581],[2116,-31]]]}