{"type":"Topology","objects":{"data":{"geometries":[{"properties":{"cd_mun_ibge":"1400027"},"type":"MultiPolygon","arcs":[[[0,-30,-5,-3]]],"id":0},{"properties":{"cd_mun_ibge":"1400050"},"type":"MultiPolygon","arcs":[[[-4,-23,-19,1,2]]],"id":1},{"properties":{"cd_mun_ibge":"1400100"},"type":"MultiPolygon","arcs":[[[-29,-26,-6,-8,-20,3,4]]],"id":2},{"properties":{"cd_mun_ibge":"1400159"},"type":"MultiPolygon","arcs":[[[-9,5,-25,6,-11]]],"id":3},{"properties":{"cd_mun_ibge":"1400175"},"type":"MultiPolygon","arcs":[[[-16,-21,7,8,-10]]],"id":4},{"properties":{"cd_mun_ibge":"1400209"},"type":"MultiPolygon","arcs":[[[-17,9,10,11,-14,-34,-37,-31,12]]],"id":5},{"properties":{"cd_mun_ibge":"1400233"},"type":"MultiPolygon","arcs":[[[-35,13,14]]],"id":6},{"properties":{"cd_mun_ibge":"1400282"},"type":"MultiPolygon","arcs":[[[15,16,17,18,-22]]],"id":7},{"properties":{"cd_mun_ibge":"1400308"},"type":"MultiPolygon","arcs":[[[19,20,21,22]]],"id":8},{"properties":{"cd_mun_ibge":"1400407"},"type":"MultiPolygon","arcs":[[[23,24,25,-28,-40]]],"id":9},{"properties":{"cd_mun_ibge":"1400456"},"type":"MultiPolygon","arcs":[[[26,-41,27,28,29]]],"id":10},{"properties":{"cd_mun_ibge":"1400472"},"type":"MultiPolygon","arcs":[[[30,-39,-33,31]]],"id":11},{"properties":{"cd_mun_ibge":"1400506"},"type":"MultiPolygon","arcs":[[[32,-38,33,34,35]]],"id":12},{"properties":{"cd_mun_ibge":"1400605"},"type":"MultiPolygon","arcs":[[[36,37,38]]],"id":13},{"properties":{"cd_mun_ibge":"1400704"},"type":"MultiPolygon","arcs":[[[39,40,41]]],"id":14}],"type":"GeometryCollection"}},"bbox":[-64.8269138,-1.578968486953587,-58.88798894182914,5.268619362120264],"transform":{"scale":[5.9389842480133376e-05,6.847656325637107e-05],"translate":[-64.8269138,-1.578968486953587]},"arcs":[[[11725,73823],[-49,175],[-420,49],[-60,166],[-269,30],[18,236],[-264,34],[318,212],[35,265],[-246,198],[-36,198],[-168,-71],[-13,340],[-376,117],[-78,313],[-195,11],[-185,-171],[250,367],[-176,224],[-106,38],[-239,-186],[-487,46],[-260,223],[117,205],[-272,447],[-270,-87],[-502,573],[-337,107],[-134,172],[-244,18],[-120,156],[-419,-78],[-309,142],[-290,705],[-191,-150],[-277,77],[51,136],[-447,278],[73,98],[-221,260],[-532,316],[254,371],[-633,204],[52,130],[-166,197],[-759,228],[-104,259],[-419,-65],[-152,321],[-346,-83],[-80,292],[-164,88],[-322,-150],[-215,336],[-426,114],[176,115],[-173,184],[82,517],[-210,214],[44,252],[-126,176],[-202,-10],[-89,226],[157,220],[-216,64],[22,184],[-291,-78],[-89,366],[116,128],[-103,67],[341,337],[-107,177],[323,121],[42,211],[587,-253],[385,44],[96,-404],[290,-269],[50,-318],[307,-69],[7,-171],[165,-25],[269,-387],[254,-138],[150,55],[146,-635],[654,-98],[98,95],[361,-208],[740,261],[303,-189],[248,88],[-53,301],[273,110],[590,-358],[298,416],[184,-148],[521,-2],[0,140],[308,-82],[365,130],[67,-184],[109,53],[334,-216],[237,562],[550,-173],[-208,-195],[446,-252],[479,47],[724,-405],[504,38],[185,151],[246,-518],[262,-41],[160,-392],[395,-310],[327,-655],[141,-124],[159,139],[279,-79],[382,-987],[336,-84],[170,-418],[815,934],[189,79],[164,-143],[189,82],[68,-84],[350,269],[1016,-198],[661,130],[294,-119],[125,-298],[1185,-63],[149,430],[326,250],[-56,361],[925,-932],[-163,-184],[640,-252],[120,-347],[213,25],[137,-156],[451,-78],[75,-134],[-100,358],[342,291],[353,-190],[5,-151],[198,-38],[251,186],[-11,215],[368,224],[-47,484],[-233,40],[-326,267],[429,308],[562,34],[984,-386],[507,-461],[342,67],[531,-22],[247,-141],[326,40],[-269,-559],[131,-264],[-23,-409],[401,-282],[283,43],[324,-169],[718,-6],[428,-155],[181,-351],[217,0],[63,-287],[212,-141],[-105,-578],[-188,-88],[68,-122],[673,-235],[95,-270],[605,-494],[680,-104],[488,570],[8,362],[232,-61],[312,119],[306,348],[327,145],[241,358],[666,-181],[226,-387],[674,-352],[4,198],[219,246],[-156,908],[226,547],[-795,453],[296,154],[1,178],[-550,522],[94,579],[351,114],[264,446],[-250,178],[-105,334],[310,215],[-14,175],[285,84],[520,-128],[376,118],[351,-55],[259,220],[226,-141],[372,54],[580,-433],[287,28],[-84,316],[240,104],[154,-71],[93,133],[-165,194],[52,241],[-286,6],[149,481],[234,4],[-125,153],[54,185],[474,-79],[89,233],[312,-169],[269,24],[225,324],[-150,89],[46,205],[218,-57],[251,130],[801,-81],[352,-210],[66,116],[460,-498],[718,59],[263,-173],[494,-41],[104,-151],[744,-44],[168,-254],[762,-301],[55,117],[478,121],[-90,382],[217,-39],[87,181],[444,-57],[66,488],[342,-83],[267,100],[120,-99],[686,397],[80,-218],[305,-140],[165,-297],[362,-242],[123,596],[439,51],[384,-179],[115,386],[522,-235],[323,94],[-78,473],[199,29],[227,418],[241,-87],[252,89],[-130,269],[610,115],[226,179],[9,-350],[378,159],[379,-21],[214,139],[339,-59],[94,-304],[552,329],[320,-257],[604,186],[230,323],[302,141],[-89,120],[312,381]],[[14590,59172],[-272,-107],[-549,224],[-239,-237],[-328,455],[-299,73],[254,398],[8,725],[288,-5],[17,218],[280,183],[35,320],[365,312],[-4,572],[-363,273],[355,147],[-24,241],[-257,81],[-24,319],[130,125],[-331,121],[-56,628],[-375,142],[-221,463],[-408,213],[225,227],[-183,166],[109,313],[-354,118],[-111,261],[-154,60],[10,364],[-512,190],[-390,-106],[235,374],[-19,401],[-514,193],[58,209],[-735,368],[4,336],[-195,353],[193,240],[630,158],[199,532],[223,175],[-35,457],[361,401],[332,89],[-104,193],[143,629],[-316,153],[14,271],[-207,-31],[-45,148],[99,259],[288,108],[134,360],[-206,355],[188,337],[-212,106]],[[11725,73823],[978,66],[926,-429],[286,-260],[318,81],[196,-77],[248,203],[351,-37],[547,-365],[430,69],[515,450],[257,581],[-75,77],[201,259],[253,17],[33,292],[304,-155],[32,232],[786,397],[-51,191],[426,1083],[88,592],[300,227],[729,142],[300,248],[1019,-171],[-14,-385],[360,-304],[702,57],[379,-292],[509,-61],[146,-223],[912,-467],[477,-24],[262,146],[145,-207],[-85,-312],[407,-203],[300,97],[505,426],[-89,166],[126,329],[-47,600],[969,-142],[280,98],[257,-134],[66,-438],[341,-179],[211,-397],[-168,-106],[-108,-665],[-168,-171],[70,-296],[416,-397],[-19,-211],[543,-187],[210,-320],[1053,-516],[505,-579],[65,-280],[534,-90],[266,-373],[678,-130],[1361,-632],[216,-248],[257,8],[285,-158],[950,20],[715,-280],[767,301],[28,-98],[206,219],[84,-125],[173,52],[365,-166],[744,8],[903,-377],[439,-61],[351,-317],[103,-709],[257,-118],[449,28],[931,422],[472,-12],[202,-130],[374,98],[650,-215],[126,243],[459,118],[257,320],[556,235],[604,503],[814,187],[360,235],[734,-211],[795,179],[215,-150],[169,81],[51,316],[192,150],[131,-121],[201,142],[327,20],[421,-337],[300,-73],[453,860],[435,118],[1137,-150],[262,73],[51,150],[370,-211],[477,138],[594,393],[538,-701],[121,73],[375,-110],[140,106],[327,-183],[80,134],[215,-49],[206,106],[355,381],[178,-45],[332,159],[847,28],[449,223],[500,-170],[552,44],[823,633],[533,625],[290,97],[908,45],[556,-280],[1268,126],[631,-49],[313,134]],[[64429,62220],[-1,11191]],[[64428,73411],[916,469],[298,-11],[345,-229],[338,223],[1462,87],[542,212],[433,-16],[325,-286],[471,-78],[493,-277],[209,-259],[502,-157],[488,-375],[-185,704]],[[71706,65188],[1076,1290],[267,637],[673,418],[145,422],[1113,1322],[-191,248],[9,422],[-407,649],[-28,357],[243,304],[847,251],[19,333],[392,418]],[[83419,75103],[507,-158],[108,-407],[338,-97],[216,-207],[17,-188],[-421,-162],[206,-21],[82,-133],[-233,29],[-298,-641],[117,-89],[397,80],[-183,-210],[297,-761],[-92,-130],[-410,12],[111,-318],[-425,-407],[-101,-366],[-224,-13],[-157,-275],[49,-180],[-157,-62],[216,-256],[-557,-174],[-75,-303],[214,-555],[-359,-93],[233,-39],[-202,-177],[178,-104],[12,-182],[-123,-32],[-88,171],[-43,-202],[-106,36],[-170,-163],[29,-165],[-300,-91],[70,-585],[-183,-369],[262,-249],[-305,-528],[80,-165],[-402,-331],[-45,-306],[149,-177],[-202,-206],[124,-181],[-155,-500],[-6,-2162],[304,-305],[-59,-386],[333,-451],[-167,-21],[-77,-202],[492,-144],[235,-220],[-158,-241],[339,-388],[-38,-268],[398,-395],[-67,-641],[163,-179],[-113,-13],[27,-231],[-219,-276],[177,-389],[288,-146],[164,118],[304,-429],[174,-33],[-13,-120],[258,122],[706,-665],[292,170],[323,-111],[168,75],[289,-234],[-103,-178],[162,-398],[-173,-90],[66,-354],[-262,-649],[339,-679],[-23,-258],[-322,-359],[210,-634],[150,-40],[-217,-137],[-17,-272]],[[67188,58657],[145,260],[61,1335],[828,1411],[1356,1237],[398,1035],[365,523],[767,317],[598,413]],[[71706,65188],[163,-346],[339,-171],[3053,-829],[466,-606],[-206,-177],[-213,-702],[-359,-149],[-582,-620],[910,98],[353,-90],[384,114],[872,-657],[204,65],[451,-183],[-83,-377],[531,-392],[-112,-460],[116,-579],[-71,-1056],[361,-208],[21,-289],[146,-100],[-30,-206],[-139,3],[-335,-570],[-197,32],[54,-856],[158,-127],[66,129],[216,-157],[241,51],[47,-804],[206,105],[16,-209],[-132,-275],[-321,-211],[-698,87],[-878,-1152],[-358,-208],[465,-212],[218,-266],[601,371],[678,-98],[247,-231],[63,-410]],[[64065,52260],[60,-314],[680,-472],[374,267],[288,36],[203,262],[1615,-17],[709,232],[781,4],[-304,-610],[174,-758],[176,-124],[1428,7],[274,-402],[786,-253],[242,-284],[40,-628],[266,-170],[235,-372],[-548,-475],[-96,-162],[85,-50],[239,89],[462,-55],[180,228],[559,-212],[138,297],[1153,241],[459,-141],[519,574],[243,12],[703,736],[369,148],[919,745],[47,223],[949,789],[166,609]],[[78638,52260],[7104,0]],[[85742,52260],[-68,-756],[-212,-603],[422,-479],[-189,-184],[25,-155],[201,-142],[355,158],[154,-122],[368,-27],[151,407],[-25,-130],[248,-252],[-174,-281],[104,-109],[-436,-140],[-195,-733],[407,-31],[57,-263],[104,94],[411,-24],[243,-385],[881,300],[163,-174],[317,-33],[450,-785],[216,139],[94,-55],[-58,-290],[212,-372],[291,-161],[358,4],[136,-346],[180,-102],[-68,-326],[281,-187]],[[50294,2598],[-954,83],[-211,682],[-687,754],[-117,455],[-524,718],[-405,948],[-465,488],[-379,272],[-631,44],[-313,296],[116,235],[-238,337],[-295,0],[-486,459],[-473,81],[-65,255],[-398,138],[-533,-36],[-220,349],[-234,117],[-130,-60],[-319,259],[-74,235],[-192,-20],[-473,592],[-140,-32],[-192,162],[108,102],[-178,227],[75,105],[-304,110],[-28,125],[-790,268],[-94,-117],[-225,121],[-65,187],[-257,-89],[-342,198],[-154,329],[257,122],[-224,531],[364,479],[276,-142],[139,87],[587,-66],[407,-477],[350,280],[155,-92],[269,104],[-238,193],[21,312],[275,-109],[179,139],[17,-108],[257,295],[253,-84],[316,161],[59,369],[-210,110],[189,240],[-366,329],[98,241],[-200,216],[143,34],[15,175],[153,13],[-123,311],[175,4],[194,217],[13,312],[289,35],[-220,378],[160,-92],[136,215],[103,-83],[201,117],[47,181],[272,-10],[75,247],[161,37],[-36,208],[210,7],[-112,279],[233,121],[1,361],[124,132],[-545,291],[-195,-147],[-290,283],[89,85],[-178,300],[271,266],[-225,55],[-40,512],[166,104],[27,516],[-611,301],[-273,443],[-433,339],[129,139],[-159,136],[118,124],[-224,69],[-48,138],[178,-41],[119,155],[-127,57],[-269,944],[-493,500],[-731,282],[-210,332],[-115,1106],[-407,494],[-28,528],[-234,470],[164,552],[-140,284],[345,674],[-163,194],[-42,369],[-449,532],[-407,-199],[-156,47],[-241,951],[247,1095],[-336,1335],[83,381],[553,681],[720,544],[-140,641],[-337,422],[253,864],[477,604],[-52,268],[-538,746],[103,852],[-977,37],[-964,2434],[-402,1419],[-164,147],[4,600],[-331,503],[-622,239],[-739,495],[-169,162],[-93,439]],[[84990,41693],[-127,114],[122,442],[-234,223],[126,57],[-79,81],[173,349],[140,52],[-112,211],[75,110],[-112,264],[-225,85],[33,288],[-426,284],[-56,413],[295,430],[-187,325],[294,44],[108,357],[393,70],[28,231],[-173,178],[191,215],[763,61],[182,-89],[683,304],[136,-53],[-38,-170],[239,-37],[295,244],[257,36],[327,-255],[1212,-264],[641,69],[336,-345],[-14,-186],[318,-199],[572,83]],[[91146,45715],[273,52],[10,-238],[299,-296],[-78,-170],[357,34],[22,-82],[42,196],[492,-38],[125,-472],[-95,-278],[420,46],[274,-180],[-35,-215],[235,-295],[-143,-153],[521,-302],[761,-235],[209,102],[333,-282],[236,13],[270,-197],[232,93],[251,-147],[476,60],[141,-214],[363,35],[170,-194],[438,136],[207,-114],[240,74],[265,-381],[296,172],[737,38],[-97,-383],[407,-159],[199,-255],[-333,-163],[-72,-182],[279,-157],[0,-14077],[-9060,0]],[[65477,55409],[-1308,-1026],[-542,-901],[-56,-473],[494,-749]],[[64065,52260],[-3531,-422],[-2261,383],[-820,419],[-570,-232],[-716,11],[-723,-315],[-323,-303],[-558,-115],[-107,-175],[-376,-145],[-1835,-16],[-487,53],[-178,135],[-862,-261],[-997,26],[-364,-166],[-1057,-126],[-1955,-705],[-3598,-1586],[-1863,-1069],[-2967,-1259],[-1638,-923],[-1078,-72]],[[35201,45397],[-1176,963],[222,580],[1166,1126],[-123,1545],[452,814],[92,555],[-272,566],[-1656,598],[-427,361],[-1850,214],[-538,-192],[-730,-47],[-502,208],[-1115,986],[-447,1122],[-804,116],[-1385,-392],[-580,155],[-825,469],[-377,446],[252,214],[116,398],[-129,291],[124,170],[-112,214],[108,156],[-260,204],[-2,234],[351,455],[-160,72],[-129,489],[-472,51],[-220,342],[-359,-152],[-107,-363],[-382,-238],[-274,472],[-130,-89],[5,124],[-109,10],[-72,-149],[-337,-84],[-474,100],[-138,-90],[-5,374],[-202,-168],[-90,165],[-335,137],[-695,-241],[-200,98],[-135,-106],[-483,43],[-144,226],[-178,20],[-294,-223],[-230,145],[-268,-186],[-175,84],[-145,-73],[-113,167],[-401,148],[5,110],[-261,73],[-61,148],[-328,4],[-152,137],[-790,-435],[-577,86],[-150,-220],[-75,94],[-259,-48],[-85,192]],[[14590,59172],[4586,1684],[703,486],[598,-453],[663,15],[835,-272],[817,622],[-160,606],[303,130],[-22,215],[-138,79],[145,122],[-150,157],[182,204],[-67,134],[146,57],[-118,179],[121,331],[142,-15],[118,195],[316,-25],[613,-304],[322,83],[135,-140],[94,314],[586,83],[330,-117],[417,274],[41,154],[508,249],[135,-60],[61,90],[382,-171],[268,157],[355,-324],[163,86],[374,-198],[221,73],[239,-137],[261,79],[399,-156],[466,308],[337,-181],[192,196],[675,-146],[84,-260],[317,0],[333,-203],[317,17]],[[64429,62220],[509,-232],[169,-300],[290,89],[435,-345],[28,-913],[-201,-16],[0,-211],[-286,-414],[856,-199],[-14,-235],[-313,-344],[351,113],[580,-397],[-178,-203],[332,-94],[201,138]],[[67188,58657],[-173,-572],[-9,-247],[196,-288],[-168,-706],[-758,-434],[-318,-703],[-481,-298]],[[65477,55409],[-266,321],[-1634,888],[-2495,-635],[-467,364],[-424,0],[-417,-162],[-721,124],[-319,-193],[-1226,2124],[-1623,600],[-1948,41],[-1640,-236],[-934,-495],[-582,-716],[-434,-185],[-59,-233],[-170,-15],[-342,-336],[-414,-85],[-609,-512],[-1190,-438],[-487,-128],[-709,0],[-1115,242],[-303,-235],[-1601,-92],[-382,-201],[-263,45],[-280,-234],[-556,55],[-1164,-1090],[-36,77],[-183,-134],[131,23],[-81,-139],[-239,95],[-961,-62],[-295,165],[-290,-237],[-335,9],[-65,358],[-240,20],[-486,561],[-78,482],[-116,32],[167,201],[-318,370],[-918,188],[-1337,-92],[-239,191],[-354,-103],[-655,200],[37,210],[-262,300],[-143,-79],[-340,262],[-282,-52],[32,234],[-215,55],[-27,158],[-386,-184],[-124,7],[23,114],[-266,26],[-247,454],[-283,41],[-128,-122],[-462,106],[-146,-95],[-498,177],[-36,916],[-269,363],[-372,-86],[547,929],[-387,386],[38,584],[613,492],[-42,188],[137,86],[-78,259],[468,242],[10,142],[108,-28],[-45,-133],[202,-64],[370,320],[539,71],[330,212],[86,118],[-96,219],[183,211],[-129,153]],[[32235,63389],[414,-77],[103,82],[235,-148],[193,423],[261,-392],[399,-129],[220,-319],[660,94],[197,-143],[596,-94],[259,-298],[224,28],[-10,152],[429,-36],[141,126],[197,-18],[75,136],[267,65],[70,182],[316,6],[162,-112],[396,62],[761,175],[621,353],[1320,187],[1030,-109],[884,-242],[1198,-49],[183,134],[168,-37],[-65,-74],[168,-137],[1708,-4],[998,-260],[484,62],[164,-244],[269,26],[91,-94],[20,-340],[466,-75],[359,333],[184,-219],[351,-24],[157,107],[252,-206],[584,207],[231,-124],[53,152],[443,106],[251,201],[91,-127],[611,101],[-35,349],[-201,4],[103,326],[280,287],[515,133],[-62,162],[-176,-75],[-225,200],[307,568],[1284,1187],[813,217],[949,-769],[444,-134],[428,95],[181,-118],[158,140],[149,-328],[614,-158],[407,-337],[163,32],[43,-174],[-159,-187],[201,-101],[191,-580],[173,-45],[19,-122],[187,29],[108,-434],[318,-61],[-103,-110],[295,-182],[-99,-199],[216,-507],[265,211],[347,-65],[206,-235],[229,36],[201,150],[31,264],[229,-17],[63,98],[211,-154],[787,343],[69,288],[150,-333],[364,-42],[127,202],[874,-503],[140,57],[81,293],[181,-228],[314,-11]],[[86174,83837],[430,-223],[560,-5],[533,-201],[-600,-919],[208,-34],[214,-222],[185,7],[-29,-205],[308,-132],[1,-202],[-202,27],[106,-150],[210,158],[-38,-250],[178,-105],[109,109],[134,-210],[-249,-158],[41,-107],[304,-63],[153,210],[210,4],[25,-105],[278,-44],[186,-348],[-181,-88],[-7,-212],[-207,119],[-97,-174],[-332,-30],[-49,-411],[-170,167],[34,-175],[-306,-75],[4,-360],[134,-42],[-24,-323],[157,-50],[-4,-215],[-119,97],[-222,-126],[34,-300],[-241,145],[-315,-295],[0,217],[-178,-212],[-435,-44],[-52,-232],[-190,-128],[272,-331],[-135,-94],[153,-163],[-97,-197],[-320,-47],[-66,-152],[-224,-5],[-216,-188],[-53,-152],[-530,-191],[-121,-283],[-158,-20],[68,-87],[-399,-137],[-464,56],[-8,-152],[-579,-80],[-136,-353],[-142,-42],[147,-86],[-236,-115]],[[83419,75103],[-221,-1],[-332,329],[-294,-114],[-239,-287],[-355,202],[-286,-235],[-414,-56],[-624,-366],[-323,-40],[-458,-459],[-898,-454],[-328,4],[-336,-251],[-164,-414],[-192,-150],[-1651,-289],[-440,-263]],[[75864,72259],[-14,645],[412,227],[-28,150],[206,106],[5,190],[-253,235],[42,163],[-187,121],[-5,195],[-173,-28],[-150,125],[127,215],[-258,232],[-257,89],[-70,-146],[-262,93],[-145,114],[47,146],[-290,101],[-187,-73],[-56,183]],[[55881,86173],[-198,58],[-67,189],[195,156],[-166,286],[179,541],[436,77],[576,403],[267,-87],[-81,-125],[324,129],[289,-129],[522,41],[479,-143],[417,182],[-84,162],[272,268],[350,-48],[143,273],[-185,31],[-342,375],[-205,5],[-86,190],[97,263],[632,51],[159,-146],[269,147],[111,-179],[125,116],[408,-169],[52,170],[272,-253],[241,63],[290,-289],[309,-67],[105,-229],[336,372],[555,257],[1596,-112],[219,395],[454,37],[18,533],[428,39],[-116,268],[88,264],[-312,329],[68,179],[471,114],[298,770],[424,-5],[432,-187],[255,359],[349,9],[131,287],[736,152],[215,-66],[191,235],[315,111],[-103,166],[174,168],[736,425],[-9,169],[221,118],[65,199],[116,-10],[-46,328]],[[72187,84546],[48,-621],[360,-20],[267,-284],[-99,-207],[267,150],[295,-219],[-37,-198],[163,-53],[304,-430],[-56,-455],[187,-316],[-365,-548],[47,-511],[-454,-24],[-145,-239],[80,-215],[-220,-167],[234,-174],[-206,-389],[383,-495],[-149,-179],[61,-426],[-155,37],[187,-378],[-224,-32],[75,-317],[-295,-243],[337,126],[257,-292],[-65,-321],[233,-69],[61,-348],[430,-345],[-98,-325],[215,-81],[-93,-130],[145,0],[206,-466]],[[74368,75342],[-130,-51],[-173,147],[-135,-136],[-242,39],[-360,360],[-193,13],[-119,-327],[-391,-245],[-10,-346],[-233,168],[-171,-423],[-247,-98],[-25,-152],[132,-98],[-93,-312],[-444,-18],[-8,-133],[-461,-312]],[[71065,73418],[-270,309],[9,214],[215,256],[-149,21],[-241,389],[-421,49],[-260,220],[-169,-32],[-246,261],[-244,-165],[-481,318],[-428,-123],[-543,204],[-1,204],[-237,15],[117,286],[-1046,453],[79,301],[-450,1053],[293,717],[-49,674],[-394,482],[-268,814],[-311,176],[51,759],[-452,519],[-331,197],[-207,-47],[-495,169],[-41,-133],[-144,50],[-190,-176],[71,-97],[-204,34],[-113,-134],[104,-55],[-165,-95],[-1034,285],[-354,-13],[-565,222],[-400,210],[-147,225],[-375,74],[-379,387],[183,300],[5,312],[-42,196],[-286,170],[213,689],[-174,133],[-3,219],[-721,557],[-34,349],[-583,203],[-184,201],[-2693,-51]],[[50294,2598],[-416,481],[-131,552],[561,1050],[-182,873],[-529,1050],[379,1014],[-519,832],[336,1002],[-229,515],[19,272],[575,819],[-332,1428],[987,1825],[-266,1067],[416,1014],[-594,731],[-182,434],[275,864],[-135,669],[61,381],[748,2110],[-440,917],[712,1414],[65,569],[-131,1026],[318,2073],[496,812],[304,1030],[463,787],[566,377],[402,674],[187,657],[940,1063],[992,645],[898,1083],[383,1054],[819,812],[215,527],[729,491],[524,-244],[407,5],[70,-187],[459,511],[238,-20],[445,-726],[84,142],[229,28],[-19,-114],[304,4],[122,-263],[108,231],[257,-118],[135,195],[-168,93],[360,-8],[-103,284],[435,219],[-4,179],[168,89],[262,-57],[-98,118],[191,105],[-126,126],[337,174],[-66,187],[216,175],[-61,218],[299,-48],[108,276],[70,-272],[149,73],[192,-97],[108,142],[178,-114],[230,56],[293,-238],[323,20],[309,312],[-89,85],[108,292],[332,138],[556,-401],[192,-390],[355,-194],[57,-467],[-113,-398],[244,-348],[308,-114],[374,-523],[641,-25],[56,-194],[-257,-268],[472,-519],[-4,178],[135,-134],[253,195],[42,-158],[112,28],[-65,25],[23,113],[38,-113],[79,142],[141,-106],[308,353],[253,-101],[556,121],[94,231],[-84,179],[150,-130],[411,183],[-79,109],[205,-65],[117,236],[-112,0],[304,154],[117,393],[224,-101],[150,65],[140,633],[389,178],[28,195],[276,158],[-52,166],[248,-12],[28,256],[351,138],[107,-114],[150,65],[-9,284],[659,231],[318,-138],[108,203],[89,-158],[238,36],[192,183],[112,-231],[220,73],[94,-114],[-84,-105],[140,-98],[248,236],[165,-51]],[[80636,26907],[-356,-1468],[-561,-364],[-304,-46],[-390,-459],[264,-323],[-238,-230],[39,-249],[-172,-46],[125,-259],[-411,-163],[-205,-297],[-343,-75],[71,-61],[-448,-384],[92,-18],[-120,-89],[46,-250],[-479,-708],[197,-137],[-84,-104],[192,-192],[-275,-57],[-297,-449],[-230,2],[65,-230],[-213,-14],[-62,-247],[-183,-85],[-82,142],[-108,-60],[150,-212],[-34,-360],[-232,-212],[299,-447],[-184,-98],[-1,-345],[-347,-114],[79,-371],[-123,-332],[-175,-12],[-255,-366],[154,-158],[-34,-261],[-631,-347],[-86,-540],[-300,-281],[136,-107],[40,-393],[188,-35],[125,-259],[-205,-63],[121,-209],[230,97],[240,-519],[646,-279],[-59,-218],[226,-220],[-107,-227],[151,-122],[-147,-410],[-206,19],[-387,-328],[-170,85],[-112,-140],[-171,168],[-169,-106],[-27,-211],[-196,79],[-354,-124],[-143,-212],[-817,139],[-386,-278],[126,-144],[-49,-305],[-426,-210],[264,-218],[-459,-387],[-442,68],[-31,172],[-502,110],[-133,-336],[-417,215],[14,-168],[-218,23],[-91,-180],[-216,22],[-305,-229],[-19,239],[-236,90],[-213,-53],[-252,153],[-384,-115],[127,102],[-143,107],[-320,-171],[-173,59],[72,138],[-143,411],[100,140],[-107,173],[220,140],[-532,127],[285,386],[-590,234],[-16,669],[-808,116],[-112,596],[-163,106],[-400,-83],[-411,344],[38,114],[-173,103],[71,569],[-171,273],[-237,-149],[-208,82],[-585,-126],[-601,271],[-444,-20],[-224,444],[-461,211],[-344,-111],[-261,141],[-415,-20],[-181,-262],[-913,239],[-104,-247],[138,-176],[-219,-483],[-732,-200],[-410,12],[-455,-327],[-516,4],[-801,-461],[-444,-66],[21,-307],[-554,-90],[-328,-827],[-859,-548],[-224,-728],[9,-428],[169,-214],[-309,-244],[74,-359],[-344,-211],[-168,-482],[120,-260],[-64,-418],[479,3],[140,-140],[-20,-158],[-263,-112],[260,-268],[20,-476],[-56,-125],[-534,-135],[198,-288],[-226,-160],[226,-270],[-254,-401],[177,-382],[-277,-170],[-357,-847],[21,-322],[-366,-394],[290,-98],[439,-446],[57,-215],[-623,-605],[272,-182],[355,-32],[136,-280],[599,-69],[367,-1008],[727,-372],[-23,-746],[-276,61],[-903,718],[-463,694],[-552,438],[-1904,560],[-383,259],[-487,134],[-477,32],[-322,-275],[-384,-23]],[[80636,26907],[-23,123],[597,548],[-553,80],[-1115,496],[148,489],[300,290],[-314,219],[-10,256],[-395,330],[6,329],[-225,363],[133,274],[-125,24],[-361,560]],[[81571,39640],[355,621],[253,-28],[-85,117],[206,122],[426,-20],[290,166],[108,-81],[201,231],[196,-373],[412,182],[304,828],[313,-20],[-28,117],[365,33],[103,158]],[[84990,41693],[448,-1264],[231,-1659],[-222,-1094],[-51,-1192],[-268,-991],[141,-195],[-282,-263],[-590,-2947],[1197,-1112],[631,82],[322,-107],[615,440],[597,-5],[348,-97],[97,-277],[376,-280],[346,-57],[385,-460],[301,-776],[682,-128],[199,-417],[-312,-790],[566,-806],[66,-391]],[[90813,26907],[-10177,0]],[[76778,39533],[391,-116],[99,142],[392,-12],[1544,-487],[131,110],[561,-12],[912,328],[229,-12],[24,-97],[510,263]],[[81571,39640],[112,-2141],[-131,-293],[-594,-150],[-173,-620],[-356,-244],[-60,-681],[-142,-224],[263,-620],[-257,-617],[107,-182],[-149,-844],[-276,-130],[195,-898],[-214,-173],[-192,57],[-320,-241],[-158,30],[-20,-116],[-438,-76],[-69,-189]],[[78699,31288],[-529,-4],[-81,113],[-636,-54],[224,408],[-307,-99],[-114,238],[257,354],[-533,580],[33,350],[-173,351],[211,366],[-221,8],[-538,490],[1588,1516],[-1212,1101],[268,180],[-2441,513],[1619,562],[344,550],[239,-19],[-134,542],[217,-2],[-2,201]],[[86174,83837],[-1454,259],[492,469],[-2091,194],[-748,258],[-804,555],[-297,-2],[-719,341],[-441,-281],[-185,-358],[-846,-9],[-223,-379],[58,-171],[-341,-264],[-142,28],[-120,-177],[-543,-199],[-281,40],[38,201],[-155,2],[-717,-438],[-429,110],[-487,-203],[-1042,541],[-1029,68],[-588,180],[-504,-199],[-389,143]],[[72187,84546],[516,337],[-393,312],[-468,110],[-126,190],[444,378],[-305,185],[-86,151],[115,129],[-251,156],[-422,652],[-749,48],[48,205],[-244,50],[-44,139],[335,841],[-126,128],[547,886],[-483,1038],[253,167],[-103,179],[82,197],[-304,241],[104,705],[-211,98],[211,406],[-6,758],[417,551],[-406,502],[-241,103]],[[70291,94388],[439,75],[156,307],[457,314],[-34,242],[162,149],[-219,566],[-363,164],[106,418],[-289,6],[-323,281],[75,788],[-257,21],[-101,712],[-425,463],[-830,124],[240,275],[284,-27],[105,132],[334,74],[259,-98],[254,63],[386,-262],[633,61],[82,-267],[597,-160],[403,237],[551,-136],[373,61],[70,-88],[212,152],[79,-321],[168,-63],[360,178],[95,332],[113,-64],[392,167],[314,-242],[807,14],[266,346],[348,6],[308,331],[320,10],[421,270],[295,-49],[141,-470],[308,-123],[253,31],[468,328],[246,35],[271,-127],[-270,9],[-123,-255],[399,-444],[7,-431],[198,-434],[386,20],[302,-458],[145,57],[336,-311],[689,-146],[107,-234],[-129,-146],[1,-500],[-130,-3],[-71,-251],[4,-746],[-400,-1545],[-204,-189],[-49,-203],[102,-83],[-207,-152],[-18,-174],[239,-114],[-70,-565],[-237,-271],[239,-267],[-843,-745],[83,-562],[-450,-191],[-445,15],[-127,-129],[128,-276],[-289,21],[80,-197],[-245,160],[-107,-43],[-71,-232],[125,-143],[-128,-431],[409,-50],[314,-184],[297,103],[-56,265],[260,95],[43,-240],[184,112],[180,-57],[-99,-405],[891,-52],[244,84],[503,-218],[40,422],[591,-146],[166,-131],[-88,-138],[323,-34],[-75,-174],[110,-90],[187,263],[322,-51],[68,175],[212,-224],[-154,-142],[170,-138],[490,83],[35,-105],[305,-67],[142,302],[145,-22],[19,-259],[191,32],[28,-146],[248,-34],[206,-263],[306,63],[256,-202],[-1,-175],[459,-269],[144,80],[237,-123],[-205,-185],[70,-335],[-429,-334],[14,-162],[-247,-65],[-239,-269],[24,-219],[197,76],[160,-97],[-498,-485],[26,-360],[181,-283],[-62,-140],[372,-280]]]}