{"type":"Topology","objects":{"data":{"geometries":[{"properties":{"cd_mun_ibge":"2400109"},"type":"MultiPolygon","arcs":[[[-334,-36,-55,-365,-40,0,-24,-95]]],"id":0},{"properties":{"cd_mun_ibge":"2400208"},"type":"MultiPolygon","arcs":[[[-2,-77,-81,-354,-107,-448,-181,-463,-160,-386,-28]]],"id":1},{"properties":{"cd_mun_ibge":"2400307"},"type":"MultiPolygon","arcs":[[[-75,1,-27,-5,-225,-134,-215,-6]]],"id":2},{"properties":{"cd_mun_ibge":"2400406"},"type":"MultiPolygon","arcs":[[[-246,-261,-34,-44]]],"id":3},{"properties":{"cd_mun_ibge":"2400505"},"type":"MultiPolygon","arcs":[[[-8,-100,2,-426,-139,-228]]],"id":4},{"properties":{"cd_mun_ibge":"2400604"},"type":"MultiPolygon","arcs":[[[-124,-456,-252,-195,3,-7,-58]]],"id":5},{"properties":{"cd_mun_ibge":"2400703"},"type":"MultiPolygon","arcs":[[[-26,-226,4]]],"id":6},{"properties":{"cd_mun_ibge":"2400802"},"type":"MultiPolygon","arcs":[[[-214,-122,-53,-284,-80,-76,5]]],"id":7},{"properties":{"cd_mun_ibge":"2400901"},"type":"MultiPolygon","arcs":[[[-230,-138,-206,-397,-143,-57,6,-101,7]]],"id":8},{"properties":{"cd_mun_ibge":"2401008"},"type":"MultiPolygon","arcs":[[[-452,-253,-82,-403,8,-65,-52,-23]]],"id":9},{"properties":{"cd_mun_ibge":"2401107"},"type":"MultiPolygon","arcs":[[[-69,9,-236,-388,-159]],[[10]]],"id":10},{"properties":{"cd_mun_ibge":"2401206"},"type":"MultiPolygon","arcs":[[[-435,-61,-323,-166,-378]]],"id":11},{"properties":{"cd_mun_ibge":"2401305"},"type":"MultiPolygon","arcs":[[[-22,-459,-180,-450,-106,11,-146,-88]]],"id":12},{"properties":{"cd_mun_ibge":"2401404"},"type":"MultiPolygon","arcs":[[[-20,12]]],"id":13},{"properties":{"cd_mun_ibge":"2401453"},"type":"MultiPolygon","arcs":[[[13,-156,-67]]],"id":14},{"properties":{"cd_mun_ibge":"2401503"},"type":"MultiPolygon","arcs":[[[-405,-357,-273,-264,-345,-112]]],"id":15},{"properties":{"cd_mun_ibge":"2401602"},"type":"MultiPolygon","arcs":[[[-233,-73,-201,-262,-16,-92,-98]]],"id":16},{"properties":{"cd_mun_ibge":"2401651"},"type":"MultiPolygon","arcs":[[[-30,-114,-279]]],"id":17},{"properties":{"cd_mun_ibge":"2401701"},"type":"MultiPolygon","arcs":[[[-89,-373,-348,-131]]],"id":18},{"properties":{"cd_mun_ibge":"2401800"},"type":"MultiPolygon","arcs":[[[-468,-194,-293,-111,-150,-326,-108]]],"id":19},{"properties":{"cd_mun_ibge":"2401859"},"type":"MultiPolygon","arcs":[[[-59,14,-297,-184,-86]]],"id":20},{"properties":{"cd_mun_ibge":"2401909"},"type":"MultiPolygon","arcs":[[[-271,-364,-119,-91,15,-265]]],"id":21},{"properties":{"cd_mun_ibge":"2402006"},"type":"MultiPolygon","arcs":[[[-389,-439,-305,-103,-54,-35,-332,-94,-175,16,-316]]],"id":22},{"properties":{"cd_mun_ibge":"2402105"},"type":"MultiPolygon","arcs":[[[-275,-32,17,-38,-360,-123]]],"id":23},{"properties":{"cd_mun_ibge":"2402204"},"type":"MultiPolygon","arcs":[[[-432,18,19,20,-221,-48,-62,-433,-483]]],"id":24},{"properties":{"cd_mun_ibge":"2402303"},"type":"MultiPolygon","arcs":[[[-68,-460,21,-87,-197,-172,-453,22,-51]]],"id":25},{"properties":{"cd_mun_ibge":"2402402"},"type":"MultiPolygon","arcs":[[[23,24,-186]]],"id":26},{"properties":{"cd_mun_ibge":"2402501"},"type":"MultiPolygon","arcs":[[[-385,-239,-227,25,26,27]]],"id":27},{"properties":{"cd_mun_ibge":"2402600"},"type":"MultiPolygon","arcs":[[[-417,-145,28,-49,-312,-74]]],"id":28},{"properties":{"cd_mun_ibge":"2402709"},"type":"MultiPolygon","arcs":[[[-115,29,-278,-120,-362,-37]]],"id":29},{"properties":{"cd_mun_ibge":"2402808"},"type":"MultiPolygon","arcs":[[[30,31,-274,-300,32,-84]]],"id":30},{"properties":{"cd_mun_ibge":"2402907"},"type":"MultiPolygon","arcs":[[[-339,-45,33,-260,-126,-472]]],"id":31},{"properties":{"cd_mun_ibge":"2403004"},"type":"MultiPolygon","arcs":[[[-333,34,-56,35]]],"id":32},{"properties":{"cd_mun_ibge":"2403103"},"type":"MultiPolygon","arcs":[[[-113,36,-361,37,38,39,-369]]],"id":33},{"properties":{"cd_mun_ibge":"2403202"},"type":"MultiPolygon","arcs":[[[40,-46,-337]]],"id":34},{"properties":{"cd_mun_ibge":"2403251"},"type":"MultiPolygon","arcs":[[[-129,-165,41,-167,-321]]],"id":35},{"properties":{"cd_mun_ibge":"2403301"},"type":"MultiPolygon","arcs":[[[42,-203,-247,43,44,-338,45]]],"id":36},{"properties":{"cd_mun_ibge":"2403400"},"type":"MultiPolygon","arcs":[[[46,-287,-188]]],"id":37},{"properties":{"cd_mun_ibge":"2403509"},"type":"MultiPolygon","arcs":[[[47,-220,-470,-109,-324,-63]]],"id":38},{"properties":{"cd_mun_ibge":"2403608"},"type":"MultiPolygon","arcs":[[[48,49,-163,-313]]],"id":39},{"properties":{"cd_mun_ibge":"2403707"},"type":"MultiPolygon","arcs":[[[50,51,-64]]],"id":40},{"properties":{"cd_mun_ibge":"2403756"},"type":"MultiPolygon","arcs":[[[-121,-285,52]]],"id":41},{"properties":{"cd_mun_ibge":"2403806"},"type":"MultiPolygon","arcs":[[[53,-102,-281,-429,-366,54,55]]],"id":42},{"properties":{"cd_mun_ibge":"2403905"},"type":"MultiPolygon","arcs":[[[-310,-410,-234,-399,-205]]],"id":43},{"properties":{"cd_mun_ibge":"2404002"},"type":"MultiPolygon","arcs":[[[56,-142,-125,57]]],"id":44},{"properties":{"cd_mun_ibge":"2404101"},"type":"MultiPolygon","arcs":[[[58,-85,-72,59]]],"id":45},{"properties":{"cd_mun_ibge":"2404200"},"type":"MultiPolygon","arcs":[[[60,-434,61,62]]],"id":46},{"properties":{"cd_mun_ibge":"2404309"},"type":"MultiPolygon","arcs":[[[63,64,65,66,-161,-461,67]]],"id":47},{"properties":{"cd_mun_ibge":"2404408"},"type":"MultiPolygon","arcs":[[[68,-158,-268,69]]],"id":48},{"properties":{"cd_mun_ibge":"2404507"},"type":"MultiPolygon","arcs":[[[-133,70,71,-217]]],"id":49},{"properties":{"cd_mun_ibge":"2404606"},"type":"MultiPolygon","arcs":[[[-311,-132,-351,-202,72,-232,-418,73]]],"id":50},{"properties":{"cd_mun_ibge":"2404705"},"type":"MultiPolygon","arcs":[[[74,75,-79,76]]],"id":51},{"properties":{"cd_mun_ibge":"2404804"},"type":"MultiPolygon","arcs":[[[-318,77]]],"id":52},{"properties":{"cd_mun_ibge":"2404853"},"type":"MultiPolygon","arcs":[[[78,79,-283,-355,80]]],"id":53},{"properties":{"cd_mun_ibge":"2404903"},"type":"MultiPolygon","arcs":[[[-413,-266,-404,81,-255]]],"id":54},{"properties":{"cd_mun_ibge":"2405009"},"type":"MultiPolygon","arcs":[[[82,83]]],"id":55},{"properties":{"cd_mun_ibge":"2405108"},"type":"MultiPolygon","arcs":[[[-218,84,85,-183,-97,-210,-118]]],"id":56},{"properties":{"cd_mun_ibge":"2405207"},"type":"MultiPolygon","arcs":[[[-148,-198,86,87]]],"id":57},{"properties":{"cd_mun_ibge":"2405306"},"type":"MultiPolygon","arcs":[[[-110,-395,-331,-419,-241,-374,88,-130,-475,-153,-117]]],"id":58},{"properties":{"cd_mun_ibge":"2405405"},"type":"MultiPolygon","arcs":[[[-330,-155,89,-302,-277]]],"id":59},{"properties":{"cd_mun_ibge":"2405504"},"type":"MultiPolygon","arcs":[[[90,-211,-96,91]]],"id":60},{"properties":{"cd_mun_ibge":"2405603"},"type":"MultiPolygon","arcs":[[[-104,-306,-441,-392,92]]],"id":61},{"properties":{"cd_mun_ibge":"2405702"},"type":"MultiPolygon","arcs":[[[-290,-173,93,-335,94,-185]]],"id":62},{"properties":{"cd_mun_ibge":"2405801"},"type":"MultiPolygon","arcs":[[[95,96,-182,-443,-243,-231,97]]],"id":63},{"properties":{"cd_mun_ibge":"2405900"},"type":"MultiPolygon","arcs":[[[98,99,100]]],"id":64},{"properties":{"cd_mun_ibge":"2406007"},"type":"MultiPolygon","arcs":[[[-127,-258,-140,-424,-179,-136]]],"id":65},{"properties":{"cd_mun_ibge":"2406106"},"type":"MultiPolygon","arcs":[[[-282,101,102,-304,103,104,105,-449,106,-353]]],"id":66},{"properties":{"cd_mun_ibge":"2406155"},"type":"MultiPolygon","arcs":[[[107,-325,108,-469]]],"id":67},{"properties":{"cd_mun_ibge":"2406205"},"type":"MultiPolygon","arcs":[[[-382,-328,-291,-169,-191]]],"id":68},{"properties":{"cd_mun_ibge":"2406304"},"type":"MultiPolygon","arcs":[[[109,-116,-151,110,-292,-396]]],"id":69},{"properties":{"cd_mun_ibge":"2406403"},"type":"MultiPolygon","arcs":[[[111,-344,-370,-240,-406]]],"id":70},{"properties":{"cd_mun_ibge":"2406502"},"type":"MultiPolygon","arcs":[[[112,-368,-280,113,114]]],"id":71},{"properties":{"cd_mun_ibge":"2406601"},"type":"MultiPolygon","arcs":[[[115,116,-152]]],"id":72},{"properties":{"cd_mun_ibge":"2406700"},"type":"MultiPolygon","arcs":[[[-213,117,-212,118,-363,119,120,121]]],"id":73},{"properties":{"cd_mun_ibge":"2406809"},"type":"MultiPolygon","arcs":[[[-359,-276,122]]],"id":74},{"properties":{"cd_mun_ibge":"2406908"},"type":"MultiPolygon","arcs":[[[-141,-457,123,124]]],"id":75},{"properties":{"cd_mun_ibge":"2407005"},"type":"MultiPolygon","arcs":[[[-473,125,-259,126,-137,-177,127]]],"id":76},{"properties":{"cd_mun_ibge":"2407104"},"type":"MultiPolygon","arcs":[[[-162,128,-320,-476,129,130,-347,131,-315]]],"id":77},{"properties":{"cd_mun_ibge":"2407203"},"type":"MultiPolygon","arcs":[[[132,-216,133,-224,-238,134]]],"id":78},{"properties":{"cd_mun_ibge":"2407252"},"type":"MultiPolygon","arcs":[[[135,-178,136]]],"id":79},{"properties":{"cd_mun_ibge":"2407302"},"type":"MultiPolygon","arcs":[[[137,-229,138,-425,139,-257,-249,-207]]],"id":80},{"properties":{"cd_mun_ibge":"2407401"},"type":"MultiPolygon","arcs":[[[-401,-235,-480,-458,140,141,142]]],"id":81},{"properties":{"cd_mun_ibge":"2407500"},"type":"MultiPolygon","arcs":[[[-245,-189,143,144]]],"id":82},{"properties":{"cd_mun_ibge":"2407609"},"type":"MultiPolygon","arcs":[[[145,146,-199,147]]],"id":83},{"properties":{"cd_mun_ibge":"2407708"},"type":"MultiPolygon","arcs":[[[148,-170,-223]]],"id":84},{"properties":{"cd_mun_ibge":"2407807"},"type":"MultiPolygon","arcs":[[[149,150,151,152,-478,-327]]],"id":85},{"properties":{"cd_mun_ibge":"2407906"},"type":"MultiPolygon","arcs":[[[-329,-380,153,154]]],"id":86},{"properties":{"cd_mun_ibge":"2408003"},"type":"MultiPolygon","arcs":[[[155,156,-269,157,158,-387,159,-462,160]]],"id":87},{"properties":{"cd_mun_ibge":"2408102"},"type":"MultiPolygon","arcs":[[[161,-314,162,163,164]]],"id":88},{"properties":{"cd_mun_ibge":"2408201"},"type":"MultiPolygon","arcs":[[[-376,165,-322,166,167]]],"id":89},{"properties":{"cd_mun_ibge":"2408300"},"type":"MultiPolygon","arcs":[[[-192,168,-295,-465,-219,169,170]]],"id":90},{"properties":{"cd_mun_ibge":"2408409"},"type":"MultiPolygon","arcs":[[[-454,171,-196,-250]]],"id":91},{"properties":{"cd_mun_ibge":"2408508"},"type":"MultiPolygon","arcs":[[[172,-289,173,174]]],"id":92},{"properties":{"cd_mun_ibge":"2408607"},"type":"MultiPolygon","arcs":[[[-428,175,176,177,178]]],"id":93},{"properties":{"cd_mun_ibge":"2408706"},"type":"MultiPolygon","arcs":[[[179,-464,180,-447]]],"id":94},{"properties":{"cd_mun_ibge":"2408805"},"type":"MultiPolygon","arcs":[[[181,182,183,-296,-208,-340]]],"id":95},{"properties":{"cd_mun_ibge":"2408904"},"type":"MultiPolygon","arcs":[[[-286,184,185,186,187]]],"id":96},{"properties":{"cd_mun_ibge":"2408953"},"type":"MultiPolygon","arcs":[[[188,-244,-446,189]]],"id":97},{"properties":{"cd_mun_ibge":"2409100"},"type":"MultiPolygon","arcs":[[[-383,190,191,192]]],"id":98},{"properties":{"cd_mun_ibge":"2409209"},"type":"MultiPolygon","arcs":[[[-467,-294,193]]],"id":99},{"properties":{"cd_mun_ibge":"2409308"},"type":"MultiPolygon","arcs":[[[194,-251,195,196,197,198,199]]],"id":100},{"properties":{"cd_mun_ibge":"2409332"},"type":"MultiPolygon","arcs":[[[-350,-343,-263,200,201]]],"id":101},{"properties":{"cd_mun_ibge":"2409407"},"type":"MultiPolygon","arcs":[[[202,203,-307,204,-398,205,206,-248]]],"id":102},{"properties":{"cd_mun_ibge":"2409506"},"type":"MultiPolygon","arcs":[[[-341,207,-299,208]]],"id":103},{"properties":{"cd_mun_ibge":"2409605"},"type":"MultiPolygon","arcs":[[[209,210,211]]],"id":104},{"properties":{"cd_mun_ibge":"2409704"},"type":"MultiPolygon","arcs":[[[212,213,214,215,216,217]]],"id":105},{"properties":{"cd_mun_ibge":"2409803"},"type":"MultiPolygon","arcs":[[[218,219,220,221,222]]],"id":106},{"properties":{"cd_mun_ibge":"2409902"},"type":"MultiPolygon","arcs":[[[223,224,225,226]]],"id":107},{"properties":{"cd_mun_ibge":"2410009"},"type":"MultiPolygon","arcs":[[[227,228,229]]],"id":108},{"properties":{"cd_mun_ibge":"2410108"},"type":"MultiPolygon","arcs":[[[230,-242,-415,231,232]]],"id":109},{"properties":{"cd_mun_ibge":"2410207"},"type":"MultiPolygon","arcs":[[[-400,233,-409,-254,-481,234]]],"id":110},{"properties":{"cd_mun_ibge":"2410256"},"type":"MultiPolygon","arcs":[[[-384,235,236,237,238]]],"id":111},{"properties":{"cd_mun_ibge":"2410306"},"type":"MultiPolygon","arcs":[[[-423,-407,239,-375,240]]],"id":112},{"properties":{"cd_mun_ibge":"2410405"},"type":"MultiPolygon","arcs":[[[241,242,-442,243,244,-416]]],"id":113},{"properties":{"cd_mun_ibge":"2410504"},"type":"MultiPolygon","arcs":[[[245,246,247,248,-256]]],"id":114},{"properties":{"cd_mun_ibge":"2410603"},"type":"MultiPolygon","arcs":[[[-455,249,250,251]]],"id":115},{"properties":{"cd_mun_ibge":"2410702"},"type":"MultiPolygon","arcs":[[[252,-451,-482,253,-414,254]]],"id":116},{"properties":{"cd_mun_ibge":"2410801"},"type":"MultiPolygon","arcs":[[[255,256,257,258,259,260]]],"id":117},{"properties":{"cd_mun_ibge":"2410900"},"type":"MultiPolygon","arcs":[[[261,262,-346,263,-272,264]]],"id":118},{"properties":{"cd_mun_ibge":"2411007"},"type":"MultiPolygon","arcs":[[[265,-412,-309,266,-402]]],"id":119},{"properties":{"cd_mun_ibge":"2411056"},"type":"MultiPolygon","arcs":[[[267,268,269]]],"id":120},{"properties":{"cd_mun_ibge":"2411106"},"type":"MultiPolygon","arcs":[[[-356,270,271,272]]],"id":121},{"properties":{"cd_mun_ibge":"2411205"},"type":"MultiPolygon","arcs":[[[273,274,275,-358,-408,-421,276,-301]]],"id":122},{"properties":{"cd_mun_ibge":"2411403"},"type":"MultiPolygon","arcs":[[[277,278,279,-367,-430,280,281,-352,282,283,284]]],"id":123},{"properties":{"cd_mun_ibge":"2411429"},"type":"MultiPolygon","arcs":[[[285,286,287,288,289]]],"id":124},{"properties":{"cd_mun_ibge":"2411502"},"type":"MultiPolygon","arcs":[[[290,-393,291,292,293,-466,294]]],"id":125},{"properties":{"cd_mun_ibge":"2411601"},"type":"MultiPolygon","arcs":[[[295,296,297,298]]],"id":126},{"properties":{"cd_mun_ibge":"2411700"},"type":"MultiPolygon","arcs":[[[299,300,301,302]]],"id":127},{"properties":{"cd_mun_ibge":"2411809"},"type":"MultiPolygon","arcs":[[[303,304,-438,305]]],"id":128},{"properties":{"cd_mun_ibge":"2411908"},"type":"MultiPolygon","arcs":[[[306,307,308,-411,309]]],"id":129},{"properties":{"cd_mun_ibge":"2412005"},"type":"MultiPolygon","arcs":[[[310,311,312,313,314]]],"id":130},{"properties":{"cd_mun_ibge":"2412104"},"type":"MultiPolygon","arcs":[[[-390,315,316,317,318]]],"id":131},{"properties":{"cd_mun_ibge":"2412203"},"type":"MultiPolygon","arcs":[[[-477,319,320,321,322,323,324,325,326]]],"id":132},{"properties":{"cd_mun_ibge":"2412302"},"type":"MultiPolygon","arcs":[[[-394,327,-381,328,329,-420,330]]],"id":133},{"properties":{"cd_mun_ibge":"2412401"},"type":"MultiPolygon","arcs":[[[331,332,333,334]]],"id":134},{"properties":{"cd_mun_ibge":"2412500"},"type":"MultiPolygon","arcs":[[[-471,335,336,337,338]]],"id":135},{"properties":{"cd_mun_ibge":"2412559"},"type":"MultiPolygon","arcs":[[[-444,339,340,341]]],"id":136},{"properties":{"cd_mun_ibge":"2412609"},"type":"MultiPolygon","arcs":[[[342,-349,-371,343,344,345]]],"id":137},{"properties":{"cd_mun_ibge":"2412708"},"type":"MultiPolygon","arcs":[[[346,347,-372,348,349,350]]],"id":138},{"properties":{"cd_mun_ibge":"2412807"},"type":"MultiPolygon","arcs":[[[351,352,353,354]]],"id":139},{"properties":{"cd_mun_ibge":"2412906"},"type":"MultiPolygon","arcs":[[[355,356,357,358,359,360,361,362,363]]],"id":140},{"properties":{"cd_mun_ibge":"2413003"},"type":"MultiPolygon","arcs":[[[364,365,-431,366,367,368]]],"id":141},{"properties":{"cd_mun_ibge":"2413102"},"type":"MultiPolygon","arcs":[[[369,370,371,372,373,374]]],"id":142},{"properties":{"cd_mun_ibge":"2413201"},"type":"MultiPolygon","arcs":[[[375,376,-436,377]]],"id":143},{"properties":{"cd_mun_ibge":"2413300"},"type":"MultiPolygon","arcs":[[[378,379,380,381,382]]],"id":144},{"properties":{"cd_mun_ibge":"2413359"},"type":"MultiPolygon","arcs":[[[383,384,385,386,387]]],"id":145},{"properties":{"cd_mun_ibge":"2413409"},"type":"MultiPolygon","arcs":[[[-440,388,389,390,391]]],"id":146},{"properties":{"cd_mun_ibge":"2413508"},"type":"MultiPolygon","arcs":[[[392,393,394,395]]],"id":147},{"properties":{"cd_mun_ibge":"2413557"},"type":"MultiPolygon","arcs":[[[396,397,398,399,400]]],"id":148},{"properties":{"cd_mun_ibge":"2413607"},"type":"MultiPolygon","arcs":[[[401,402,403]]],"id":149},{"properties":{"cd_mun_ibge":"2413706"},"type":"MultiPolygon","arcs":[[[404,405,406,-422,407]]],"id":150},{"properties":{"cd_mun_ibge":"2413805"},"type":"MultiPolygon","arcs":[[[408,409,410,411,412,413]]],"id":151},{"properties":{"cd_mun_ibge":"2413904"},"type":"MultiPolygon","arcs":[[[414,415,416,417]]],"id":152},{"properties":{"cd_mun_ibge":"2414001"},"type":"MultiPolygon","arcs":[[[418,419,420,421,422]]],"id":153},{"properties":{"cd_mun_ibge":"2414100"},"type":"MultiPolygon","arcs":[[[423,424,425,426,427]]],"id":154},{"properties":{"cd_mun_ibge":"2414159"},"type":"MultiPolygon","arcs":[[[428,429,430]]],"id":155},{"properties":{"cd_mun_ibge":"2414209"},"type":"MultiPolygon","arcs":[[[431,-484,432,433,434,435,436]]],"id":156},{"properties":{"cd_mun_ibge":"2414308"},"type":"MultiPolygon","arcs":[[[437,438,439,440]]],"id":157},{"properties":{"cd_mun_ibge":"2414407"},"type":"MultiPolygon","arcs":[[[441,442,443,444,445]]],"id":158},{"properties":{"cd_mun_ibge":"2414456"},"type":"MultiPolygon","arcs":[[[446,447,448,449]]],"id":159},{"properties":{"cd_mun_ibge":"2414506"},"type":"MultiPolygon","arcs":[[[-479,450,451,452,453,454,455,456,457]]],"id":160},{"properties":{"cd_mun_ibge":"2414605"},"type":"MultiPolygon","arcs":[[[458,459,460,461,462,463]]],"id":161},{"properties":{"cd_mun_ibge":"2414704"},"type":"MultiPolygon","arcs":[[[464,465,466,467,468,469]]],"id":162},{"properties":{"cd_mun_ibge":"2414753"},"type":"MultiPolygon","arcs":[[[470,471,472,473]]],"id":163},{"properties":{"cd_mun_ibge":"2414803"},"type":"MultiPolygon","arcs":[[[474,475,476,477]]],"id":164},{"properties":{"cd_mun_ibge":"2414902"},"type":"MultiPolygon","arcs":[[[478,479,480,481]]],"id":165},{"properties":{"cd_mun_ibge":"2415008"},"type":"MultiPolygon","arcs":[[[482,483]]],"id":166}],"type":"GeometryCollection"}},"bbox":[-38.5815419981905,-6.9827348,-34.96845761364811,-4.8163592],"transform":{"scale":[3.613120515747547e-05,2.16639726397264e-05],"translate":[-38.5815419981905,-6.9827348]},"arcs":[[[57489,27524],[-679,-2626],[20,-1659]],[[47636,71104],[608,1781]],[[20435,29987],[247,-429],[-272,-552],[71,-401],[-506,-547],[-786,485],[0,-1621],[-368,-8],[-679,-991],[-449,-135],[-363,1193],[-350,-319],[-18,-628],[-288,-367],[-958,-34],[152,-220],[-325,-638],[200,-1028],[-398,-313],[-375,93],[122,603],[-279,879],[-679,-1061]],[[24149,37192],[-1112,-776],[-108,-951],[-623,-781],[392,-379],[-420,-292]],[[56576,72468],[-8320,949]],[[52102,67235],[3284,-121],[40,-2315],[172,-323],[2846,-574]],[[21692,35334],[169,-774],[417,-547]],[[19367,32757],[-2257,768]],[[14474,56679],[320,1135],[-726,308],[-435,-208],[193,2676],[1321,1522],[562,1973],[433,419],[229,1363],[1162,976],[427,1456],[859,153],[418,2583],[720,1715],[-105,1308],[183,998],[282,771],[959,1083]],[[39937,93925],[-162,517],[474,25],[566,640],[1835,-1285],[1070,993],[663,-126],[482,599],[1154,-1297],[1126,-193],[622,-998]],[[42532,99999],[19,-101],[-25,-12],[-20,98],[26,15]],[[38958,43146],[-563,-1],[-280,457],[-506,-185],[-254,672],[-519,78],[-605,-1376],[-778,252],[-974,-794],[-516,-878],[-674,62]],[[98244,31014],[225,-2260],[265,-460],[636,-70],[283,-1250],[346,-4100],[-274,-3],[-379,-657],[-1010,-186],[-808,-1028],[-1046,1390],[-471,-343]],[[21958,81404],[643,3674],[872,1799],[231,1385],[1314,764],[1032,5893],[4795,1869]],[[68696,87960],[1714,1186]],[[73270,58524],[-150,-837]],[[43673,12607],[-877,-1133]],[[63724,30701],[-439,1178]],[[98202,32143],[42,-1129]],[[98244,31014],[-1075,-1842],[226,-579],[-861,-725],[-218,-1015],[-373,-22],[-3,-450],[-463,161],[601,-1772],[-67,-2723]],[[96011,22047],[-302,-1142],[-619,-1058]],[[30835,56797],[551,-6944]],[[23463,49431],[358,7912],[364,886],[446,3141],[321,166],[105,686]],[[52636,18620],[876,2146],[475,301],[142,696],[1274,1770],[784,-515],[643,221]],[[56830,23239],[65,-1010],[1196,-848],[194,-1172],[865,-618],[224,-3227],[-362,186],[-309,-471],[-358,923],[-1057,923],[-357,-242],[105,-505]],[[50565,78936],[-574,-836],[-140,-876],[-846,-1604],[-46,-1091],[-780,-181],[77,-931]],[[48256,73417],[-12,-532]],[[48244,72885],[-499,133],[-1993,2176],[-2794,1294],[-604,1459]],[[92045,67664],[226,63],[-20,-1413],[615,-1613],[-26,-1435]],[[59156,43451],[-126,1381],[1054,-449],[442,381],[62,1071],[812,962],[-247,3384],[927,-542],[124,810]],[[63247,28265],[495,971],[-18,1465]],[[63724,30701],[179,483],[464,178],[268,55],[268,-455],[857,490],[1433,70]],[[68789,25966],[-10,-2]],[[6201,36067],[-11,-751]],[[47256,26037],[368,1380],[-346,419],[-359,1700],[-519,120],[81,1005],[-772,1820],[337,534],[190,1059],[433,238]],[[50576,30567],[416,-734],[-368,-806],[282,-1802],[-525,-3952],[-363,258]],[[60055,40553],[1891,288],[1319,-1118]],[[64340,38069],[-22,-1882],[-262,-1315],[234,-856],[-898,-1440],[-107,-697]],[[63285,31879],[-349,490],[-1384,-1315],[-1023,739],[-989,-3152],[-1925,189],[-126,-1306]],[[57489,27524],[-1053,626],[-609,2771],[-562,299],[-313,838],[-236,-99]],[[3198,39757],[698,1134],[-181,535],[1267,1467],[542,33],[-104,-549],[540,-1090],[521,351],[16,619],[200,-481]],[[94861,50079],[87,-2582],[220,-506],[391,-115],[219,-670]],[[6697,41776],[544,31],[418,-459],[828,977]],[[8413,37006],[-304,-317],[-621,531],[-1287,-1153]],[[6201,36067],[-207,1315]],[[6434,39664],[263,2112]],[[55946,6553],[-386,-770],[170,-801],[-1158,-2863],[-2143,502],[-867,-2621],[-708,691],[-620,1472],[1005,4592]],[[91592,28274],[28,-92]],[[89134,57894],[2109,4811],[1597,561]],[[92840,63266],[131,-759],[218,-66],[-46,-2140],[663,-1118],[-316,-1969]],[[27759,65137],[-2702,-2915]],[[25057,62222],[-2359,2632],[3275,7448]],[[55731,56552],[981,3075],[253,-4],[-14,-395],[4437,-354],[193,-462],[854,-192],[407,123],[132,524],[425,69],[332,-379],[147,225]],[[46669,34312],[-795,21],[-80,1071],[-840,1153]],[[50877,31168],[-301,-601]],[[50576,30567],[-518,1022],[-1199,-244],[-165,682],[-341,147],[-88,734],[-389,20],[-1207,1384]],[[21692,35334],[-2538,2326]],[[21604,38268],[-269,-666],[371,-1134],[-14,-1134]],[[68696,87960],[-1446,-8309]],[[62916,86809],[500,666],[1261,-389],[2749,45],[1270,829]],[[91219,35885],[1570,-1733],[1115,1311],[1072,-168]],[[95106,31560],[-6,-825],[-291,173],[-317,-409],[1,-1477],[-866,-244],[-1034,462],[-1001,-966]],[[91592,28274],[151,2338],[-524,5273]],[[27759,65137],[448,3661],[-2234,3504]],[[25973,72302],[-4697,4608]],[[21276,76910],[822,1004],[-242,1202],[246,1685],[-144,603]],[[21958,81404],[5676,-2711]],[[31536,64430],[-1415,927],[-2362,-220]],[[39937,93925],[-245,-1385],[449,-668],[-151,-583]],[[37656,96997],[1753,-2953],[528,-119]],[[60189,87797],[963,-392],[1132,96],[632,-692]],[[62916,86809],[-1,-414],[409,-166],[154,-478],[-27,-1413],[351,-2381],[13,-3797]],[[80962,58380],[668,164]],[[83851,59056],[1803,-837],[274,403],[440,-151],[390,-800]],[[47636,71104],[4447,-991],[19,-2878]],[[52102,67235],[-728,-2197],[-1270,-1485],[-6,-483],[428,-283],[138,-1123]],[[46608,63666],[422,1452],[-466,864],[-129,1096],[491,1675],[413,455],[-86,1162],[383,734]],[[41685,10552],[-1481,-547],[-686,-1560],[-1023,-1181],[-1216,34],[-568,626],[-61,1416],[-460,628],[278,1598]],[[46608,63666],[2260,-1807],[1796,-195]],[[50664,61664],[328,-421],[204,-1307],[805,-792]],[[46718,58710],[329,2752],[-439,2204]],[[19383,59343],[695,-2320],[-658,-320],[211,-5739],[-1132,-1149]],[[68779,25964],[-424,-422],[-884,188],[-2935,-556],[-38,1521],[-1220,455],[-31,1115]],[[63247,28265],[2080,-1496],[3452,-805]],[[63815,78160],[3435,1491]],[[67250,79651],[2473,-2162],[320,243]],[[27357,46197],[976,927],[658,1789],[165,300],[-112,-349],[1052,1384],[1290,-395]],[[31386,49853],[304,-3816],[990,1055],[708,90],[-20,-1273],[467,-828]],[[83329,41691],[361,1512]],[[77540,23055],[-4546,-449],[-583,399]],[[73270,58524],[-1008,26],[-1477,752],[-1067,1972]],[[73905,62457],[-344,-243],[-16,-689],[-481,-873],[206,-2128]],[[33220,25186],[-450,877],[10,602],[543,1649],[-16,1031],[321,989],[999,889],[372,1277],[1170,-128],[115,1372],[527,1165],[477,609],[905,349],[239,1045],[518,137],[479,1275]],[[45519,18697],[-401,340],[307,418],[-307,1800]],[[50384,21560],[331,104],[1263,-1144],[234,-909],[445,302],[-21,-1293]],[[73905,62457],[-2246,7657]],[[71659,70114],[-203,2205],[-350,783]],[[78457,62917],[-285,-381],[-436,382],[241,-859],[-1857,1271],[-903,-52],[-129,301],[-54,-747],[-359,-434],[-413,307],[-357,-248]],[[22278,34013],[445,-379],[-301,-876],[380,-817],[-1460,-41],[-376,-664],[256,-420],[-787,-829]],[[20435,29987],[-1595,682],[-201,1529],[728,559]],[[19367,32757],[965,859],[1453,-92],[493,489]],[[47774,43319],[-343,-194],[-54,-576],[-802,-1146],[-621,172],[-356,-319],[265,-1986],[625,-106],[212,-508],[57,-1446],[-337,-378],[-480,155],[-986,-430]],[[44954,36557],[-453,-81],[-815,-1347],[-1179,-102]],[[39878,37010],[388,1111],[-837,203]],[[39429,38324],[-262,-66],[-241,542],[230,1548],[-198,2798]],[[38958,43146],[321,1239]],[[42788,50391],[559,933],[253,1817],[798,825]],[[89441,34982],[292,1821]],[[90298,36548],[-194,-1722],[76,-1979],[-274,-1969],[-251,-67]],[[83413,35866],[479,269]],[[88570,38048],[-598,-2394],[-925,-1989]],[[73530,44872],[2492,2933]],[[60055,40553],[354,-648],[-701,-586],[-134,-501],[2,1344],[-856,-122],[-1201,-1021],[-159,714],[606,466],[-216,389],[-225,-210],[12,442],[-435,-178],[102,-283],[-206,7],[-226,-1022],[-469,-617],[-164,572],[-534,-31],[-162,-433],[-49,454],[-304,-379],[-235,677],[-629,-307]],[[56298,42765],[710,443],[2148,243]],[[59156,43451],[482,-2361],[188,112],[229,-649]],[[86845,38875],[-49,-626],[-2257,-2179],[-647,65]],[[83892,36135],[415,2672],[-174,2075],[277,251]],[[65271,71495],[1751,-11],[869,-1048]],[[69718,61274],[-1468,-7103],[86,-1524]],[[65245,49981],[-967,1702],[142,1479],[-852,-1304]],[[63568,51858],[310,6924]],[[63878,58782],[313,1357]],[[67747,35643],[-658,2055],[-1900,89]],[[21934,41167],[-197,-472],[-270,118],[-123,-743],[260,-1802]],[[21604,38268],[-80,464],[-295,-9],[-1368,1840]],[[3430,30144],[1355,1673]],[[6926,30188],[-146,-2098]],[[6580,24284],[-475,-247],[-78,386],[-274,-99],[-40,849],[-670,1274],[-739,-200],[-607,497],[-113,501],[-946,-289],[-98,1630],[869,1534]],[[91310,52295],[-379,-5005]],[[83994,42872],[-304,331]],[[83690,43203],[562,2359],[-504,2178],[-459,747]],[[84485,50818],[1149,2406],[440,-237]],[[60189,87797],[-659,-2418],[1729,-5433]],[[59275,74449],[-2097,-1494]],[[51644,87788],[2828,-620],[83,733],[807,-488],[1030,6],[265,819],[866,432],[810,-365],[683,150],[1173,-658]],[[6780,28090],[552,-445],[197,285],[948,-32],[-317,-619]],[[6475,24682],[305,3408]],[[14509,36328],[-172,-2672]],[[13332,30116],[-104,-1198],[-609,-507]],[[9496,27564],[10,708],[353,610],[-613,1074],[-5,2033]],[[20363,42736],[372,-1168],[-874,-1005]],[[19861,40563],[193,-829],[-289,-226],[-354,297],[278,-1162],[-535,-983]],[[19154,37660],[-482,-401],[363,902],[-207,183],[-234,-523],[-141,-68],[184,280],[-183,400],[346,50],[-213,390],[-423,-129],[143,-108],[-61,-888],[-126,456],[-174,-486],[-386,237]],[[90104,73924],[182,158],[253,-567],[47,-1094],[447,-594],[129,-1584],[413,-834],[360,-101],[110,-1644]],[[92045,67664],[-50,-634],[-717,1753],[-1255,114],[-812,948],[-1253,232],[-241,340],[-598,-540],[-568,-42],[-458,-738],[-855,-299]],[[33835,45081],[-653,-2807],[234,-141],[-127,-700]],[[33289,41433],[-411,-1120],[-1441,-130],[-367,-1514],[-665,-308],[-565,336],[14,-357],[-526,16]],[[28345,44625],[1179,-2241],[1614,-1483],[2697,4180]],[[92914,21284],[-219,-468],[-1168,-559],[-1846,243]],[[89373,36963],[-803,1085]],[[88570,38048],[-889,1202],[-836,-375]],[[86845,38875],[-604,874],[-960,437],[-871,947]],[[84410,41133],[-379,1662]],[[77723,23075],[-183,-20]],[[77540,23055],[-1887,1459],[23,579],[-202,212],[308,2620]],[[27634,78693],[2616,12049],[-240,270],[-33,671],[168,3322],[646,1164],[54,619]],[[30845,96788],[571,229]],[[35252,94033],[2742,-2126],[889,991],[276,-2070],[831,461]],[[39990,91289],[143,-1141],[-598,-860],[8,-1296],[426,-1333],[720,-891]],[[40281,77978],[-1290,-9097]],[[35617,69463],[-203,1591],[241,1209],[-286,900],[217,293],[-3604,3701],[-4348,1536]],[[91310,52295],[12,939]],[[91777,59024],[786,-487],[927,-1323]],[[93490,57214],[257,-550],[55,-1219],[363,-803],[32,-3218],[279,-644],[390,-14],[-5,-687]],[[94861,50079],[-612,-92],[-1155,1442],[-197,-578],[-493,747],[-1094,697]],[[94780,38524],[-511,-775],[-1239,-269]],[[92311,47478],[946,896],[812,-139],[1465,-2047],[244,18]],[[95778,46206],[408,-1163],[-52,-1984],[327,-341],[-42,-3806]],[[83664,25495],[3,371],[396,231]],[[90425,24609],[-744,-4109]],[[89681,20500],[-1351,1943],[-1427,406],[-28,386],[-112,-345],[-370,465],[-533,-463],[-1273,494],[-919,-775],[-633,408]],[[24039,49099],[1783,-1027]],[[45519,18697],[950,-1672],[262,-8],[21,-428],[603,-333],[114,-1163],[388,301],[989,-1401]],[[48338,11617],[-1893,-1041],[-1486,-1701],[123,707],[-499,316],[-191,2144],[-341,587],[-378,-22]],[[43673,12607],[658,3141],[-22,1128],[1210,1821]],[[9757,23052],[-762,6],[-891,-1034],[-147,748],[-497,24],[-455,1303],[-425,185]],[[6580,24284],[-105,398]],[[6475,24682],[1128,1013],[557,1584]],[[8160,27279],[788,-632],[154,-596]],[[38376,53499],[428,216],[-1270,1349],[133,3339]],[[40877,61231],[1385,-4134],[1674,-1197],[-1154,-5506]],[[76102,77394],[-3974,-1201],[-1022,-3091]],[[71106,73102],[-679,4515],[-384,115]],[[70043,77732],[1352,1968]],[[51459,15511],[678,1249],[794,431],[-295,1429]],[[52636,18620],[1199,-602],[1354,351],[1037,-1072],[810,-119]],[[57036,17178],[-738,-3903],[-317,-645],[406,-1019],[455,-173],[698,-1047],[-81,-2363],[-1076,-1576],[-437,101]],[[55946,6553],[-340,695],[-68,899],[-1013,299],[-1307,-1240],[-484,433],[-520,-753],[-441,806],[-418,-23]],[[90104,73924],[-1325,-1644],[-383,-1648],[-373,707],[-347,35],[-1879,-779]],[[88544,79057],[415,-1068],[420,-3107],[725,-958]],[[80589,26178],[3075,-683]],[[83664,25495],[-629,-2476]],[[83035,23019],[-520,1082],[-462,-93],[-1198,801],[-125,-216]],[[87476,32750],[437,448],[105,837],[1196,-204]],[[24149,37192],[591,3125]],[[25161,43150],[-57,1410],[485,1173],[233,2339]],[[25822,48072],[1535,-1875]],[[27357,46197],[988,-1572]],[[28345,44625],[-553,-831],[1536,-5438]],[[29328,38356],[-400,-48],[-101,-605],[-572,65],[-248,420],[-839,-858],[-1067,-269],[-228,-441],[-1361,98],[-363,474]],[[77618,58454],[3344,-74]],[[80962,58380],[485,-3326]],[[9201,37802],[-13,1286],[-482,1098],[156,1721],[-375,418]],[[8487,42325],[618,1048],[11,1521]],[[10852,43226],[1156,-2298],[2876,-1381]],[[14942,37557],[-367,373],[-66,-1602]],[[14509,36328],[-1988,918],[-1121,-841]],[[76103,81828],[-3330,-1263]],[[73988,88777],[3248,-828]],[[67891,70436],[1806,2373],[986,-1839],[976,-856]],[[71659,70114],[-1941,-8840]],[[69718,61274],[-2231,2944],[-15,1135],[-783,1027],[860,2051],[342,2005]],[[65271,71495],[1204,-2016],[-2284,-9340]],[[64191,60139],[-1237,1367],[-4510,2396]],[[58444,63902],[831,10547]],[[59275,74449],[702,1483],[920,1056],[25,2013],[337,945]],[[61259,79946],[2556,-1786]],[[63815,78160],[1456,-6665]],[[90425,24609],[389,1419],[-317,386],[60,341]],[[90557,26755],[1063,1427]],[[91620,28182],[401,-817],[694,-608],[68,-798],[1140,252],[208,-814],[250,93],[709,-5643]],[[95090,19847],[-677,-260],[-808,390],[-519,1447],[-172,-140]],[[92914,21284],[-1409,1879],[-77,1460],[-1003,-14]],[[51269,83443],[4749,-2114],[620,-2022],[-193,-1702],[757,-18],[-24,-4632]],[[57178,72955],[-602,-487]],[[56576,72468],[-499,825],[-3015,1050],[-2497,4593]],[[50565,78936],[800,491],[98,362],[-98,1141],[286,691],[-382,1822]],[[17110,33525],[-569,-2501],[-1433,-506],[-216,47],[0,373],[-865,-70],[-406,-141],[13,-742],[-302,131]],[[13332,30116],[1005,3540]],[[14337,33656],[2773,-131]],[[78457,62917],[48,7451]],[[81639,58546],[-9,-2]],[[81630,58544],[-1801,2255],[-339,1353],[-915,74],[-118,691]],[[15852,40914],[-48,366],[-408,212],[-224,1102],[-958,-744],[-58,433],[435,1023],[-599,81],[3,326],[-170,-648],[-87,521],[381,485],[-424,601]],[[17357,43999],[-736,-2124]],[[46311,91993],[251,577],[1205,230]],[[47767,92800],[1564,-2995],[2313,-2017]],[[51644,87788],[-993,-688],[318,-501],[626,-225],[-59,-364],[-303,44],[-4,-673],[253,-108],[-213,-1830]],[[51269,83443],[-538,1063],[-1341,-1044],[-2924,1149],[-759,864]],[[76361,41985],[660,1412]],[[82828,40894],[-1377,-1880],[-420,-1831],[-786,417],[-1085,-229]],[[81810,68800],[-1601,1334],[-1704,234]],[[78505,70368],[-535,308]],[[87542,76158],[-1745,-5563]],[[85797,70595],[-559,-1797]],[[8568,35087],[144,1774],[-299,145]],[[8413,37006],[788,796]],[[9201,37802],[1160,380],[1070,-892],[188,-456],[-219,-429]],[[11400,36405],[-672,-1224],[-1528,-1324]],[[22399,45278],[872,-524],[160,-916],[728,-754],[1002,66]],[[25161,43150],[-421,-2833]],[[24740,40317],[-648,-993],[-862,419],[-295,1128],[-262,208],[142,226],[-558,929]],[[18499,49815],[451,-1674]],[[16571,46817],[-288,-474],[-557,676],[307,-867],[-324,22],[-66,319],[-275,-717]],[[17451,51663],[944,500],[104,-2348]],[[8568,35087],[632,-1230]],[[9200,33857],[-259,-1216],[300,-652]],[[9241,31989],[-247,397],[-1363,21],[-78,-429],[-645,-622],[18,-1168]],[[6926,30188],[-1751,-755],[-53,1220],[-337,1164]],[[4785,31817],[271,397],[-91,413],[633,609],[592,2080]],[[6190,35316],[1559,-1092],[539,62],[280,801]],[[73120,57687],[4498,767]],[[77618,58454],[-68,-4560],[-477,-1759]],[[75606,49269],[-36,94]],[[73510,54583],[-360,254],[405,1368],[-435,1482]],[[15699,52098],[278,-128]],[[11570,48183],[-15,528],[1082,1839],[293,3017],[1544,3112]],[[37656,96997],[-1328,-1397],[-38,-1564],[-1038,-3]],[[35252,94033],[-1036,489],[-548,1273],[-1721,-187],[-531,1409]],[[31416,97017],[5364,2289],[876,-2309]],[[71064,52969],[1060,1872],[945,-904],[437,311],[4,335]],[[73510,54583],[2060,-5220]],[[75570,49363],[-595,567],[-398,-379],[-430,606],[-293,-305],[-86,438],[-84,-707],[-1313,336]],[[67590,30141],[-397,1381]],[[67193,31522],[554,4121]],[[67747,35643],[1547,666],[-69,4345]],[[75032,28617],[-1014,469],[-551,-936],[-1050,-688],[-13,-3839]],[[63568,51858],[-994,-290],[-370,-1119]],[[62204,50449],[12,813],[-958,-114],[-540,1050],[-750,-300],[-331,-2135],[-1335,-1011],[-1809,-2916],[-195,-3071]],[[56298,42765],[-2527,-1511]],[[51525,40966],[-211,452],[211,624],[-304,708],[-329,67],[-187,-348],[-903,582],[-164,494],[-910,-670],[-420,69],[33,503],[-567,-128]],[[47774,43319],[203,372],[-182,505],[158,690],[-270,1189],[-299,548],[-671,-104]],[[49591,56664],[379,-390],[570,213],[380,1059],[1081,1598]],[[52001,59144],[97,261],[677,-475],[851,-2439],[2105,61]],[[55731,56552],[485,-544],[1141,620],[3320,-1820],[909,-2477],[1982,-473]],[[51459,15511],[-331,-665],[494,-245],[269,-624],[-268,-1217],[407,16],[-267,-1352],[173,-420],[-726,-2206],[145,-1129]],[[51355,7669],[-116,-914]],[[51239,6755],[-1086,-109],[-91,2386],[-1724,2585]],[[48338,11617],[-90,1143],[-345,770],[224,692],[719,-229]],[[48846,13993],[843,534],[592,-54],[565,790],[613,248]],[[84063,26097],[-299,1216],[-1162,239],[-513,1658],[-766,1116]],[[86159,34711],[888,-1046]],[[87047,33665],[429,-915]],[[87476,32750],[-123,-2129],[1021,-161]],[[87800,27752],[-1050,-1119],[-6,-400],[-1122,447],[-1559,-583]],[[72773,80565],[-1378,-865]],[[71395,79700],[-1771,1015],[332,1445],[329,5494],[235,461],[-275,444],[165,587]],[[70410,89146],[1618,458],[1960,-827]],[[73988,88777],[-1215,-8212]],[[68789,25966],[-1199,4175]],[[67590,30141],[1720,1211],[619,-249],[584,443],[1891,-7923]],[[72404,23623],[7,-618]],[[72411,23005],[-343,-210],[-767,362],[-220,1201],[-1050,1054],[-291,1014],[-332,-214],[-173,447],[-446,-693]],[[39878,37010],[318,-535],[-68,-749],[418,119],[967,-1590],[320,146],[197,889],[477,-263]],[[42507,35027],[-987,-3158],[166,-698],[-179,-2420],[237,-2020],[-1869,-1123],[12,-947],[-1331,437]],[[36551,26699],[1145,1673],[-10,6344],[1575,1353],[617,941]],[[10852,43226],[-720,1024],[-1016,644]],[[9116,44894],[1277,2114],[621,652],[266,-113],[290,636]],[[11570,48183],[721,116],[440,-436]],[[12925,47248],[-869,-626],[-541,-1281],[68,-402],[-565,-303],[-166,-1410]],[[86074,52987],[684,4684]],[[86758,57671],[1022,-205],[1354,428]],[[89134,57894],[587,-448],[736,12],[726,740],[304,970],[290,-144]],[[91777,59024],[-707,-1242],[82,-1289],[1122,-1079],[-221,-1052],[-667,-641],[-64,-487]],[[91322,53234],[-529,-472],[-3622,-256],[-1097,481]],[[37729,16756],[1201,268],[679,-564],[517,-1220],[302,-343],[315,147],[182,-1288],[550,-286],[-41,-395],[504,-307],[182,-674],[676,-620]],[[42796,11474],[-1111,-922]],[[41685,10552],[-513,1407],[-1575,-605],[-1480,-1153],[-1649,1365]],[[36468,11566],[-727,883],[179,883],[-847,228]],[[88790,45945],[2141,1345]],[[90931,47290],[1258,-178],[122,366]],[[92311,47478],[300,115],[141,-1021],[-201,-4360],[263,-240],[55,-1531],[-235,237],[26,-651],[370,-2547]],[[93030,37480],[-2154,437],[343,-2032]],[[91219,35885],[-921,663]],[[90298,36548],[-565,255]],[[89733,36803],[-360,160]],[[89373,36963],[728,1899],[96,1448],[669,1988],[-687,838],[-1159,-337]],[[81323,30326],[-714,752],[-25,-1811],[-362,-434]],[[77962,26040],[-243,506],[-1937,1379]],[[75782,27925],[-693,-296],[-57,988]],[[78627,36930],[2140,-702],[93,-1123]],[[45118,21255],[-314,568],[138,844],[2314,3370]],[[47256,26037],[747,-527],[-67,-641],[767,344],[518,-1249],[820,-134],[-23,-299]],[[50018,23531],[366,-1971]],[[50384,21560],[-2075,-1061],[-1833,998],[-524,-340],[-498,510],[-336,-412]],[[309,31840],[-254,615],[696,749],[237,830],[467,256],[256,777],[-265,429],[58,940],[716,113],[16,520],[750,1194],[212,1494]],[[3198,39757],[1583,-2605],[552,685],[403,-216],[698,2043]],[[6434,39664],[-506,-1846],[66,-436]],[[5994,37382],[-1811,-2934],[-501,674],[-383,-441],[-210,-983],[-321,31],[-184,-1435],[189,-982]],[[76102,77394],[-231,3300],[232,1134]],[[76103,81828],[1133,6121]],[[77236,87949],[4205,-1944],[607,256]],[[77073,52135],[1513,-877],[574,166],[100,370],[956,-384]],[[77584,44630],[-1562,3175]],[[76022,47805],[-416,1464]],[[75606,49269],[473,303],[994,2563]],[[84485,50818],[-1196,-2331]],[[83289,48487],[-2158,-2037]],[[80627,46106],[-528,2991],[117,2313]],[[80216,51410],[424,3447],[807,197]],[[81447,55054],[1224,-3575],[1814,-661]],[[49591,56664],[584,-1748],[-223,-469],[87,-2670],[-1231,-2405],[-2095,-2853]],[[46713,46519],[-360,-24],[-224,455],[-602,-127],[-385,1751],[-625,813],[1004,2167],[-809,903],[-314,1509]],[[44398,53966],[-75,1374],[415,476],[99,971],[1881,1923]],[[46718,58710],[883,-684],[345,70],[1278,-1522],[367,90]],[[71064,52969],[1307,-3050]],[[72371,49919],[110,-2887],[-594,-1576],[203,-758],[-1522,-2538]],[[70568,42160],[-1343,-1506]],[[69225,40654],[-158,246],[-839,-358],[-21,587],[-318,68],[-949,-749],[-300,-705],[-1373,-864],[-78,-1092]],[[65189,37787],[-849,282]],[[64340,38069],[-1075,1654]],[[63265,39723],[-180,314],[577,3293],[1583,6651]],[[65245,49981],[312,1210],[445,-433],[465,1368],[654,182],[561,-665],[506,226],[148,778]],[[68336,52647],[357,567],[945,-905],[45,-426],[1020,1073],[361,13]],[[54716,31959],[-301,-135],[-291,343],[-128,801],[-884,-462],[-527,403],[-775,-331],[-188,-1109],[-745,-301]],[[50877,31168],[1096,4004]],[[53369,40200],[402,1054]],[[53771,41254],[455,-1974]],[[54226,39280],[-156,-1088],[339,-891],[-88,-818],[526,-1027],[-193,-697],[414,-719],[-413,-1525],[61,-556]],[[77021,43397],[563,1233]],[[77584,44630],[3043,1476]],[[80627,46106],[504,344]],[[81131,46450],[75,-1828],[2123,-2931]],[[83329,41691],[-501,-797]],[[82828,40894],[-5337,2667],[-470,-164]],[[94780,38524],[-146,558],[661,-285],[186,255],[114,-428],[455,526],[369,-238]],[[96419,38912],[109,-2017]],[[96060,36733],[-982,1067],[-5,510],[-293,214]],[[80730,24593],[-479,93],[-697,-997],[-1831,-614]],[[77723,23075],[-81,1470],[270,336],[50,1159]],[[77962,26040],[2260,2793]],[[80222,28833],[53,-1522],[314,-1133]],[[80589,26178],[141,-1585]],[[46311,91993],[-12,-4207],[-1214,-11],[-624,-1050],[0,-1236],[1246,-14]],[[45707,85475],[57,-7513],[-3410,-15]],[[42354,77947],[-2073,31]],[[40281,77978],[-822,-22],[-18,5873],[1257,5],[157,1563],[-166,371]],[[40689,85768],[-9,1287],[1686,9],[-4,1699],[623,4],[-5,795],[479,3],[-3,944],[1263,4],[-5,1660],[1597,-180]],[[37384,19077],[345,-2321]],[[37729,16756],[-916,-1253],[-1391,-247],[-349,-1696]],[[35073,13560],[-786,-567],[-1789,187],[-2141,-592],[513,2311],[-306,833],[67,3576],[-209,773],[488,694],[1258,-23],[534,631],[250,3077],[268,726]],[[33220,25186],[1738,-811]],[[86159,34711],[-15,-1978],[-943,-1112],[-622,638],[-856,-36],[-188,-520],[-1043,-261],[-235,-654],[-339,427],[-284,-117],[-311,-772]],[[81323,30326],[-629,3840],[166,939]],[[80860,35105],[1216,1139],[667,-650],[670,272]],[[83413,35866],[2746,-1155]],[[17560,37955],[-918,-1857],[-599,-484],[-567,79],[-659,1311],[125,553]],[[14942,37557],[-58,1990]],[[14884,39547],[968,1367]],[[15852,40914],[769,961]],[[16621,41875],[1106,-1093],[41,-1083],[-278,-1339],[254,-145],[-184,-260]],[[15699,52098],[-1225,4581]],[[14474,56679],[4909,2664]],[[19383,59343],[-790,-4019],[-1811,-1482],[-137,-779],[-287,189],[-659,-1154]],[[70568,42160],[2962,2712]],[[73530,44872],[2831,-2887]],[[76361,41985],[-19,-55]],[[73713,37848],[-1370,-398],[0,646],[230,164],[-752,400],[156,966],[-153,1200],[-1256,1334]],[[15368,45776],[-476,-793],[-461,96],[-111,416],[-84,-498],[-541,-325]],[[13695,44672],[-770,2576]],[[12925,47248],[-194,615]],[[12731,47863],[635,1173],[1143,858],[1468,2076]],[[15977,51970],[1474,-307]],[[17451,51663],[-991,-990],[-623,-1414],[-633,-437],[-71,-519],[-280,29],[515,-2556]],[[81639,58546],[-267,3924],[-473,1982],[-266,4159],[1177,189]],[[81810,68800],[765,211],[567,-522],[543,174],[615,-799],[938,934]],[[85238,68798],[-543,-3941],[258,-3341],[488,-736],[-1487,-1019],[-103,-705]],[[83851,59056],[-160,-821],[-2052,311]],[[79160,37371],[-533,-441]],[[78627,36930],[-430,-347],[-127,-512],[-201,219],[-111,-1134],[-511,-401],[167,-1674],[-415,-539],[171,-314],[-298,-1589],[-1039,-1781],[-801,-241]],[[75032,28617],[-1319,9231]],[[73713,37848],[2629,4082]],[[76342,41930],[68,-2539],[346,-475],[2104,-131],[300,-1414]],[[9102,26051],[394,1513]],[[9496,27564],[978,222],[408,879],[655,-1155],[1082,901]],[[12619,28411],[530,-519],[-109,-1090],[517,-608],[-175,-653],[227,-1225],[525,-368]],[[14134,23948],[-679,-1369],[-72,-734],[-528,-608],[-510,193],[-343,1246],[-1095,-356],[-362,504],[-788,228]],[[9757,23052],[-655,2999]],[[51973,35172],[-2299,1185],[1578,2092],[-49,1702],[-216,52],[538,763]],[[51525,40966],[1844,-766]],[[53369,40200],[-1310,-1546],[-183,-1987],[-245,-364],[342,-1131]],[[98202,32143],[-302,117]],[[95894,32357],[-788,-797]],[[95106,31560],[-282,1447],[152,2288]],[[94976,35295],[1084,1438]],[[96060,36733],[468,162]],[[96528,36895],[310,-248],[315,-1518],[793,-213],[184,-419],[72,-2354]],[[36551,26699],[1119,-1200],[886,-401]],[[38556,25098],[-491,-1426],[182,-2070],[-382,-585],[-96,-1476],[-385,-464]],[[37384,19077],[-2426,5298]],[[34958,24375],[1593,2324]],[[87542,76158],[-525,189],[-203,564],[-1549,-968],[-931,-59],[-1278,1774],[-145,-448],[-1546,-1128],[-2135,-2527],[-1260,-2879]],[[77970,70676],[-355,406],[-573,-848],[-451,-166],[-489,7326]],[[76102,77394],[1936,576],[1564,-22],[259,1049],[365,-277],[1474,3613],[348,3928]],[[82048,86261],[3546,-2003],[830,-1831],[1176,-1118],[944,-2252]],[[88544,79057],[-1002,-2899]],[[38376,53499],[1280,-1967],[3126,-1138]],[[42782,50394],[6,-3]],[[42788,50391],[-868,-4318],[-1710,1302],[-714,-1669],[-217,-1321]],[[39279,44385],[-2715,5198],[1812,3916]],[[18276,47218],[674,923]],[[18950,48141],[3671,2042],[842,-752]],[[23463,49431],[576,-332]],[[24039,49099],[-1585,-1572],[119,-1826],[-174,-423]],[[22399,45278],[-328,-1829],[186,-1215]],[[22257,42234],[-323,-1067]],[[21934,41167],[-1571,1569]],[[20363,42736],[-436,1201],[-985,1060],[-1018,168]],[[37667,58403],[-645,438],[-302,-472],[-1614,383],[-4271,-1955]],[[30835,56797],[701,7633]],[[31536,64430],[1654,5019],[2427,14]],[[35617,69463],[3374,-582]],[[38991,68881],[1886,-7650]],[[40877,61231],[-1998,-3114],[-239,323],[-500,-390],[-473,353]],[[90557,26755],[-757,324],[-367,-587],[-629,153],[-368,693],[-636,414]],[[87800,27752],[237,1846],[337,862]],[[88374,30460],[840,3371]],[[89214,33831],[227,1151]],[[89441,34982],[-485,-3462],[699,-709]],[[89655,30811],[-2,-2784],[904,-1272]],[[309,31840],[770,314],[1391,-422],[303,-420]],[[2773,31312],[657,-1168]],[[3430,30144],[-21,-24]],[[3409,30120],[-502,-167],[-800,-1047],[-753,684],[-343,-133],[-1,-424],[-493,-82],[-393,375],[-124,756],[7,685],[423,628],[-121,445]],[[84031,42795],[-37,77]],[[83994,42872],[4796,3073]],[[88790,45945],[88,-825],[-328,-762],[470,-1559]],[[89020,42799],[-396,-247],[-328,418],[-562,-90],[-420,349],[-150,-888],[-289,164],[-385,-764],[-999,181],[118,535],[-563,535],[-1015,-197]],[[18276,47218],[-352,-2053]],[[17924,45165],[-26,-596],[-231,340],[-310,-910]],[[17357,43999],[-310,947],[-265,-376],[-452,62],[508,1558],[-267,627]],[[16571,46817],[341,551],[1364,-150]],[[97900,32260],[-72,-580],[-457,-67],[109,-890],[-286,40],[396,-493],[-802,-599],[-912,283],[18,2403]],[[95894,32357],[356,528],[754,207],[896,-832]]]}