{"type":"Topology","objects":{"data":{"geometries":[{"properties":{"cd_mun_ibge":"2800100"},"type":"MultiPolygon","arcs":[[[0,-208,-11]]],"id":0},{"properties":{"cd_mun_ibge":"2800209"},"type":"MultiPolygon","arcs":[[[-207,-16,-61,-70,-14,-18,-29,-42,-12]]],"id":1},{"properties":{"cd_mun_ibge":"2800308"},"type":"MultiPolygon","arcs":[[[-47,-183,-96,-178,-5,1]]],"id":2},{"properties":{"cd_mun_ibge":"2800407"},"type":"MultiPolygon","arcs":[[[2,-163]],[[-155,-228]],[[160]],[[-226,-156]],[[-107,-7,-20,-158,-39]]],"id":3},{"properties":{"cd_mun_ibge":"2800506"},"type":"MultiPolygon","arcs":[[[-138,-56,-97,-181,-46,-9,-35,-63]]],"id":4},{"properties":{"cd_mun_ibge":"2800605"},"type":"MultiPolygon","arcs":[[[-119,3,4,-177]],[[5]]],"id":5},{"properties":{"cd_mun_ibge":"2800670"},"type":"MultiPolygon","arcs":[[[-38,-135,-55,-152,6,-109]]],"id":6},{"properties":{"cd_mun_ibge":"2800704"},"type":"MultiPolygon","arcs":[[[-31,7,-102]]],"id":7},{"properties":{"cd_mun_ibge":"2801009"},"type":"MultiPolygon","arcs":[[[-58,-36,8,-45,-53,-185]]],"id":8},{"properties":{"cd_mun_ibge":"2801108"},"type":"MultiPolygon","arcs":[[[-41,-95,9,10,11]]],"id":9},{"properties":{"cd_mun_ibge":"2801207"},"type":"MultiPolygon","arcs":[[[12,-122]]],"id":10},{"properties":{"cd_mun_ibge":"2801306"},"type":"MultiPolygon","arcs":[[[-91,-19,13,-73,-50,-146,-205]]],"id":11},{"properties":{"cd_mun_ibge":"2801405"},"type":"MultiPolygon","arcs":[[[-80,-79,-23,-111,14]]],"id":12},{"properties":{"cd_mun_ibge":"2801504"},"type":"MultiPolygon","arcs":[[[-147,-51,-114,-175,-25]]],"id":13},{"properties":{"cd_mun_ibge":"2801603"},"type":"MultiPolygon","arcs":[[[-62,15,-211,-133,-191]]],"id":14},{"properties":{"cd_mun_ibge":"2801702"},"type":"MultiPolygon","arcs":[[[-217,-40,-223,-32,16]]],"id":15},{"properties":{"cd_mun_ibge":"2801900"},"type":"MultiPolygon","arcs":[[[-22,-26,17,18,-90]]],"id":16},{"properties":{"cd_mun_ibge":"2802007"},"type":"MultiPolygon","arcs":[[[-87,-203,-150,-66,-140,-169]]],"id":17},{"properties":{"cd_mun_ibge":"2802106"},"type":"MultiPolygon","arcs":[[[19,-151,-49,20,-33,-159]]],"id":18},{"properties":{"cd_mun_ibge":"2802205"},"type":"MultiPolygon","arcs":[[[-85,-27,21,-89,-193]]],"id":19},{"properties":{"cd_mun_ibge":"2802304"},"type":"MultiPolygon","arcs":[[[-37,-60,-105,-112,22,-78,-144]]],"id":20},{"properties":{"cd_mun_ibge":"2802403"},"type":"MultiPolygon","arcs":[[[-44,-28,-83,-129,23,-93]]],"id":21},{"properties":{"cd_mun_ibge":"2802502"},"type":"MultiPolygon","arcs":[[[-174,-148,24]]],"id":22},{"properties":{"cd_mun_ibge":"2802601"},"type":"MultiPolygon","arcs":[[[25,26,-84,27,-43,28]]],"id":23},{"properties":{"cd_mun_ibge":"2802700"},"type":"MultiPolygon","arcs":[[[-101,-77,29,30]]],"id":24},{"properties":{"cd_mun_ibge":"2802809"},"type":"MultiPolygon","arcs":[[[31,-222,-160,32,33]]],"id":25},{"properties":{"cd_mun_ibge":"2802908"},"type":"MultiPolygon","arcs":[[[-68,-64,34,35,-57,36,-143]]],"id":26},{"properties":{"cd_mun_ibge":"2803005"},"type":"MultiPolygon","arcs":[[[-215,-136,37,-108,38,-157,-224,39,-220]]],"id":27},{"properties":{"cd_mun_ibge":"2803104"},"type":"MultiPolygon","arcs":[[[-92,40,41,42,43]]],"id":28},{"properties":{"cd_mun_ibge":"2803203"},"type":"MultiPolygon","arcs":[[[-154,-54,44,45,-180,46,47,48]]],"id":29},{"properties":{"cd_mun_ibge":"2803302"},"type":"MultiPolygon","arcs":[[[49,-72,-52,-115,50]]],"id":30},{"properties":{"cd_mun_ibge":"2803401"},"type":"MultiPolygon","arcs":[[[-116,51,-188,-132,-74,-99]]],"id":31},{"properties":{"cd_mun_ibge":"2803500"},"type":"MultiPolygon","arcs":[[[-199,-104,-59,-186,52,53,-153,54,-134]]],"id":32},{"properties":{"cd_mun_ibge":"2803609"},"type":"MultiPolygon","arcs":[[[-171,-98,55,-137,-65]]],"id":33},{"properties":{"cd_mun_ibge":"2803708"},"type":"MultiPolygon","arcs":[[[56,57,-184,58,-106,59]]],"id":34},{"properties":{"cd_mun_ibge":"2803807"},"type":"MultiPolygon","arcs":[[[-71,60,61,-190]]],"id":35},{"properties":{"cd_mun_ibge":"2803906"},"type":"MultiPolygon","arcs":[[[-67,-166,-139,62,63]]],"id":36},{"properties":{"cd_mun_ibge":"2804003"},"type":"MultiPolygon","arcs":[[[-149,-172,64,65]]],"id":37},{"properties":{"cd_mun_ibge":"2804102"},"type":"MultiPolygon","arcs":[[[-167,66,67,-142,-88]]],"id":38},{"properties":{"cd_mun_ibge":"2804201"},"type":"MultiPolygon","arcs":[[[68,-120,-126,-82]]],"id":39},{"properties":{"cd_mun_ibge":"2804300"},"type":"MultiPolygon","arcs":[[[69,70,-189,71,72]]],"id":40},{"properties":{"cd_mun_ibge":"2804409"},"type":"MultiPolygon","arcs":[[[73,-131,74,-164,75,76,-100]]],"id":41},{"properties":{"cd_mun_ibge":"2804458"},"type":"MultiPolygon","arcs":[[[-145,77,78,-86,-196]]],"id":42},{"properties":{"cd_mun_ibge":"2804508"},"type":"MultiPolygon","arcs":[[[79,80,81,-125,82,83,84,-192,85]]],"id":43},{"properties":{"cd_mun_ibge":"2804607"},"type":"MultiPolygon","arcs":[[[86,-168,87,-141,-194,88,89,90,-204]]],"id":44},{"properties":{"cd_mun_ibge":"2804706"},"type":"MultiPolygon","arcs":[[[91,92,93,94]]],"id":45},{"properties":{"cd_mun_ibge":"2804805"},"type":"MultiPolygon","arcs":[[[-179,95,-182,96,97]]],"id":46},{"properties":{"cd_mun_ibge":"2804904"},"type":"MultiPolygon","arcs":[[[98,99,100,101,102,-117]]],"id":47},{"properties":{"cd_mun_ibge":"2805000"},"type":"MultiPolygon","arcs":[[[103,-198,-113,104,105]]],"id":48},{"properties":{"cd_mun_ibge":"2805109"},"type":"MultiPolygon","arcs":[[[106,107,108]]],"id":49},{"properties":{"cd_mun_ibge":"2805208"},"type":"MultiPolygon","arcs":[[[109,110,111,112,-197]]],"id":50},{"properties":{"cd_mun_ibge":"2805307"},"type":"MultiPolygon","arcs":[[[-176,113,114,115,116,117,118]]],"id":51},{"properties":{"cd_mun_ibge":"2805406"},"type":"MultiPolygon","arcs":[[[119,120,121,122,-127]]],"id":52},{"properties":{"cd_mun_ibge":"2805505"},"type":"MultiPolygon","arcs":[[[-201,-212,123]]],"id":53},{"properties":{"cd_mun_ibge":"2805604"},"type":"MultiPolygon","arcs":[[[124,125,126,127,128]]],"id":54},{"properties":{"cd_mun_ibge":"2805703"},"type":"MultiPolygon","arcs":[[[-210,129,130,131,-187,132]]],"id":55},{"properties":{"cd_mun_ibge":"2805802"},"type":"MultiPolygon","arcs":[[[-214,-200,133,134,135]]],"id":56},{"properties":{"cd_mun_ibge":"2805901"},"type":"MultiPolygon","arcs":[[[136,137,138,-170,139]]],"id":57},{"properties":{"cd_mun_ibge":"2806008"},"type":"MultiPolygon","arcs":[[[-195,140,141,142,143,144]]],"id":58},{"properties":{"cd_mun_ibge":"2806107"},"type":"MultiPolygon","arcs":[[[145,146,147,-173,148,149,-206]]],"id":59},{"properties":{"cd_mun_ibge":"2806206"},"type":"MultiPolygon","arcs":[[[150,151,152,153]]],"id":60},{"properties":{"cd_mun_ibge":"2806305"},"type":"MultiPolygon","arcs":[[[-221,154,-227,155,-225,156,157,158,159],[160],[161,162]]],"id":61},{"properties":{"cd_mun_ibge":"2806404"},"type":"MultiPolygon","arcs":[[[163,164]]],"id":62},{"properties":{"cd_mun_ibge":"2806503"},"type":"MultiPolygon","arcs":[[[165,166,167,168,169]]],"id":63},{"properties":{"cd_mun_ibge":"2806602"},"type":"MultiPolygon","arcs":[[[170,171,172,173,174,175,176,177,178]]],"id":64},{"properties":{"cd_mun_ibge":"2806701"},"type":"MultiPolygon","arcs":[[[179,180,181,182]]],"id":65},{"properties":{"cd_mun_ibge":"2806800"},"type":"MultiPolygon","arcs":[[[183,184,185]]],"id":66},{"properties":{"cd_mun_ibge":"2806909"},"type":"MultiPolygon","arcs":[[[186,187,188,189,190]]],"id":67},{"properties":{"cd_mun_ibge":"2807006"},"type":"MultiPolygon","arcs":[[[191,192,193,194,195]]],"id":68},{"properties":{"cd_mun_ibge":"2807105"},"type":"MultiPolygon","arcs":[[[196,197,198,199,-213,200,201]]],"id":69},{"properties":{"cd_mun_ibge":"2807204"},"type":"MultiPolygon","arcs":[[[202,203,204,205]]],"id":70},{"properties":{"cd_mun_ibge":"2807303"},"type":"MultiPolygon","arcs":[[[206,207,208,209,210]]],"id":71},{"properties":{"cd_mun_ibge":"2807402"},"type":"MultiPolygon","arcs":[[[211,212,213,214,-219,215]]],"id":72},{"properties":{"cd_mun_ibge":"2807501"},"type":"MultiPolygon","arcs":[[[216,217,218,219]]],"id":73},{"properties":{"cd_mun_ibge":"2807600"},"type":"MultiPolygon","arcs":[[[220,221,222,223,224,225,226,227]]],"id":74}],"type":"GeometryCollection"}},"bbox":[-38.24500345278986,-11.568462279171278,-36.3959408,-9.5150299],"transform":{"scale":[1.8490811436012974e-05,2.0534529137004154e-05],"translate":[-38.24500345278986,-11.568462279171278]},"arcs":[[[71767,70309],[354,-686],[1561,-422]],[[65459,29763],[-41,-1098],[-4887,-6001],[-1556,-2851]],[[32966,11078],[6,-2]],[[75295,40139],[-5426,-5225],[-4410,-5151]],[[65459,29763],[-532,2461],[251,1104]],[[71798,35267],[-62,-96],[-51,-18],[150,226],[-37,-112]],[[37794,19606],[-2724,-1835]],[[94944,55708],[1423,781],[797,-368],[1121,-851],[1714,-3085],[-695,-771],[-4186,-1153]],[[45582,36207],[-55,-38]],[[70123,72993],[145,-866],[797,-521],[702,-1297]],[[71767,70309],[-904,197],[-472,-5205]],[[70391,65301],[-961,-396],[-563,1516],[-1255,1312],[-1195,-653],[-7219,1358]],[[18547,80330],[-318,398],[-1574,-1411],[-995,-160],[-1081,306],[-473,918],[-681,-38],[-364,640],[504,201],[4,1007],[-1075,1142],[634,9],[368,535],[-412,355],[168,1192],[-1004,592],[-84,1198],[-674,355],[-676,3546],[581,523],[112,1268],[1258,566],[-1526,1023],[-997,-202],[166,1311],[-495,700],[1285,435],[37,621],[554,-226],[414,531],[-176,1086],[1045,1248],[755,-600],[3618,-998],[1621,392],[2970,-2118],[240,-565],[803,97],[1758,-2250],[2096,691],[1994,-251],[2219,-1377]],[[60569,58120],[321,329],[909,-64],[1943,1916],[770,-587],[753,764],[1088,-269]],[[23236,51189],[-305,1640],[-2088,2753],[370,94],[-19,921],[842,252],[-192,532],[432,235],[-321,318],[2165,751],[749,868],[2263,350],[-98,1208],[-1273,1187],[989,-14],[82,1226],[-910,606],[1006,672],[-1006,2047]],[[70915,62934],[-1008,469],[1262,2127]],[[33137,2451],[-613,-306],[-384,379],[-148,-627],[-582,-119],[156,-692],[-628,-1086],[-648,339],[-277,-254],[-546,225],[253,610],[-379,457],[-494,-622],[-820,-29],[-198,757],[-1024,-30],[-520,645],[-621,-322],[-211,342],[-2051,387],[-379,773],[601,215],[-1345,704]],[[58456,59836],[598,-314],[-334,-958],[816,-50],[492,424],[541,-818]],[[60569,58120],[-413,-406],[774,-213],[89,-639],[62,122],[449,-44],[-554,-489]],[[39033,13108],[934,1267],[-1078,929],[81,1332],[-695,332],[156,1458],[-1180,492],[543,688]],[[53261,13581],[-2137,-3609],[-678,-2888],[-1390,-966],[-938,-42],[-672,-727]],[[53201,64773],[-1711,-849],[1878,-605],[1006,-1449]],[[28249,51542],[2249,1422],[3049,3346],[2659,2026]],[[55095,81363],[3446,188],[2631,-1547],[2697,-2727],[1673,-290],[2021,737],[1640,-828],[645,-1626]],[[66719,43473],[1988,-459],[3132,-18]],[[58456,59836],[-525,11],[380,581],[-298,811],[-591,49],[-136,427],[-2225,293],[-1860,2765]],[[53201,64773],[-3826,1335]],[[50299,68868],[1599,-76],[354,-747],[1812,1174],[353,-574],[926,105],[73,1023]],[[59194,68436],[-207,-1180],[983,-444],[-805,-1914],[556,-512],[155,-1361],[-700,-712],[195,-730],[-499,-178],[386,-731],[-890,-435],[88,-403]],[[91017,56140],[1458,-712],[2469,280]],[[94944,55708],[287,-615],[-1472,-410],[-930,-1014],[-3077,-1622]],[[33137,2451],[-260,799],[-630,85],[126,637],[-341,211]],[[45228,7042],[2218,-1693]],[[47446,5349],[-4748,-3142],[-2664,-86],[-829,-1188],[-2001,-105],[-605,635],[-557,-670],[-402,526],[245,527],[-1883,-386],[-865,991]],[[49142,41231],[-1373,-813],[-2187,-4211]],[[45582,36207],[-1582,-309],[-959,2025],[494,387],[-640,612],[-180,2197],[-2468,1732]],[[38643,44932],[1136,953],[1890,2911]],[[29107,19194],[358,-418],[-237,-434]],[[31110,16029],[402,-633],[-61,-1834]],[[27845,8125],[-929,-481],[-129,547],[-634,-256]],[[63737,69737],[-4539,-1299]],[[59198,68438],[-4,-2]],[[59194,68436],[-1657,-549],[-523,811],[-224,-272],[-533,273],[73,500],[-914,574]],[[55416,69773],[2,647],[-352,118],[362,311],[-697,-7],[203,648],[752,-144],[-145,652],[697,-285],[-387,896],[693,-178],[829,375],[-120,341],[-623,-133],[726,690],[-439,148],[294,630],[-531,648],[899,-430],[389,-723],[2440,-385],[1370,306],[2199,-514]],[[42682,33442],[2845,2727]],[[45527,36169],[-19,-916],[1513,-393],[1843,202],[669,733],[580,-54]],[[58333,22552],[101,-2190],[541,-549]],[[58975,19813],[-5714,-6232]],[[53261,13581],[-3732,2577],[-128,1263],[-980,675],[994,2669],[-437,598],[205,660],[-2879,3081]],[[66722,45151],[1932,4854],[-121,557],[1159,315],[1154,3615]],[[71465,43419],[-491,1093],[-1406,144],[-555,999],[-2291,-504]],[[79159,48383],[-1531,60],[86,1207],[-1315,880],[-739,1676],[-515,-130],[-697,712],[-374,2271],[945,494],[25,411],[-1062,364],[-372,758],[-1033,-310]],[[40468,35844],[941,-402],[-188,-820],[657,300],[433,-385],[371,-1095]],[[42682,33442],[-1860,-1059],[-727,117],[2594,-3723]],[[38614,27867],[-2029,-1424],[182,-710],[-3097,-1336]],[[50151,35882],[3957,2594]],[[38643,44932],[1604,-2081]],[[40247,42851],[-1745,-24],[-927,-421],[-1962,817],[-463,-722]],[[33937,41672],[-177,290],[-1373,-164],[12,669],[-916,-1016]],[[32704,46933],[4419,-718],[1520,-1283]],[[66825,61659],[2878,601],[1212,674]],[[70915,62934],[-117,-1487],[1797,-854]],[[52111,41308],[-1881,-997],[329,545],[-1417,375]],[[49142,41231],[857,1444],[-456,1874]],[[62562,38242],[-799,409],[-1312,-535],[-273,853],[-960,-93],[-614,913]],[[58604,39789],[557,627],[-162,595],[622,1259],[1136,-110],[1671,2318]],[[51301,47113],[-1609,-1080],[-149,-1484]],[[49543,44549],[-1402,-158],[-783,1331],[-550,307],[-65,-378],[-415,107],[73,1531],[-407,735]],[[25170,69877],[-1213,1029],[1048,3353],[-439,521]],[[66353,60209],[472,1450]],[[66825,61659],[5062,-4436]],[[72577,56776],[-138,-684],[-1481,-466],[-112,-1134]],[[70846,54492],[-1609,583],[-1109,1682],[239,421],[-328,500],[500,554],[-998,771],[-148,1295],[-1040,-89]],[[83269,56874],[-1532,1808],[-298,2036],[-2063,606],[-984,1285]],[[83468,63213],[970,-16]],[[89651,61710],[836,-724],[771,-2629],[-241,-2217]],[[91017,56140],[-215,-810],[-876,-262],[-221,-677],[-492,123],[-256,-1423],[443,-187],[-445,-718]],[[37719,53892],[-582,865],[-931,3579]],[[36206,58336],[-126,2018],[-1816,2514],[802,1316]],[[35066,64184],[-533,535],[-251,-476],[-307,431],[-662,-52],[-2439,1716],[-1193,-58],[-379,772],[-953,207],[-1501,-544],[-926,120]],[[25922,66835],[-904,540],[430,1977],[-278,525]],[[25170,69877],[-276,1351],[402,376],[4308,-1473],[538,320],[929,-400],[2189,1347],[407,-201],[316,535],[667,-371],[833,649],[1433,-844],[278,-744],[229,467],[1090,-70],[2006,831],[254,-230],[512,619],[1819,-784],[630,167],[-203,514],[404,259],[-543,483],[807,-22],[-106,614],[915,-559],[-397,640]],[[44630,73377],[2144,-1085],[-252,-549],[2723,-1449],[-594,-1998],[458,-191],[1190,763]],[[50299,68868],[-263,-1229],[-898,-958],[237,-573]],[[49375,66108],[-1264,123],[-1545,-523],[-779,-1654],[471,-1014],[-331,-705]],[[45510,62138],[-256,124],[-171,-737],[-873,188],[-58,-329],[-372,616],[-1289,365],[-162,499],[-455,-633],[-705,-224],[78,653],[-1571,-760],[-1807,1388],[306,506],[-792,-28],[-26,-395],[-1490,1308],[-801,-495]],[[56121,46793],[171,-810]],[[53919,47437],[-820,830],[-2184,144],[-513,748],[175,584],[-581,331]],[[48878,57670],[-229,236],[1056,230],[1629,2656],[3040,1078]],[[54374,61870],[225,-393],[-746,-715],[513,-1895],[1771,-2147],[899,-99],[619,-572],[974,347],[877,-439],[634,673],[836,-179]],[[60976,56451],[493,-453],[-261,-717],[-1293,-996],[-83,-798]],[[63737,69737],[240,3647]],[[63977,73384],[1743,225],[1235,935],[2893,726]],[[69848,75270],[-170,-1505],[445,-772]],[[70123,72993],[-2299,-757],[-2617,-2542],[-429,621],[-1041,-578]],[[65497,34010],[-1003,360],[-826,-685],[-762,694],[-1128,-640],[325,-415],[-440,-166],[148,-1439]],[[50129,35855],[22,27]],[[50151,35882],[4450,-155],[1105,-648],[1939,-343],[290,638],[923,496],[2096,-7],[889,677],[1979,-239]],[[80443,47639],[688,1348],[-498,473],[141,554],[1666,698],[-206,483],[405,160],[-202,1330],[273,1955],[687,1274],[-412,853],[284,107]],[[83269,56874],[183,-250],[2893,293],[2682,-750],[-581,-549],[509,-3432]],[[88955,52186],[797,-139]],[[89752,52047],[4651,-647],[799,-761],[-705,-480],[621,102]],[[95118,50261],[-5421,-1801],[-4679,-2797]],[[31483,41451],[-376,461],[-413,-370]],[[30093,50478],[2611,-3545]],[[32704,46933],[-1529,-3400],[308,-2082]],[[35070,17771],[-2,-469],[-622,-172],[-2846,-106],[-490,-995]],[[31110,16029],[-1077,1740],[-805,573]],[[29228,18342],[708,1002],[628,-899],[510,325],[1733,-763],[2263,-236]],[[23724,47137],[-623,719],[-736,72],[302,162],[-830,1272],[1186,740],[213,1087]],[[23236,51189],[2279,515],[2277,-465],[457,303]],[[28249,51542],[1844,-1064]],[[30093,50478],[-368,-2439],[-508,-478],[-10,-732],[-738,-529],[141,-783],[507,36]],[[72751,42651],[-522,772],[-764,-4]],[[71465,43419],[7694,4964]],[[79159,48383],[1284,-744]],[[80443,47639],[4575,-1976]],[[85018,45663],[-6029,-2797],[-3694,-2727]],[[75295,40139],[-1086,146]],[[31301,75615],[-901,-612],[-1037,709],[-1185,-712],[-459,371],[-324,-400],[-2829,-191]],[[24566,74780],[-1904,-180],[62,639],[-1213,1421],[-1560,844],[-1080,1104],[15,592],[-920,243],[581,887]],[[18547,80330],[1976,1107],[-373,698],[155,1995],[809,2751],[2249,-507],[1435,-936],[6348,7582]],[[31146,93020],[813,-1363],[4130,-2458],[6043,-547]],[[3482,30470],[-1017,146],[-240,838],[-384,-421],[-881,740],[-629,2393],[405,1166],[-736,977],[573,523],[-67,852],[922,552],[500,1114],[-388,1637],[395,725],[1771,315],[2362,-751],[1281,401],[2235,-147],[1412,729],[530,-356],[-8,-929],[3222,-1464]],[[44630,73377],[-19,-26]],[[44611,73351],[-2702,1934],[-5036,1145],[-1263,-8],[-209,-858],[-1309,-471],[-2791,522]],[[31301,75615],[65,792],[1288,999],[1816,509],[7662,10737]],[[42132,88652],[2887,-659],[1025,-860],[2542,-582],[1289,-1391],[1204,-576],[827,46],[1261,-902],[768,-1936],[1160,-429]],[[55095,81363],[-422,-2959],[-2035,-236],[350,-1468],[-1003,217],[-86,-931],[-497,-393],[-634,814],[-1394,-799],[242,319],[-531,1123],[-200,-590],[-570,202],[29,-979],[-1536,214],[388,-540],[-401,15],[245,-212],[-516,-258],[126,-371],[-2020,-1154]],[[75717,67190],[1005,-1093],[1347,-93],[540,-687],[2303,-48],[1496,-1773],[1060,-283]],[[83468,63213],[-210,-656],[-1615,53],[-1306,1373],[-909,-561],[-568,172],[-1008,-1010],[540,25]],[[78392,62609],[-287,-583],[-964,-155]],[[75743,63627],[-219,1054],[-1039,588]],[[19969,34310],[539,-1621],[-506,-1122],[1563,-659],[610,-857],[-179,-1722],[624,-120],[253,-785],[574,104],[993,-747],[363,589],[540,27],[199,-603],[1004,726],[673,-353],[-111,1043],[1043,-237],[1741,-1571],[918,240],[1173,-1163],[591,-69],[449,-854],[647,-159]],[[33670,24397],[568,-605],[-639,-400],[-503,325],[-893,-1336],[153,-843],[-3249,-2344]],[[29107,19194],[-606,602],[-487,-144],[-563,754],[-1076,28],[-1050,828],[-904,-54]],[[58604,39789],[-2955,-674],[-302,336],[-1239,-975]],[[54108,38476],[-1516,1244],[-481,1588]],[[52111,41308],[1217,900],[548,-370],[1020,386],[228,-296],[-256,1616]],[[56568,43402],[178,-703],[-549,-612],[412,-777],[-469,-242],[817,-153],[686,527],[689,-449],[-255,-349],[609,-80],[-82,-775]],[[47873,52834],[2123,-2760]],[[49996,50074],[-1825,-156],[-2177,-1894]],[[45994,48024],[-1520,293],[-2007,-877],[-798,1356]],[[41669,48796],[-3950,5096]],[[37719,53892],[3950,93],[2891,2831],[578,-732]],[[63447,46429],[3275,-1278]],[[66722,45151],[-3,-1678]],[[66719,43473],[-276,-442],[719,-644],[2264,-289],[615,-425]],[[63621,39967],[365,1620],[558,643],[-384,496],[-1630,441],[-102,1311]],[[62428,44478],[-66,696]],[[46304,25104],[-2672,-1658],[441,-964],[-491,-349],[260,-304],[-1333,-1272],[-4715,-951]],[[37794,19606],[-446,610],[563,-6],[166,528],[-658,122],[1318,4199],[-123,2808]],[[38614,27867],[613,1748],[3462,-838]],[[42689,28777],[1579,-526],[94,-724],[669,-358],[1273,-2065]],[[31841,11105],[-467,378]],[[30807,11942],[75,1058],[-493,-718]],[[29901,12678],[1550,884]],[[31451,13562],[3255,-2583],[705,881],[3622,1248]],[[39033,13108],[3324,-578],[1030,806],[922,-659],[996,336],[1275,-1017],[302,-887],[-1525,-2570],[-129,-1497]],[[45228,7042],[-673,-310],[-1104,189],[-311,-777],[-1623,-379],[-972,406],[-642,1350],[-840,-395],[-1934,392],[-2375,1228]],[[32035,11608],[327,254],[-262,208],[-631,-543],[566,81]],[[32972,11076],[-6,2]],[[32966,11078],[-196,-705],[202,703]],[[89651,61710],[-3589,-964],[-1624,2451]],[[84438,63197],[1320,112],[981,745],[736,5],[2176,-2349]],[[54868,43544],[-864,642],[-2,653],[-673,-77],[-501,738],[-587,73],[-940,1540]],[[51301,47113],[970,703],[1648,-379]],[[53919,47437],[2373,-1454]],[[56292,45983],[1301,-828],[55,-551],[-573,-246],[-175,-995],[-332,39]],[[56568,43402],[-1700,142]],[[63822,36301],[-1214,1200],[-46,741]],[[62562,38242],[1102,730],[-43,995]],[[63621,39967],[2849,1274],[1781,-709],[1790,1141]],[[70041,41673],[1798,1323]],[[71839,42996],[-192,-754],[434,-194],[670,603]],[[72751,42651],[-35,-525],[1127,428],[227,-654],[283,81],[171,-1241],[-315,-455]],[[74209,40285],[-457,-91],[-982,-1435],[-1550,-858],[-499,142],[-60,-392],[-1122,-582],[-501,-1248],[-1039,-158],[237,-624],[-1754,-734],[-668,-1032],[-636,55]],[[65178,33328],[319,682]],[[65497,34010],[160,1466],[-802,686],[-1033,139]],[[58333,22552],[-2858,1405],[-430,1749],[-2841,557],[-417,728],[-367,-200],[-422,470],[-47,1065],[-1355,512],[251,314],[-498,315],[-141,945],[401,528],[504,4801]],[[50113,35741],[16,114]],[[50129,35855],[583,-33],[957,-915],[1222,226],[2568,-1465],[739,93],[458,-675],[429,150],[842,-663],[694,-1165],[812,-252],[2378,563]],[[61811,31719],[577,-1161],[-2582,-5936],[-970,379],[-854,-1047],[581,-840],[-230,-562]],[[33937,41672],[663,166],[-7,724],[557,-61]],[[35150,42501],[383,-1290],[1512,-1710],[-335,-511],[450,-669],[1617,-138],[-115,-313],[759,-397],[-459,-1002],[1506,-627]],[[40468,35844],[-1113,-629],[-1475,494],[-1606,-204],[-1945,1320],[-219,779],[778,852],[-1100,1464],[-716,13],[132,1069],[733,670]],[[75743,63627],[383,-1362],[1015,-394]],[[77141,61871],[-214,-302],[820,-1203],[-1723,-346],[-360,-503],[111,-1006],[-682,-760],[-1900,-166],[-616,-809]],[[72577,56776],[-690,447]],[[71887,57223],[812,2108],[-104,1262]],[[72595,60593],[3148,3034]],[[45510,62138],[-102,370],[519,-173]],[[45927,62335],[594,-485],[-374,-910],[725,58],[261,-687],[927,-175],[-186,-475],[552,-156],[273,-709],[-652,-366],[404,-139],[3,-627],[424,6]],[[48878,57670],[-379,-769],[736,4],[142,-855],[416,-133],[-453,-485],[667,-200],[689,453],[253,-529],[434,168],[249,-1664],[850,34],[-4054,-1255],[-555,395]],[[47873,52834],[-490,1592],[-2245,1658]],[[45138,56084],[-145,3448],[517,2606]],[[23724,47137],[322,445],[1340,-501],[464,-240],[42,-625],[2223,-611],[435,-644],[567,592]],[[29117,45553],[188,-394],[513,83],[-1157,-1435],[1641,-685],[-111,-403],[694,-554],[-564,-218],[373,-405]],[[30694,41542],[-61,-544],[-1564,-564],[-1366,-2884],[-3884,-1972],[-501,-1556],[-787,528],[-1754,-503],[-808,263]],[[19969,34310],[-3319,-833],[-107,-430],[-1827,462]],[[14861,36214],[-121,3296]],[[14740,39510],[1057,343],[401,-312],[1940,1996],[1977,718],[1382,74],[795,915],[1294,-361],[-279,880],[597,859],[-742,1012],[562,1503]],[[62362,45174],[-2218,-523],[-710,737],[143,546],[-840,-125],[455,338],[-1482,-225],[-1589,871]],[[56121,46793],[1973,1799],[-542,382],[2226,2716],[54,1797]],[[59832,53487],[1312,-601],[632,-1153],[16,-1190],[2022,5],[-443,-1276],[255,-795],[-458,-546],[630,-417],[-351,-1085]],[[63447,46429],[-218,-837],[-867,-418]],[[71169,65530],[-778,-229]],[[70391,65301],[3291,3900]],[[73682,69201],[682,16],[1353,-2027]],[[75717,67190],[-683,596],[-549,-2517]],[[74485,65269],[-3316,261]],[[3482,30470],[737,144],[-185,636],[539,1181],[1176,113],[512,426],[527,1135],[-385,827],[640,835],[2191,770],[2510,160],[3117,-483]],[[14861,36214],[-145,-2705]],[[14716,33509],[944,-2661],[1193,-1662],[-824,-782],[135,-533],[2706,-2184],[2842,-3310],[2709,-1169]],[[24421,21208],[-2869,-1354],[-1616,-1257],[482,-1692],[-1013,420],[-1006,-451],[-1698,-2329]],[[14211,10739],[-956,374],[677,429],[-607,452],[447,60],[-71,394],[-1249,1321],[676,15],[839,649],[-493,614],[661,545],[-545,421],[429,115],[-263,452],[713,312],[-214,1126],[415,233],[-1580,-7],[-1103,782],[-1272,-188],[-557,465],[-760,1390],[303,1001],[-1232,328],[-264,598],[983,1309],[-1477,1612],[23,1368],[-1003,428],[-507,-575],[-771,841],[-1594,764],[-697,1059],[320,1044]],[[26153,7935],[-558,-520],[-868,198],[34,-562],[-1190,-583],[-304,-1528],[-988,-743]],[[22279,4197],[-1684,750],[46,665],[824,496],[-1034,23],[-709,456],[770,297],[-881,117],[-907,-660],[-433,562],[100,898],[-1203,339],[-487,-1003],[-443,-103],[-33,547],[-573,289],[170,602],[-661,-371],[-6,498],[-883,267],[737,338],[-778,1535]],[[14211,10739],[837,1209],[-63,654],[949,153],[767,1790]],[[16701,14545],[1041,-945],[937,677],[1135,-650],[382,231],[455,-774],[735,90],[1104,-1084],[621,20],[147,-573],[1261,-768],[382,-1276],[758,-162],[494,-1396]],[[31841,11105],[2913,-2359]],[[34754,8746],[-2722,-4563]],[[32032,4183],[-1218,373],[215,918],[-1142,1553],[-1521,804],[-110,415],[-411,-121]],[[27845,8125],[2051,1743],[5,2810]],[[29901,12678],[488,-396]],[[30389,12282],[418,-340]],[[30807,11942],[567,-459]],[[31374,11483],[-593,-179],[38,-380],[1022,181]]]}