{"type":"Topology","objects":{"data":{"geometries":[{"properties":{"cd_mun_ibge":"1700251"},"type":"MultiPolygon","arcs":[[[-43,-6,-67,-63]]],"id":0},{"properties":{"cd_mun_ibge":"1700301"},"type":"MultiPolygon","arcs":[[[-145,-321,-154,-395,0]]],"id":1},{"properties":{"cd_mun_ibge":"1700350"},"type":"MultiPolygon","arcs":[[[-29,-209,-95,-70,-54]]],"id":2},{"properties":{"cd_mun_ibge":"1700400"},"type":"MultiPolygon","arcs":[[[-281,-248,-59,-50,-152,-223,-246]]],"id":3},{"properties":{"cd_mun_ibge":"1700707"},"type":"MultiPolygon","arcs":[[[-366,-207,-378,-75]]],"id":4},{"properties":{"cd_mun_ibge":"1701002"},"type":"MultiPolygon","arcs":[[[-416,1,-12,-325,-33,-125,-156,-3,-273]]],"id":5},{"properties":{"cd_mun_ibge":"1701051"},"type":"MultiPolygon","arcs":[[[2,-155,-323,-55,-274]]],"id":6},{"properties":{"cd_mun_ibge":"1701101"},"type":"MultiPolygon","arcs":[[[-164,-384,-118,-392,-286]]],"id":7},{"properties":{"cd_mun_ibge":"1701309"},"type":"MultiPolygon","arcs":[[[-10,-35,-9,-149,3]]],"id":8},{"properties":{"cd_mun_ibge":"1701903"},"type":"MultiPolygon","arcs":[[[-42,4,-51,-86,-65,5]]],"id":9},{"properties":{"cd_mun_ibge":"1702000"},"type":"MultiPolygon","arcs":[[[-298,-76,-376,6]]],"id":10},{"properties":{"cd_mun_ibge":"1702109"},"type":"MultiPolygon","arcs":[[[-21,-80,-181,-162,-161,-160,-199,7,-301,-150,8,-37,-227,-413]]],"id":11},{"properties":{"cd_mun_ibge":"1702158"},"type":"MultiPolygon","arcs":[[[-229,-36,9,10,-419]]],"id":12},{"properties":{"cd_mun_ibge":"1702208"},"type":"MultiPolygon","arcs":[[[-71,-347,-32,-16,-19,-326,11,12]]],"id":13},{"properties":{"cd_mun_ibge":"1702307"},"type":"MultiPolygon","arcs":[[[-23,-25,13,-197,-196,195,-202]]],"id":14},{"properties":{"cd_mun_ibge":"1702406"},"type":"MultiPolygon","arcs":[[[-194,-49,-373,-238,-369,-18,-119,-47,-170,14]]],"id":15},{"properties":{"cd_mun_ibge":"1702554"},"type":"MultiPolygon","arcs":[[[-20,15,-31,-40,-293,-259]]],"id":16},{"properties":{"cd_mun_ibge":"1702703"},"type":"MultiPolygon","arcs":[[[16,-120,17,-368]]],"id":17},{"properties":{"cd_mun_ibge":"1702901"},"type":"MultiPolygon","arcs":[[[-101,-327,18,19,-363]]],"id":18},{"properties":{"cd_mun_ibge":"1703008"},"type":"MultiPolygon","arcs":[[[-81,20,-412,-57,21]]],"id":19},{"properties":{"cd_mun_ibge":"1703057"},"type":"MultiPolygon","arcs":[[[-107,106,-106,-213,-26,22,-201,-159,-46,-28,-261,-108]]],"id":20},{"properties":{"cd_mun_ibge":"1703073"},"type":"MultiPolygon","arcs":[[[23,-90,-79]]],"id":21},{"properties":{"cd_mun_ibge":"1703107"},"type":"MultiPolygon","arcs":[[[-189,-188,-142,-64,-66,-135]]],"id":22},{"properties":{"cd_mun_ibge":"1703206"},"type":"MultiPolygon","arcs":[[[24,25,-212,-113,26]]],"id":23},{"properties":{"cd_mun_ibge":"1703305"},"type":"MultiPolygon","arcs":[[[-405,-306,-44,-204]]],"id":24},{"properties":{"cd_mun_ibge":"1703602"},"type":"MultiPolygon","arcs":[[[-178,-407,-262,27,-45]]],"id":25},{"properties":{"cd_mun_ibge":"1703701"},"type":"MultiPolygon","arcs":[[[-53,-307,-74,-251,-98,-313,-349,-210,28]]],"id":26},{"properties":{"cd_mun_ibge":"1703800"},"type":"MultiPolygon","arcs":[[[-346,29,-38,30,31]]],"id":27},{"properties":{"cd_mun_ibge":"1703826"},"type":"MultiPolygon","arcs":[[[-132,-126,32,-330]]],"id":28},{"properties":{"cd_mun_ibge":"1703842"},"type":"MultiPolygon","arcs":[[[-269,-92,33]]],"id":29},{"properties":{"cd_mun_ibge":"1703867"},"type":"MultiPolygon","arcs":[[[-77,-85,-68,-97]]],"id":30},{"properties":{"cd_mun_ibge":"1703883"},"type":"MultiPolygon","arcs":[[[34,35,-228,36]]],"id":31},{"properties":{"cd_mun_ibge":"1703891"},"type":"MultiPolygon","arcs":[[[37,38,-294,39]]],"id":32},{"properties":{"cd_mun_ibge":"1703909"},"type":"MultiPolygon","arcs":[[[40,41,42,-62,-127,-235]]],"id":33},{"properties":{"cd_mun_ibge":"1704105"},"type":"MultiPolygon","arcs":[[[-123,-288,-203,43,-305,-100,-272]]],"id":34},{"properties":{"cd_mun_ibge":"1704600"},"type":"MultiPolygon","arcs":[[[-237,-129,-61,-143,-186]]],"id":35},{"properties":{"cd_mun_ibge":"1705102"},"type":"MultiPolygon","arcs":[[[-151,-351,-316,-225]]],"id":36},{"properties":{"cd_mun_ibge":"1705508"},"type":"MultiPolygon","arcs":[[[44,45,-158,-179]]],"id":37},{"properties":{"cd_mun_ibge":"1705557"},"type":"MultiPolygon","arcs":[[[46,-122,47,-168]]],"id":38},{"properties":{"cd_mun_ibge":"1705607"},"type":"MultiPolygon","arcs":[[[48,-193,-153,49,-58,-374]]],"id":39},{"properties":{"cd_mun_ibge":"1706001"},"type":"MultiPolygon","arcs":[[[-87,50,51,-111,-216]]],"id":40},{"properties":{"cd_mun_ibge":"1706100"},"type":"MultiPolygon","arcs":[[[-163,-174,-73,-311,-117,-232]]],"id":41},{"properties":{"cd_mun_ibge":"1706258"},"type":"MultiPolygon","arcs":[[[-69,-308,52,53]]],"id":42},{"properties":{"cd_mun_ibge":"1706506"},"type":"MultiPolygon","arcs":[[[-226,-275,54,-147,55,56,-411]]],"id":43},{"properties":{"cd_mun_ibge":"1707009"},"type":"MultiPolygon","arcs":[[[57,58,-249,-279,59,-172,-239,-375]]],"id":44},{"properties":{"cd_mun_ibge":"1707108"},"type":"MultiPolygon","arcs":[[[60,-128,61,62,63,-144]]],"id":45},{"properties":{"cd_mun_ibge":"1707207"},"type":"MultiPolygon","arcs":[[[64,-88,-138,-136,65,66]]],"id":46},{"properties":{"cd_mun_ibge":"1707306"},"type":"MultiPolygon","arcs":[[[-94,67,-84,-114,-309,68,69]]],"id":47},{"properties":{"cd_mun_ibge":"1707405"},"type":"MultiPolygon","arcs":[[[-344,70,71]]],"id":48},{"properties":{"cd_mun_ibge":"1707553"},"type":"MultiPolygon","arcs":[[[72,-173,-252,73,-312]]],"id":49},{"properties":{"cd_mun_ibge":"1707652"},"type":"MultiPolygon","arcs":[[[-96,-367,74,-377,75,-297,-82,76]]],"id":50},{"properties":{"cd_mun_ibge":"1707702"},"type":"MultiPolygon","arcs":[[[77,78,-89,-182,79,80]]],"id":51},{"properties":{"cd_mun_ibge":"1708205"},"type":"MultiPolygon","arcs":[[[81,-296,82,-115,83,84]]],"id":52},{"properties":{"cd_mun_ibge":"1708254"},"type":"MultiPolygon","arcs":[[[-93,-402,-284,-140,-220]]],"id":53},{"properties":{"cd_mun_ibge":"1708304"},"type":"MultiPolygon","arcs":[[[85,86,-215,-222,-139,87]]],"id":54},{"properties":{"cd_mun_ibge":"1709005"},"type":"MultiPolygon","arcs":[[[-103,-176,88,89,90,91,-268,-99]]],"id":55},{"properties":{"cd_mun_ibge":"1709302"},"type":"MultiPolygon","arcs":[[[-109,-263,-410,-105,-302,-403,92,-219]]],"id":56},{"properties":{"cd_mun_ibge":"1709500"},"type":"MultiPolygon","arcs":[[[93,94,-208,-364,95,96]]],"id":57},{"properties":{"cd_mun_ibge":"1709807"},"type":"MultiPolygon","arcs":[[[-250,-354,-314,97]]],"id":58},{"properties":{"cd_mun_ibge":"1710508"},"type":"MultiPolygon","arcs":[[[-104,98,-267,99,-304]]],"id":59},{"properties":{"cd_mun_ibge":"1710706"},"type":"MultiPolygon","arcs":[[[-328,100,-362,-339,101,-133]]],"id":60},{"properties":{"cd_mun_ibge":"1710904"},"type":"MultiPolygon","arcs":[[[-177,102,103,-303,104,-409]]],"id":61},{"properties":{"cd_mun_ibge":"1711100"},"type":"MultiPolygon","arcs":[[[105,-107,106,107,-260,108,-218,-214]]],"id":62},{"properties":{"cd_mun_ibge":"1711506"},"type":"MultiPolygon","arcs":[[[-380,-206,-341,-183,109]]],"id":63},{"properties":{"cd_mun_ibge":"1711803"},"type":"MultiPolygon","arcs":[[[-211,110,111,112]]],"id":64},{"properties":{"cd_mun_ibge":"1711902"},"type":"MultiPolygon","arcs":[[[113,114,115,-233,116,-310]]],"id":65},{"properties":{"cd_mun_ibge":"1711951"},"type":"MultiPolygon","arcs":[[[-243,-318,-167]]],"id":66},{"properties":{"cd_mun_ibge":"1712009"},"type":"MultiPolygon","arcs":[[[-393,117,-383,-137]]],"id":67},{"properties":{"cd_mun_ibge":"1712157"},"type":"MultiPolygon","arcs":[[[118,119,120,121]]],"id":68},{"properties":{"cd_mun_ibge":"1712405"},"type":"MultiPolygon","arcs":[[[-334,-333,332,-332,-165,-289,122,-271,123]]],"id":69},{"properties":{"cd_mun_ibge":"1712454"},"type":"MultiPolygon","arcs":[[[124,125,-131,-397,-157]]],"id":70},{"properties":{"cd_mun_ibge":"1712504"},"type":"MultiPolygon","arcs":[[[126,127,128,-236]]],"id":71},{"properties":{"cd_mun_ibge":"1712702"},"type":"MultiPolygon","arcs":[[[129,-277,-245,-166,-336]]],"id":72},{"properties":{"cd_mun_ibge":"1712801"},"type":"MultiPolygon","arcs":[[[130,131,-329,132,133,-398]]],"id":73},{"properties":{"cd_mun_ibge":"1713205"},"type":"MultiPolygon","arcs":[[[-189,188,134,135,-141,-282,-394,136,-382,-256,-190]]],"id":74},{"properties":{"cd_mun_ibge":"1713304"},"type":"MultiPolygon","arcs":[[[137,138,-221,139,-283,140]]],"id":75},{"properties":{"cd_mun_ibge":"1713601"},"type":"MultiPolygon","arcs":[[[-257,-387,-320,-242,-356]]],"id":76},{"properties":{"cd_mun_ibge":"1713700"},"type":"MultiPolygon","arcs":[[[141,-187,142,143]]],"id":77},{"properties":{"cd_mun_ibge":"1713809"},"type":"MultiPolygon","arcs":[[[-322,144,145,146]]],"id":78},{"properties":{"cd_mun_ibge":"1713957"},"type":"MultiPolygon","arcs":[[[147,148,149,-300]]],"id":79},{"properties":{"cd_mun_ibge":"1714203"},"type":"MultiPolygon","arcs":[[[150,-224,151,152,-192,-352]]],"id":80},{"properties":{"cd_mun_ibge":"1714302"},"type":"MultiPolygon","arcs":[[[-396,153,-324,154,155,156]]],"id":81},{"properties":{"cd_mun_ibge":"1714880"},"type":"MultiPolygon","arcs":[[[157,158,-200,159,160,161,-180]]],"id":82},{"properties":{"cd_mun_ibge":"1715002"},"type":"MultiPolygon","arcs":[[[-254,-175,162,-231,-185,-266]]],"id":83},{"properties":{"cd_mun_ibge":"1715101"},"type":"MultiPolygon","arcs":[[[-385,163,-290,164,-331,165,-244,166,-317]]],"id":84},{"properties":{"cd_mun_ibge":"1715150"},"type":"MultiPolygon","arcs":[[[167,168,169]]],"id":85},{"properties":{"cd_mun_ibge":"1715259"},"type":"MultiPolygon","arcs":[[[170,-240,171]]],"id":86},{"properties":{"cd_mun_ibge":"1715507"},"type":"MultiPolygon","arcs":[[[172,173,174,-253]]],"id":87},{"properties":{"cd_mun_ibge":"1715705"},"type":"MultiPolygon","arcs":[[[175,176,-408,177,178,179,180,181]]],"id":88},{"properties":{"cd_mun_ibge":"1715754"},"type":"MultiPolygon","arcs":[[[182,-340,-191,183]]],"id":89},{"properties":{"cd_mun_ibge":"1716109"},"type":"MultiPolygon","arcs":[[[-255,-264,184,-230,185,186,187,188,189]]],"id":90},{"properties":{"cd_mun_ibge":"1716208"},"type":"MultiPolygon","arcs":[[[190,-343,-205,-353,191,192,193,194]]],"id":91},{"properties":{"cd_mun_ibge":"1716307"},"type":"MultiPolygon","arcs":[[[-196,195,196,197,198,199,200,201]]],"id":92},{"properties":{"cd_mun_ibge":"1716505"},"type":"MultiPolygon","arcs":[[[202,-287,-390,-285,-400,203]]],"id":93},{"properties":{"cd_mun_ibge":"1716604"},"type":"MultiPolygon","arcs":[[[204,-342,205,-379,206,-365,207,208,209,-348]]],"id":94},{"properties":{"cd_mun_ibge":"1716653"},"type":"MultiPolygon","arcs":[[[210,211,212,213,-217,214,215]]],"id":95},{"properties":{"cd_mun_ibge":"1716703"},"type":"MultiPolygon","arcs":[[[216,217,218,219,220,221]]],"id":96},{"properties":{"cd_mun_ibge":"1717008"},"type":"MultiPolygon","arcs":[[[-315,-358,-247,222,223,224]]],"id":97},{"properties":{"cd_mun_ibge":"1717206"},"type":"MultiPolygon","arcs":[[[-418,-276,225,-414,226,227,228]]],"id":98},{"properties":{"cd_mun_ibge":"1717503"},"type":"MultiPolygon","arcs":[[[229,230,231,232,233,234,235,236]]],"id":99},{"properties":{"cd_mun_ibge":"1717800"},"type":"MultiPolygon","arcs":[[[237,-372,238,239,240,-370]]],"id":100},{"properties":{"cd_mun_ibge":"1717909"},"type":"MultiPolygon","arcs":[[[-357,241,-319,242,243,244,245,246]]],"id":101},{"properties":{"cd_mun_ibge":"1718006"},"type":"MultiPolygon","arcs":[[[247,-280,248]]],"id":102},{"properties":{"cd_mun_ibge":"1718204"},"type":"MultiPolygon","arcs":[[[249,250,251,252,253,-265,254,255,-388,256,-355]]],"id":103},{"properties":{"cd_mun_ibge":"1718303"},"type":"MultiPolygon","arcs":[[[257,-337,-360,258,-292]]],"id":104},{"properties":{"cd_mun_ibge":"1718402"},"type":"MultiPolygon","arcs":[[[259,260,261,-406,262]]],"id":105},{"properties":{"cd_mun_ibge":"1718451"},"type":"MultiPolygon","arcs":[[[263,264,265]]],"id":106},{"properties":{"cd_mun_ibge":"1718501"},"type":"MultiPolygon","arcs":[[[266,267,268,269,270,271]]],"id":107},{"properties":{"cd_mun_ibge":"1718550"},"type":"MultiPolygon","arcs":[[[-417,272,273,274,275]]],"id":108},{"properties":{"cd_mun_ibge":"1718659"},"type":"MultiPolygon","arcs":[[[276,277,278,279,280]]],"id":109},{"properties":{"cd_mun_ibge":"1718709"},"type":"MultiPolygon","arcs":[[[281,282,283,-401,284,-389]]],"id":110},{"properties":{"cd_mun_ibge":"1718758"},"type":"MultiPolygon","arcs":[[[285,-391,286,287,288,289]]],"id":111},{"properties":{"cd_mun_ibge":"1718808"},"type":"MultiPolygon","arcs":[[[290,291,292,293]]],"id":112},{"properties":{"cd_mun_ibge":"1718840"},"type":"MultiPolygon","arcs":[[[294,295,296,297]]],"id":113},{"properties":{"cd_mun_ibge":"1718865"},"type":"MultiPolygon","arcs":[[[298,299,300]]],"id":114},{"properties":{"cd_mun_ibge":"1718881"},"type":"MultiPolygon","arcs":[[[-404,301,302,303,304,305]]],"id":115},{"properties":{"cd_mun_ibge":"1718899"},"type":"MultiPolygon","arcs":[[[306,307,308,309,310,311]]],"id":116},{"properties":{"cd_mun_ibge":"1718907"},"type":"MultiPolygon","arcs":[[[312,313,-359,314,315,-350]]],"id":117},{"properties":{"cd_mun_ibge":"1719004"},"type":"MultiPolygon","arcs":[[[316,317,318,319,-386]]],"id":118},{"properties":{"cd_mun_ibge":"1720002"},"type":"MultiPolygon","arcs":[[[320,321,322,323]]],"id":119},{"properties":{"cd_mun_ibge":"1720101"},"type":"MultiPolygon","arcs":[[[324,325,326,327,328,329]]],"id":120},{"properties":{"cd_mun_ibge":"1720150"},"type":"MultiPolygon","arcs":[[[330,331,-333,332,333,334,335]]],"id":121},{"properties":{"cd_mun_ibge":"1720200"},"type":"MultiPolygon","arcs":[[[336,337,338,-361]]],"id":122},{"properties":{"cd_mun_ibge":"1720259"},"type":"MultiPolygon","arcs":[[[339,340,341,342]]],"id":123},{"properties":{"cd_mun_ibge":"1720309"},"type":"MultiPolygon","arcs":[[[343,344,345,346]]],"id":124},{"properties":{"cd_mun_ibge":"1720499"},"type":"MultiPolygon","arcs":[[[347,348,349,350,351,352]]],"id":125},{"properties":{"cd_mun_ibge":"1720655"},"type":"MultiPolygon","arcs":[[[353,354,355,356,357,358]]],"id":126},{"properties":{"cd_mun_ibge":"1720804"},"type":"MultiPolygon","arcs":[[[359,360,361,362]]],"id":127},{"properties":{"cd_mun_ibge":"1720853"},"type":"MultiPolygon","arcs":[[[363,364,365,366]]],"id":128},{"properties":{"cd_mun_ibge":"1720903"},"type":"MultiPolygon","arcs":[[[367,368,369,370]]],"id":129},{"properties":{"cd_mun_ibge":"1720937"},"type":"MultiPolygon","arcs":[[[371,372,373,374]]],"id":130},{"properties":{"cd_mun_ibge":"1720978"},"type":"MultiPolygon","arcs":[[[375,376,377,378,379,380]]],"id":131},{"properties":{"cd_mun_ibge":"1721000"},"type":"MultiPolygon","arcs":[[[381,382,383,384,385,386,387]]],"id":132},{"properties":{"cd_mun_ibge":"1721109"},"type":"MultiPolygon","arcs":[[[388,389,390,391,392,393]]],"id":133},{"properties":{"cd_mun_ibge":"1721208"},"type":"MultiPolygon","arcs":[[[394,395,396,397,398]]],"id":134},{"properties":{"cd_mun_ibge":"1721257"},"type":"MultiPolygon","arcs":[[[399,400,401,402,403,404]]],"id":135},{"properties":{"cd_mun_ibge":"1721307"},"type":"MultiPolygon","arcs":[[[405,406,407,408,409]]],"id":136},{"properties":{"cd_mun_ibge":"1722081"},"type":"MultiPolygon","arcs":[[[410,411,412,413]]],"id":137},{"properties":{"cd_mun_ibge":"1722107"},"type":"MultiPolygon","arcs":[[[414,415,416,417,418]]],"id":138}],"type":"GeometryCollection"}},"bbox":[-50.742064,-13.4681748,-45.6992647,-5.1683805],"transform":{"scale":[5.0428497284972836e-05,8.299877298772988e-05],"translate":[-50.742064,-13.4681748]},"arcs":[[[65672,84888],[-79,-159],[350,-601],[-790,-634],[-170,-520]],[[46925,85823],[-109,197],[-712,362],[87,208],[-464,963],[23,220],[529,358],[1463,197],[739,320],[270,301],[-65,238],[-299,222],[-658,140],[9,379],[548,354],[1093,175],[378,154]],[[54832,84951],[288,658],[-121,388],[451,624]],[[37456,80954],[543,-67],[657,132],[468,157],[639,456],[997,157],[403,187]],[[17663,53066],[174,439],[970,577],[963,883],[1204,598],[1824,205],[2078,1819],[666,881],[875,427],[204,420]],[[26744,52022],[-137,-53],[115,-176],[-171,-212],[-493,-272],[-140,-223],[-344,-121],[-142,-466],[-1279,259],[-480,-214],[-1034,190],[-234,377],[-373,233],[-398,-33],[-230,84],[-271,265],[-164,-14],[-400,255],[-154,-181]],[[29833,7041],[53,-119],[-292,-96],[8,-300],[-604,-487],[11,-259],[-1423,-1208],[-67,-285],[263,-182],[-290,-341],[171,-143],[-33,-597],[228,-363],[-617,-301],[-10726,3584],[-221,162],[-587,25],[-575,247],[-278,-66],[-474,183],[-451,-76],[-188,160],[-454,61],[-120,138],[-663,-69],[-704,98],[-215,121],[-295,-48],[-119,73],[-101,-76],[-807,293],[-18,158],[-787,221],[-550,38],[-359,488],[168,211],[-65,192],[226,129],[-163,94],[285,134],[98,206],[-316,149],[118,120],[-115,184],[138,43],[1,-143],[70,79],[172,-77],[44,127],[244,-53],[-62,367],[196,80],[-52,104],[146,158],[145,-85],[201,81],[-166,316],[143,225],[267,-78],[379,255],[229,3]],[[29310,73543],[645,463],[916,1092],[-23,463]],[[43227,74598],[-32,-150],[300,-301],[892,300],[438,383],[-99,566],[225,12],[247,230],[269,52],[436,409]],[[45973,78217],[-732,216],[-140,282],[-263,-492],[-355,-97],[-794,369],[-500,16],[204,196],[-112,202],[187,737],[-100,102],[-193,-99],[-502,38],[-222,250],[-773,-173],[-61,145],[248,121],[-11,134],[-274,105],[79,108],[-222,141],[78,233],[-314,101],[464,374],[-183,231],[-153,6],[33,379],[-199,134]],[[41163,81976],[284,293],[-226,990],[589,800]],[[49932,89935],[-246,-56],[135,184],[-223,49],[267,406],[-108,93]],[[49757,90611],[-56,440],[-1116,894],[-112,864],[435,465],[1104,-19],[973,250],[722,867],[-71,394],[-1477,584],[-970,74],[-777,302],[-543,318],[-380,738],[-681,475],[-1187,-145]],[[31228,67613],[47,283],[327,308],[-188,163],[-1254,388],[-2121,1010],[-282,265]],[[81435,6003],[-2284,9],[-1374,-392],[25,-146],[-471,-269],[-43,-164],[-231,-98],[34,-116],[-462,67],[-27,158],[-249,-42],[-732,-361],[0,-133],[-1002,-343],[2,-120],[-174,122],[-283,0],[-114,-205],[-230,-87],[-74,52],[-634,-217],[-279,47],[-220,-75],[-101,-118],[108,-66],[-158,-56],[-189,127],[-158,-119],[-61,113],[-469,-73],[-171,-111],[138,-23],[-37,-178],[-363,-79],[-591,67],[165,121],[-164,87],[-910,-88],[-83,-125],[-368,-90],[75,-204],[-393,-95],[17,-127],[-290,-207],[-266,200],[-560,-117],[-294,145],[-298,-34],[-471,241],[-339,-207],[31,-195],[-481,-101],[-177,-231],[-231,131],[27,148],[-357,196],[79,103],[363,49],[-47,110],[-151,78],[-457,-58],[-421,89],[159,419],[-604,-61],[-307,92],[-331,-113],[-436,99],[-115,452],[155,258],[-152,94]],[[57569,94201],[-295,-212],[-420,19],[-242,432],[38,218],[-425,-28],[-167,342],[-228,-60],[-160,262],[-668,113],[-334,476],[-393,143],[-123,329],[-893,422],[-431,92]],[[90105,11617],[-520,-297],[-961,-261],[110,-40],[-130,-49],[45,-149],[-435,-108],[-81,189],[-197,-162],[631,-213],[-687,-581],[675,20],[-42,-108],[220,-5],[69,-95],[-829,-366],[32,-100],[245,-26],[-244,-191],[228,89],[482,-92],[-108,-284],[-270,-1],[43,-130],[-213,59],[-2,-218],[269,-12]],[[81643,9688],[-264,120],[-207,-42],[-264,233],[-220,-113],[-178,47],[12,141],[-144,32],[168,22],[39,207],[-186,3],[-145,189],[-174,-24],[-40,141]],[[59149,92752],[-162,33],[22,328],[-438,640],[-1002,448]],[[57569,94201],[-29,575]],[[53454,73614],[-661,690],[134,942],[-462,167],[194,134],[185,459],[-505,-47],[-724,493]],[[63356,77730],[-549,-405],[-445,-158],[-936,-966],[-316,-94],[-880,187],[-801,-321],[-93,-395],[245,-260],[1060,-344]],[[37543,67247],[753,215],[502,624],[879,2096],[-156,43],[-183,430]],[[62474,72629],[570,-127],[681,206],[529,-72],[90,-482],[333,-145],[107,-511],[257,186],[455,-28],[290,-104],[-104,-214]],[[31228,67613],[366,-31],[21,-134],[530,42],[567,-277],[154,194],[750,-115],[299,145],[233,-7],[358,-123],[1825,403],[574,-347],[638,-116]],[[37543,67247],[152,-177],[408,-28],[190,-158],[-165,-303],[473,-541],[-261,-216],[106,-287],[259,0],[-128,-146],[157,-64],[-206,-240],[106,-132],[126,60],[28,-307]],[[31064,65769],[-128,391],[372,671],[-80,782]],[[42040,61865],[-106,262],[228,218],[-416,212]],[[43624,25119],[-111,408],[-393,279],[101,162],[-446,162],[-327,273],[-556,-36],[-338,499],[43,276],[-151,176],[141,167],[-234,81],[-626,-130],[-73,170],[-477,178]],[[50709,98931],[2295,-174]],[[53115,97450],[-287,-701]],[[52828,96749],[-335,143],[-178,-110],[-339,37],[-216,282],[-1202,433],[-7,116],[-359,-8],[-202,202],[-307,-9],[84,295],[-375,71]],[[54934,87767],[-283,13],[-96,304]],[[73912,65175],[240,12],[110,-104],[154,226],[513,89],[-53,82],[247,90],[1,240],[653,126],[69,169],[421,-54],[460,371],[122,-172],[299,141],[423,-77],[325,157],[617,-6],[241,173],[164,-7],[122,180],[608,-8],[357,166],[258,-84],[381,26],[302,160],[212,-104],[798,205],[624,-219],[555,-481],[367,-20],[597,-248],[490,-497],[-72,-334],[286,-357],[-58,-142],[-324,-111],[-576,-864],[59,-202],[469,-234],[-433,-419],[44,-365],[-228,-301],[-508,-320],[-310,-64],[-1038,-60],[-435,113],[-561,-201],[-362,-21],[-615,-215],[-330,-383],[-375,141],[-282,-45],[-420,125],[-185,-218],[94,-156],[-159,-69],[-240,53],[231,-356],[-100,-290],[-455,-246],[-339,107],[-225,-147],[115,-677]],[[45903,76099],[-597,311],[39,394],[-277,166],[141,343],[420,94],[-333,208],[406,179],[271,423]],[[45973,78217],[263,185],[1343,303],[222,151],[303,-22]],[[48571,78643],[-148,-60],[90,-130],[-277,-370],[128,-450],[-125,-62],[257,-134],[-266,-338],[133,-414],[-257,-23],[206,-177],[-540,-234],[-1244,11],[-625,-163]],[[53115,97450],[-588,173],[659,339],[103,221],[-184,293],[83,222],[-184,59]],[[53004,98757],[484,97],[597,306]],[[54793,96933],[-1678,517]],[[15372,51050],[464,364],[710,326],[-47,245],[261,118],[903,963]],[[17663,53066],[2752,-1346]],[[20415,51720],[-166,-98],[362,-146],[19,-135],[-272,-139],[172,-290],[-389,-306],[52,-152],[325,-166],[-319,-76],[-45,-113],[149,-24],[-288,-419],[202,-26]],[[60620,51623],[58,137],[60,-64],[334,97],[250,-50],[643,399],[-146,718],[371,379],[-102,260],[1358,1087]],[[46867,64220],[-333,-106],[23,-303],[-420,-124],[-253,33],[-174,-264],[-622,-157],[-423,-530],[-501,-48],[-182,338],[-318,50],[-256,-183],[-654,-127],[74,-149],[-273,-194],[-809,101]],[[41746,62557],[199,95],[281,-64],[-33,181],[-335,81],[21,160],[-168,32],[74,183],[381,186],[-278,365],[263,181],[-50,338],[-618,135],[465,567],[-112,248],[-520,36],[-54,90],[283,260],[276,-35],[249,469],[-183,238],[295,110],[35,194],[428,23],[78,130],[778,274],[25,162],[746,89],[-13,184],[236,189]],[[82281,7995],[-176,250],[170,294],[-261,325]],[[85747,7780],[-289,-1304],[-265,-61]],[[71880,13329],[-533,-83],[-398,-327],[-529,-137],[-197,-173],[-780,-136],[-619,130],[-327,-124],[-110,-196]],[[64768,18124],[520,73],[341,-135],[203,74],[-2,105],[611,144],[233,322],[652,131],[155,218],[807,68],[571,386],[410,-35],[333,159],[190,-114],[235,-22],[22,74]],[[28800,58150],[-72,206],[-300,48],[-11,104],[-245,76],[-46,261],[-311,89],[-71,260],[-177,-3],[-79,136],[-867,-12]],[[26621,59315],[161,667],[287,415],[547,445],[997,277],[314,191],[687,1496],[549,621]],[[37363,28481],[557,-41],[385,-269],[151,59],[266,-150],[547,166],[246,-227],[161,48],[125,-100],[376,275],[159,-120],[-159,-338]],[[40177,27784],[-223,-415],[-493,3],[-1007,-199],[-273,-255],[-354,-67],[-337,84],[-361,-39],[-470,-258],[-369,79],[-225,415],[-177,-239],[-624,-174],[-429,74],[-1768,-95],[-1492,281],[-466,268],[-94,259],[-243,-391],[-396,-173],[-251,90],[-431,-139],[-195,52],[-392,-86],[-413,108],[-712,-250]],[[54083,83118],[1405,160],[22,72],[1602,111]],[[64365,81580],[42,-695],[-448,-427],[-257,-496],[449,-489],[17,-351],[-395,-422],[-55,-494],[-362,-476]],[[63356,77730],[-550,242],[-1314,124],[-363,328],[-779,299],[-136,290],[-981,47]],[[73080,18279],[-3031,1293]],[[70049,19572],[660,270],[-246,334],[225,76],[-24,197],[496,276]],[[82933,25260],[556,-42],[154,-1067],[1659,-688],[1830,171],[1936,-363],[816,-586],[2083,-273],[464,-193],[-1261,-4]],[[26643,42255],[-109,-49]],[[21049,47329],[-215,94],[-182,498],[-255,8],[172,595],[-451,96],[165,151],[-227,176],[259,61],[-153,137],[199,86],[-184,112],[392,108],[-352,179]],[[20217,49630],[496,280],[1318,131],[67,88],[598,-87],[604,-596],[11,-455],[261,-99],[283,30],[109,-100],[340,25],[1040,-323],[615,-454],[158,-466],[358,-102],[127,-262],[855,-344],[370,-365],[338,-115],[465,-669],[915,-555],[523,68],[361,-177],[595,-56],[226,-140],[1113,136],[241,111],[804,32],[675,-114],[932,196],[176,-82],[481,18],[151,-185],[529,-9],[424,-439]],[[36776,44551],[-363,18],[-267,312],[-220,-28],[-331,-509],[113,-157],[-331,-81],[-265,-359],[74,-188]],[[26744,52022],[-80,308],[207,185],[-102,143],[236,356],[-109,286],[216,240],[-212,472],[121,1],[-81,78],[195,361],[-397,111],[-14,104],[-141,-21],[-66,479],[590,-315],[1201,-231],[307,-159],[416,63],[486,-86],[605,133]],[[37309,45039],[-9,-326],[-245,-156],[-279,-6]],[[36776,44551],[460,247],[-240,439],[-266,138],[64,194],[219,74],[-199,106],[-267,-88],[-186,43],[81,227],[-318,37],[-93,-125],[-329,87],[56,113],[-340,-19],[-1,298],[-311,315],[-269,55],[-84,-72],[-397,200],[-173,-87],[-371,16],[-210,188],[-478,3],[-280,103],[-212,-102],[-730,134],[-422,-99],[-198,148],[77,112],[-351,65],[-302,489],[-290,119],[-301,-33],[-206,389],[-328,50],[-55,409],[-251,134],[-70,765],[-449,342],[-399,70],[-496,599],[-494,134],[-4,354],[-257,471],[-328,142],[-34,287]],[[31230,20770],[-1160,87],[-284,-134],[-265,52],[-748,-107],[-773,114],[-1515,-198]],[[25768,27649],[296,-191],[475,138],[251,-74],[46,-197],[230,23],[166,-94],[141,-311],[231,20],[201,-235],[177,-11]],[[27982,26717],[572,-293],[119,-236],[418,-6],[208,-107],[-157,-195],[302,-14],[188,-167],[462,125],[363,-246],[396,212],[737,-10],[682,-580],[-39,-202],[1016,-108],[242,-323],[849,-275],[288,-409],[909,-384]],[[46351,98474],[-20,-227],[-664,-77],[-210,-177],[-65,-161],[267,-353],[-172,-216],[134,-151]],[[45621,97112],[-1264,-257],[-1038,152],[-777,-70],[-642,150],[-424,303],[-1713,132],[-394,254],[951,23],[190,372],[392,172],[555,-68],[423,-259],[476,-43],[744,646],[215,711],[689,368],[710,-6]],[[34254,32431],[986,194]],[[38729,32215],[-316,-699],[226,-201],[-287,-716],[-392,-366],[-498,-113]],[[36112,14152],[-767,316],[-847,99],[-682,435],[-19,276],[-373,298],[-730,-473],[-274,-450],[-325,-33],[-491,112],[-325,231],[-547,183],[-250,201],[-74,45],[-48,0],[368,-399],[136,-398],[-694,-354],[-391,-391],[220,-543],[-179,-229],[-331,-139],[-577,-832],[-310,-265],[-638,-285],[-41,-278]],[[27370,11273],[-279,26],[-412,249],[-284,36],[-339,-97],[-9,345],[-625,30],[-158,203],[-527,-237],[-251,163],[230,169],[-410,-16],[146,127],[-286,108],[70,124],[-302,-62],[-61,209],[-293,145],[-80,-147]],[[26918,15899],[552,-1],[327,-119],[396,80],[721,-30],[221,148],[713,64],[354,268],[494,25],[931,528],[569,-184],[706,-30],[355,209],[88,521],[601,250],[432,525],[340,65]],[[60641,74974],[774,-720],[357,53],[533,410],[1135,17],[855,-344],[334,-343],[81,-284],[-281,-361],[-1365,-356],[-367,-166],[-223,-251]],[[62474,72629],[-824,-722],[210,-415],[-186,-445],[62,-520],[-199,-270],[-724,-465],[-868,-265]],[[52671,71333],[57,109],[-214,155],[9,270],[-251,295],[539,345],[-16,243],[292,108],[152,648],[215,108]],[[53454,73614],[1418,-742],[659,353],[209,-67],[292,140],[345,-125],[99,147],[201,-21],[168,135],[175,-126],[360,-6],[202,224],[653,-9],[313,166],[83,-112],[402,76],[137,145],[150,-27],[23,278],[301,-8],[251,304],[394,131],[352,504]],[[26918,15899],[-465,-102],[-403,-458],[-910,-408],[-691,58],[-585,-171],[-1115,119],[-298,-106],[-287,133],[-99,-82],[-357,96]],[[11903,12925],[-581,-120],[-41,-204],[-198,-17],[-252,136],[234,-236],[-549,-43],[-80,-72],[164,-77],[-337,23],[-75,-97],[-483,-87],[-179,-192],[-398,-11],[-568,-207],[-278,-143],[222,-167],[-303,88],[-59,-262],[-292,35],[-10,-123],[-382,-32],[167,-77],[-238,-66],[67,-191],[-343,-66],[-296,-275],[150,-120],[-309,-20],[-232,-136],[114,-288],[-128,-35],[-143,116],[-286,-128],[43,-70],[81,104],[144,-37],[-171,-88],[56,-383],[-123,-72],[-434,57],[-354,-223],[269,-235],[-442,-172],[389,-110],[-189,-62],[46,-138],[-363,-155],[188,-324],[-196,-83],[62,-163],[-334,-330],[-256,265],[-231,-87],[-694,2],[-612,201],[-56,95],[336,110],[36,125],[-425,-13],[-202,-216],[-183,-16],[-52,237],[270,291],[-481,48],[259,449],[-283,179],[141,184],[-298,27],[-191,278],[155,338],[-1046,41],[-135,458],[240,205],[524,-40],[-29,184],[-338,139],[452,383],[81,378],[270,288],[-140,266],[214,91],[371,-33],[105,316],[-286,144],[115,398],[-351,459],[134,249],[-220,316],[389,266],[-409,336],[123,315],[-693,49],[-163,201],[318,740],[-103,203],[174,515],[-7,200],[-376,234],[173,309],[-115,288],[532,347],[42,227],[-261,243],[542,303],[25,218],[-406,209],[-526,99],[-35,409],[-674,1028],[389,350],[768,399],[-18,614],[152,310],[-261,232]],[[21094,25046],[430,-156],[423,74],[136,207],[162,6],[534,-242],[-35,-108],[387,-226],[36,-244],[-167,-156],[199,-338],[-156,-21],[-57,-144],[187,-140],[75,133],[286,-46],[57,-185],[208,-37],[142,-256],[304,-39],[40,-270],[466,-289],[-125,-174],[355,-827],[-254,-71],[729,-276],[72,-167],[533,-126],[-20,-174],[444,-170]],[[26485,20584],[481,-287],[114,-291],[532,-49],[316,-491],[581,-1],[67,-189],[-172,-142],[519,-327],[487,-708],[-239,-209],[160,-201],[-1192,-477],[-46,-329],[-418,-460],[47,-240],[-804,-284]],[[30122,54530],[71,217],[-169,384],[-494,53],[-325,331],[520,286],[6,322],[312,183],[23,518],[-399,670],[-867,656]],[[28800,58150],[165,1],[17,-94],[85,64],[225,-63],[262,135],[269,-109],[278,48],[607,-427],[246,-52],[20,79],[608,15],[534,342]],[[39431,51448],[-607,235],[158,477],[-394,267],[-201,-20],[-67,426],[-139,84],[-556,-80],[-69,108],[-501,105],[-669,-23],[-491,-156],[-839,253],[-464,-38],[-106,153],[-503,81],[-297,305],[-344,5],[-826,303],[-251,-27],[-794,546],[-649,186],[-700,-108]],[[57753,68703],[843,160],[1349,664]],[[59945,69527],[-50,-229],[-398,-72],[-82,-121],[341,-192],[62,-173],[278,-29],[-302,-80],[160,-123],[-150,36],[60,-80],[-162,-67],[206,-32],[-77,-78],[208,-174],[513,-117],[106,-149],[-235,-173],[71,-285],[490,177],[-22,-121],[254,-165],[-251,42],[-56,-96],[248,-241],[696,-139],[439,-531],[139,-86],[301,104],[113,-186],[228,-18],[132,-145],[384,47],[438,281],[973,-68],[152,213],[-169,221],[-459,24],[-355,515],[49,297],[287,90],[340,333],[-68,678],[-220,81],[-395,-26],[-343,179],[-31,158],[-878,260],[667,290],[216,204],[-157,218],[443,-18],[90,349],[693,310],[363,561],[457,157]],[[65682,71338],[-195,-115],[783,-134],[-99,-233],[435,-152],[-103,-393],[122,-267],[565,78],[24,76],[-428,214],[318,97],[856,-530],[-472,-83],[140,-223],[569,-58],[-7,-150],[-276,4],[218,-134],[-196,-49],[44,-160],[762,6],[30,-186],[251,50],[-137,-208],[429,8],[-179,-66],[295,-370],[-146,-73],[245,-42],[-228,-61],[43,-90],[286,3],[-95,-91],[554,-120],[179,-190],[184,87],[30,-198],[238,33],[-112,-69],[95,-120],[387,-267],[275,-17],[4,-356],[413,35],[89,-207],[186,26],[-183,-185],[75,-79],[200,57],[-82,-185],[178,-123],[-172,-129],[452,32],[191,-150],[149,25],[432,-661],[614,-70]],[[73912,65175],[142,-605],[-160,-365],[-402,-252],[-93,-320],[-353,-171],[280,-166],[12,-204],[-306,-171],[-180,-345],[-385,-54],[-47,86],[-134,-70],[-156,56],[-717,-234],[78,-221],[-249,-155],[-71,-372],[-399,-43],[127,-423]],[[46572,54133],[-1316,524],[-1837,-387],[85,-307],[-182,-118],[-37,142],[-138,-4],[-118,-92],[-581,-4],[-362,-193],[-265,116],[-409,-44],[-82,146]],[[31230,20770],[-163,279],[240,551],[1026,310],[319,592],[1018,-27],[92,255],[878,-99],[131,278],[808,416],[-42,174]],[[35537,23499],[823,-444],[369,40],[134,72],[127,698],[315,206],[1448,274],[62,397],[193,111],[134,409],[420,199],[327,3],[549,-401],[762,30],[114,88],[580,-157],[442,156],[739,-211]],[[34840,18390],[-122,-172]],[[34718,18218],[-228,-50],[-1232,660],[-356,33],[-112,-127],[-103,132],[138,175],[-36,89],[-641,-91],[-14,115],[388,218],[395,701],[-562,290],[-101,336],[-731,182],[-293,-111]],[[45370,26574],[-688,512],[-572,737],[-71,408],[-350,304],[-408,825],[116,212],[500,275],[281,437],[1130,331]],[[56315,63888],[-166,-129],[310,-43],[211,-264],[-16,-120],[-231,16],[-46,-113],[374,-156],[282,132],[69,-101],[-232,-189],[502,-303],[-55,-192],[356,-19],[-82,-449],[581,29],[-287,-214],[584,-53],[148,-190],[-181,-316],[572,-21],[1009,-763],[352,-82],[309,88],[405,-26],[708,236],[39,-78],[175,57],[775,-143],[206,-189],[287,-108],[178,52],[118,-140],[135,210],[649,76],[390,-353],[736,-92],[334,134],[297,-61],[96,131],[235,-90],[440,28],[404,162],[160,-153],[193,98],[221,-52],[237,58],[28,161],[200,61],[906,-311]],[[66190,56306],[-690,-225],[-683,194]],[[59149,92752],[156,27]],[[64747,94349],[65,-297],[-385,-579],[-5,-247],[921,-1075],[178,-451]],[[55276,66779],[352,-76],[-190,-153],[285,-61],[-126,-120],[213,-91],[60,-173],[483,-6],[-155,-378],[367,-18],[-94,-157],[148,-267],[-224,-135],[284,-157],[-307,-210],[-21,-193],[165,-74],[-145,-121],[107,-123],[-175,-82],[12,-296]],[[56315,63888],[-581,-247],[-412,84],[-513,-342],[395,-892],[-153,-199],[337,-307],[-736,-336],[-120,-332],[175,-428],[721,-528],[-283,-164],[46,-166],[-256,-240],[-304,4],[-2,-191],[-164,-49],[618,-217],[-34,-176],[424,-211],[-552,-355],[-628,-66],[-396,-152],[132,-341]],[[51797,58230],[-63,1098]],[[40436,63248],[254,-233]],[[40690,63015],[0,0]],[[40690,63015],[-120,-354],[233,-197],[333,9],[136,-181],[-77,-223],[572,-497],[-51,-152],[208,-233],[-142,-125]],[[41639,59612],[-236,-264],[458,-702],[-47,-347],[-862,-709]],[[44141,3965],[-275,-636],[-472,-141],[4,-1194],[-331,5],[-314,-233],[-273,343],[251,472],[-253,184],[308,140],[137,648],[-393,255],[309,135],[116,202],[-161,236],[-231,-23],[152,107],[-147,240],[-135,5],[34,222],[-526,83],[-227,462],[-349,22],[-373,229],[-210,-13],[-42,-101],[-147,87],[-239,-113],[-203,34],[-329,266],[-24,704],[-1570,693],[-114,242],[-452,11],[-71,401],[-474,72]],[[34980,63560],[-689,-144],[-301,-200],[-799,-76],[-455,79],[-1090,-414],[-462,-37],[-642,260],[-201,-48],[-178,447]],[[30163,63427],[226,341],[203,1060],[449,314],[23,627]],[[31064,65769],[1246,-14],[100,-190],[480,-69],[607,-631],[852,3]],[[18710,29785],[-499,-335],[241,-339],[-87,112],[-258,-21],[293,-362],[-149,-239],[370,-92],[221,-233],[153,60],[16,-175],[260,-95],[217,-300],[-165,-1],[184,-188],[-147,-176],[167,-115],[-133,51],[-123,-141],[128,56],[292,-166],[-253,-37],[193,-53],[-197,-133],[249,-39],[-293,-106],[433,-94],[-198,-16],[189,-50],[-187,-202],[246,113],[-59,-139],[141,-1],[-48,-104],[195,-90],[-127,-179],[192,-9],[92,-277],[190,35],[145,-102],[-123,-135],[308,2],[-74,-96],[389,-328]],[[21094,25046],[-19667,-2316]],[[1427,22730],[-910,32],[-455,415],[82,394],[-144,686],[299,527],[-30,344],[322,274],[102,382],[204,283],[506,216],[236,384],[102,436],[-150,187],[16,824],[340,139],[136,273],[385,178],[162,221],[-305,1007],[91,180],[-252,397],[637,425],[28,196],[-390,245],[-58,297],[194,351],[374,92],[451,604],[-337,802],[-302,147],[-10,169]],[[19461,35607],[350,-169],[587,-31],[233,-144],[486,-27],[71,-82],[432,46],[165,-228],[443,-107],[702,59],[47,-146],[342,-98],[356,-317],[10,-300],[330,-452],[339,-154],[426,-22],[880,-356],[-366,-163],[-154,-256],[-690,-80],[-241,-188],[-102,-332],[-586,-236]],[[49862,42379],[88,-147]],[[82014,8864],[-95,83],[112,132],[-388,609]],[[81643,9688],[134,114],[740,-103],[285,-167],[457,-70],[98,-118],[435,-39],[745,181],[-9,-148],[-238,-117],[72,-313],[876,-506],[953,310],[294,-50],[385,-263],[240,43],[-13,169],[762,-43],[275,-137],[301,55]],[[88435,8486],[-5,-96],[-530,-165],[-53,-153],[403,24],[-173,-185],[533,-53],[-118,-117],[76,-179],[-479,-191],[-102,-149],[327,-142],[-135,-127],[149,-73],[-480,-151],[129,-202],[-209,-115],[200,-37],[-476,-228],[828,61],[452,170],[1186,-143],[838,321],[60,-89],[321,3],[347,226],[271,-67],[-113,-79],[-644,-160],[-527,-19],[-364,-213],[-940,-39],[-2398,-367],[-167,64],[96,161],[-178,103],[334,662],[-164,72],[151,152],[-140,19],[41,302],[-187,163],[-672,51],[61,72],[-101,-18],[-136,225]],[[85747,7780],[-119,-63],[-204,101],[-421,-43],[-625,320],[-405,-43],[-337,174],[-437,-46],[77,59],[-226,9],[-372,375],[-664,241]],[[67340,50375],[300,225],[-64,145],[720,51],[406,221],[-262,70],[139,172],[363,107],[-85,92],[173,174],[8,321],[-242,195],[271,14],[44,303],[-149,25],[217,30],[51,251],[-126,62],[204,227],[-238,248],[147,288],[389,67],[-38,87],[181,45],[-73,112],[-205,-199],[-146,76],[117,170],[-171,97],[268,82],[-142,70],[89,130]],[[73446,53827],[-599,-138],[394,-43],[102,-132],[-501,-449],[896,-147],[265,69],[-68,-94],[125,-49],[357,85],[266,-79],[653,207],[390,-14],[221,-205],[-384,-39],[158,-144],[-133,-98],[21,-317],[446,-38],[261,159],[37,-219],[779,-169],[10,-428],[250,-91],[228,40],[167,-182],[-189,-370],[198,-241],[-510,-291],[-10,-188],[195,-101],[481,17],[236,-386],[803,-511],[-93,-334],[344,-66],[450,218],[1137,53],[658,-237],[-300,-187],[-33,-204],[190,-165],[784,-153],[155,-157],[385,69],[243,-76],[35,-108],[-328,-183],[1,-112],[773,-477],[-1104,-363],[21,-218],[-293,-299],[-138,-430],[-798,-333],[117,-444],[301,-224],[716,20],[417,-136],[101,-228],[-191,-227],[160,-141],[579,-28],[614,140],[352,-346],[-47,-224],[311,-111],[-237,-134],[385,-133],[-44,-327]],[[55216,87247],[-430,275],[148,245]],[[54934,87767],[1651,500],[379,-138],[2028,51]],[[14817,45710],[773,75],[624,-189],[296,90],[564,-108],[611,45],[531,207],[446,-34],[77,212],[-118,177],[310,298],[337,65],[426,267],[354,-103],[301,64],[635,300],[65,253]],[[21049,47329],[261,13],[306,-190],[513,0],[744,-195],[350,-171],[257,-400],[582,-107],[572,-260],[596,-509],[452,-108],[-398,-375],[-233,-453],[-560,-165],[-194,-427],[-155,-25],[400,-14],[24,-132],[-449,-169],[225,-244],[554,102],[693,-398],[1073,-125],[9,-455],[-211,-159],[74,-157]],[[26534,42206],[-536,-441],[-266,-70]],[[90171,39581],[579,-363],[590,82],[718,-79],[969,376],[448,58],[314,-890],[-313,-318],[562,-236],[50,-242],[303,-112],[2,-228],[215,-168],[752,-134],[442,-12],[471,369],[-565,335],[375,583],[515,171],[1528,-212],[655,205],[545,283],[127,242],[-163,421],[229,201],[426,-288],[54,-954],[-548,-651],[-1414,-129],[-445,-1614],[-996,-555],[-1157,-221],[-2609,-946],[-1319,-245],[-444,-186],[-220,-283],[207,-387],[-294,-373],[-610,-274],[-204,-665],[-401,211],[-676,-351],[-133,-1479],[-1474,-51],[-4193,-3932]],[[59751,87773],[-759,407]],[[58992,88180],[548,341],[487,1040],[452,211]],[[60324,90832],[1465,55],[265,-97],[341,85],[174,-60],[661,294],[372,-22],[361,340],[396,-72],[606,180],[241,-42],[315,207]],[[65521,91700],[136,-145],[44,-606],[-374,-848],[165,-264]],[[38036,41104],[1074,546],[505,499],[273,757],[662,183],[858,-132],[291,91],[281,365],[-102,404],[-545,559],[102,351],[-529,-68],[-317,313],[-195,-425],[-562,149],[-335,-28],[-107,133],[124,210],[-838,-179],[-203,127],[-318,-174],[-846,254]],[[37309,45039],[-183,485],[320,419],[-164,55],[-54,281],[151,201],[-346,333]],[[47127,45449],[86,-560],[-274,-184],[-60,-313],[791,-430],[131,-309],[-103,-480],[-389,-192],[-236,-273]],[[37033,46813],[81,222],[729,324],[363,604],[-45,393],[364,182],[96,357],[894,32],[-230,408],[-19,727],[-146,21],[102,395],[-179,177],[301,93],[192,319],[-105,381]],[[39431,51448],[325,15]],[[39858,51629],[428,79],[315,-163],[33,-187],[505,-184],[193,-215],[293,368],[-68,242],[403,-57],[258,-192],[666,5],[296,-157]],[[43033,48760],[-114,-515],[497,-202],[40,-221],[202,49],[139,-126],[327,11],[149,-207],[-1116,-249],[-155,-226],[-991,-388],[-563,10],[-49,-281],[-76,89],[-490,-57],[-886,375],[-2914,-9]],[[35186,43559],[192,167],[269,-49],[297,240],[115,-174],[351,70],[395,-103],[67,-247],[574,-316],[-114,-728],[-197,-37],[-245,-606],[-365,-288],[16,-285],[200,-177]],[[32352,39983],[-195,81],[-247,-48],[-82,164],[-710,438],[-341,-48],[-314,107],[-226,303],[-869,86],[-320,131],[7,108],[-571,67],[-153,317],[-761,339],[-377,1],[-550,226]],[[26643,42255],[1299,366],[318,-92],[484,76],[241,-104],[738,150],[660,-290],[1006,-43],[328,-186],[824,26],[532,226],[134,-174],[403,302],[-191,206],[-86,456],[-211,83],[303,128],[1761,174]],[[61620,84552],[2571,-1497],[500,-167],[292,86]],[[64983,82974],[36,-309],[-702,-773],[48,-312]],[[64365,81580],[-344,-302],[-423,184],[-658,56],[-353,-102],[-689,114],[-987,-140],[-493,108],[-291,-45],[-218,167],[-523,121],[-177,167],[-380,-55],[95,374],[-1276,772],[-715,-87],[179,549]],[[33800,80228],[371,303],[934,34],[1149,289],[1202,100]],[[37456,80954],[27,-202],[-413,-513],[249,-192],[-185,-365],[3960,-1618],[-7,291],[291,172],[507,52],[42,-250],[-191,-67],[289,-2],[1,-447],[143,-62],[-125,-86],[248,-22],[239,-495],[699,-240],[197,-912],[-173,-112],[-55,-565],[259,-220],[25,-316],[-256,-185]],[[43227,74598],[-2439,-64]],[[52604,21033],[928,182],[782,-173],[262,151],[474,-91],[163,-262],[258,-71],[440,10],[343,134],[1540,-339],[283,375],[300,35],[442,335],[1518,533],[58,571],[595,495],[-71,248],[-368,108],[-165,374],[89,102],[271,6],[-35,189],[265,204],[603,271],[275,-10]],[[66006,26489],[336,-57],[-218,-524],[-397,-428],[-662,-434],[-86,-120],[117,-64],[-207,-57],[23,-292],[-264,-108],[-31,-259],[219,-263],[-105,-401],[329,-86],[-66,-160],[368,2],[452,-294],[-153,-248],[-116,12],[52,-180],[-336,-235],[385,-299],[-241,-354],[53,-232],[-148,13],[71,-144],[-206,22],[-69,-126],[485,-582],[-70,-79],[309,-247],[-281,-42],[-112,-418],[-471,-197],[31,-96],[-242,96],[-702,-62],[-1,-171],[-257,-39],[59,-135],[-362,3],[-257,-324],[14,-117],[851,-167],[286,-351],[382,-121]],[[64768,18124],[547,-316],[33,-172],[-543,-694],[-47,-672],[-172,-179],[45,-403],[-316,-254],[-287,0],[-272,182],[-581,56],[-226,-275]],[[62779,84968],[-146,3]],[[57875,84837],[-63,264],[232,59],[268,336],[-396,493],[-861,-129],[-1142,675],[-310,-80],[-153,166]],[[55450,86621],[-234,626]],[[55216,87247],[395,-166],[409,243],[492,24],[496,-118],[10,-151],[199,-3],[101,-192],[779,-44],[1063,-267],[733,-71]],[[45135,67603],[-640,55]],[[44495,67658],[-13,433],[-233,219],[-151,759]],[[42641,71154],[-197,454],[301,308],[-104,438],[109,240],[164,-133],[135,107],[296,-95],[19,77],[722,88],[673,-50],[95,-173],[-101,-78],[215,-196],[795,-285],[267,125],[497,-106],[272,119],[158,277],[614,127],[200,184],[820,-111],[183,-336],[289,-6],[119,-121],[494,36],[744,-181],[296,-241],[644,-49]],[[51360,71573],[0,0],[0,0]],[[51360,71573],[16,-3]],[[35327,33776],[-472,-9],[-342,-217],[-283,-45],[-236,335],[-345,80],[-129,-92],[-158,64],[-157,-61],[-234,157],[51,242],[441,366],[-347,211],[-20,258],[160,125],[-162,182],[155,346]],[[57957,41562],[-293,310],[-11,399],[-532,357],[377,269],[32,357]],[[70161,41540],[485,-13],[179,-197],[1097,-46],[414,-365]],[[75223,39671],[-290,-405],[-502,-335],[-64,-314],[-580,-252],[-9,-263],[-185,-96],[163,-65],[-75,-182],[140,-225],[-296,3],[-26,258],[-233,112],[-384,-203],[-42,-228],[-355,-136]],[[68195,36475],[-407,210],[-106,490],[-500,2],[-258,165],[87,56],[-292,2],[200,189],[-145,99],[108,93],[-164,61],[156,132],[-140,39],[324,196],[12,194],[180,36],[-231,37],[-78,263],[124,38],[-178,137],[-443,-83],[-641,144],[-100,139],[557,246],[-401,103],[-285,216],[53,125],[-296,70],[-259,-302],[-271,-70],[-829,218],[-158,222],[-324,-384],[-404,241],[-199,8],[-225,-240],[66,-508],[205,-236]],[[82281,7995],[130,-128],[525,-70],[-86,-625],[514,-223],[8,-102],[746,-26],[282,-257],[793,-149]],[[85193,6415],[-173,-427],[-3585,15]],[[81435,6003],[234,1006],[155,88],[-168,95],[-17,214],[642,589]],[[91170,22215],[-45,-251],[-207,-76],[-1338,142],[-390,415],[-600,-22],[-242,-105],[-347,116],[-280,-25],[-142,104],[31,-95],[-219,-61],[-52,63],[-158,-143],[-279,78],[-119,-92],[-162,54],[-72,-153],[-146,41],[-3,-118],[-211,-91],[317,-34],[356,173],[272,-65],[-31,-68],[186,30],[-71,-188],[194,-62],[-88,-140],[431,-43],[177,-125],[-273,-259],[-238,-34],[234,-40],[-288,-169],[-8,-145],[-280,19],[-137,-89],[-144,69],[-270,-108],[69,-241],[623,103],[-342,-228],[653,92],[-406,-175],[109,-71],[-108,-63],[260,7],[-45,-201]],[[79182,17183],[215,251],[-86,304],[110,104],[-345,344],[-9,515],[-379,412],[120,283],[-282,65],[55,253],[-182,156],[440,306],[-85,67],[349,576],[12,361],[592,329],[584,-161],[470,102],[171,225],[221,-45],[68,112],[120,-63],[363,94],[209,-57],[84,89],[553,2],[43,82],[771,-72],[337,109],[1029,-118],[2675,1055],[1810,-181],[568,-357],[339,-73],[1048,-37]],[[38845,33404],[-1010,-379],[-1390,-14],[-15,142],[-662,-301],[-194,-210],[-334,-17]],[[35240,32625],[110,223],[-207,238],[197,307],[-119,216],[106,167]],[[35327,33776],[534,213],[240,29],[262,-112],[239,74],[191,249],[429,114],[207,495],[522,171]],[[57753,68703],[-1459,-406],[-223,-612],[-487,-264],[24,-352],[-332,-290]],[[55276,66779],[-87,-255],[260,-1027],[-77,-274],[-843,-254],[-869,-129],[-1484,-2],[-827,-769]],[[48503,64126],[-171,158],[-671,-13],[-118,119],[-194,-157],[-121,59],[-27,-119],[-334,47]],[[46867,64220],[-143,150],[-511,50],[-142,-95],[-234,74],[39,367],[-469,278],[211,581],[-111,169],[172,178],[-142,993],[-402,638]],[[45135,67603],[544,-101],[-61,308],[246,243],[346,158],[-27,81],[384,46],[204,128],[467,-86],[75,-96],[1373,160],[288,-116],[26,-150],[976,-232],[615,148],[352,-74],[119,-135],[286,5],[-35,138],[272,121],[2,426],[-534,333],[-108,344],[-372,94],[-244,479],[97,109],[491,100],[468,459],[-16,294],[183,226],[-322,298],[146,259]],[[51376,71570],[555,-46],[483,-211],[257,20]],[[52671,71333],[868,-318],[158,-187],[1006,-167],[-50,-209],[191,-143],[201,-69],[213,51],[210,-93],[-52,-129],[573,-84],[66,-168],[292,-25],[65,-115],[131,62],[198,-356],[202,-65],[-64,-118],[675,-126],[-193,-295],[392,-76]],[[44141,3965],[62,205],[292,105],[155,412],[-473,228],[-49,353],[263,170],[-204,27],[313,233],[-642,230],[-269,-75],[54,344],[-317,60],[-117,215],[277,165],[-97,116],[152,203],[182,-10],[-363,275],[313,279],[452,154],[-261,240],[50,74],[553,103],[-49,94]],[[51527,3804],[-414,-70],[-168,123],[-284,-66],[-180,-106],[55,-129],[-754,47],[-368,-335],[-245,-8],[-55,-104],[-279,-18],[56,94],[-226,-58],[-12,-139],[-408,-133],[24,-119],[-189,100],[-492,8],[43,-241],[-436,64],[-464,-282],[-84,65],[-18,-88],[-344,12],[-179,-98],[-259,50],[-235,-255],[-84,107],[-277,27],[65,400],[-371,158],[75,351],[-128,143],[164,682],[-195,-185],[-295,191],[-425,-27]],[[35126,37302],[-121,123]],[[34951,37462],[-157,115],[-89,744],[-259,-75],[-159,195],[78,287],[-313,3],[-266,420],[-1434,832]],[[32352,39983],[294,126],[420,6],[479,-156],[167,93],[251,-75],[102,243],[235,-1],[129,110],[444,-149],[171,142],[601,-102],[-48,150],[328,251],[274,34],[542,371]],[[36741,41026],[166,444],[266,83],[199,-32],[8,-167],[325,-34],[92,-228],[239,12]],[[38036,41104],[0,0]],[[38036,41104],[226,7],[47,101],[191,-41],[127,179],[329,117],[441,-116],[287,46],[271,-104],[11,-232],[378,-264],[707,-104]],[[51527,3804],[89,386],[232,233],[-483,509],[56,640],[180,221],[-552,413],[-370,488],[-79,426],[-610,473]],[[58351,15849],[392,231],[799,-97],[310,-140],[243,130],[725,10],[390,121],[468,-629],[486,-109],[24,-240],[761,271]],[[62949,15397],[248,-145],[275,-467],[424,-105],[50,-294],[-154,-33],[7,-254],[-231,-239],[191,-155],[14,-304],[-390,-57],[134,-254],[340,-51],[15,-183],[-263,-68],[354,-83],[-16,-350],[427,-175],[387,3],[336,142],[216,261],[322,0],[281,119],[387,-416],[342,-72],[333,123],[831,-119],[578,62]],[[68387,12283],[531,-150],[7,-269],[532,-174],[-93,-127],[224,-97],[-61,-202],[-202,-79],[-230,-359],[424,-48],[530,-418],[-427,-55],[131,-128],[-405,-138],[-553,-460],[-891,-260],[-590,41],[-478,-155],[-21,-160],[481,-479],[1095,-416],[192,-302],[646,44],[630,-124],[-544,-152],[-614,-4],[-772,-226],[-297,-510],[-201,-56],[-1,-120],[-391,-5],[-38,-203],[-829,-165],[-182,126],[-520,-20],[-385,-268],[500,-278],[-11,-510],[358,-43],[256,-226],[-58,-296],[235,-72],[-146,-270],[90,-266],[-1174,83],[-186,-85],[-470,105],[-482,-289],[-383,46],[-381,222],[-304,-53]],[[62929,4233],[-485,16],[-447,143],[-250,-65],[-107,95],[-8,-146],[-311,-230],[120,-207],[-502,-208],[293,-124],[-230,-489],[229,-19],[-50,-181],[208,-85],[132,-277],[-323,-146],[-110,-319],[155,-127],[75,-435],[243,-186],[305,-48],[-89,-200],[-217,-51],[-334,-309],[-22,-159],[-304,-152],[-174,-324],[-2350,1677],[-436,198],[-1273,-98],[-172,173],[-181,-65],[-83,151],[-593,112],[-109,-191],[-493,-112],[-333,433],[-289,57],[-539,-66],[-160,70],[52,203],[-427,6],[-38,206],[-165,47],[-331,-84],[141,-298],[-207,-267],[-474,19],[-728,-219],[-246,35],[-23,-93],[-80,98],[-82,-46],[-100,76],[330,266],[-79,341],[-232,122],[321,263],[-262,346],[442,444]],[[37307,70946],[0,0]],[[37307,70946],[-1651,-97],[-207,-195],[-313,77],[-208,-101],[-249,101],[-422,-182],[-238,32],[-162,-131],[-422,136],[-502,-50],[-894,199],[-461,-194],[-194,109],[-472,-96],[-291,72],[-275,-127],[-115,123],[-372,-9],[-242,-197],[-256,42],[-97,-136],[-274,-111],[-256,31],[-245,-170],[-349,62],[-383,-104]],[[27757,70030],[-778,1044],[71,876],[2260,1593]],[[29310,73543],[196,-204],[-85,-455],[389,-318],[-12,-526],[448,-9],[343,-178],[238,114],[2869,-56],[518,-83],[225,362],[1146,528],[174,-79],[-51,-178],[331,-326],[238,212],[384,71],[285,184],[925,-179],[258,215],[325,-60],[357,-310],[-50,-176],[931,-24],[353,-133],[733,115],[560,-201],[413,99],[329,-87],[183,-164],[-329,-113],[-81,-143],[364,-26],[26,-194],[398,-67]],[[42641,71154],[318,170],[928,-529],[298,-854],[-322,-243],[-73,-221],[308,-408]],[[44098,69069],[-360,9],[-38,174],[-344,207],[-62,298],[-834,200],[-40,325],[-242,152],[-904,-36],[-497,463],[-421,94],[-408,-98],[-79,75],[-62,-117],[-469,-160]],[[39338,70655],[-475,34],[38,169],[-407,204],[-292,-14],[-218,-128],[-677,26]],[[60620,51623],[-162,-116],[62,-322],[-170,-51],[262,-627],[-267,-304],[-500,-218]],[[50833,54376],[366,-330],[369,-59],[60,-232],[665,-632],[196,63],[-25,-108],[233,-14],[77,-164],[113,59],[240,-139],[244,46],[979,-608],[142,19],[-90,73],[131,70],[298,-58],[379,87],[772,-273],[566,35],[123,129],[476,131],[412,-72],[750,82],[572,-101],[1080,445],[269,-422],[-283,-182],[-44,-258],[159,-167],[558,-173]],[[52092,16638],[-76,-348],[400,-193],[-268,-251],[4,177],[-219,37],[-550,-290],[-85,-297],[111,-153],[-165,-133],[-215,272],[-505,13],[-74,107],[-415,81],[-19,106],[-424,-161],[-375,11],[-191,-398],[-370,-52],[128,-158],[-115,-257],[-495,-307]],[[45515,12429],[-630,264],[-522,-80],[6,-129],[-442,-251],[-724,-91],[-312,-373],[-861,-82],[-934,481],[-539,146],[285,472],[-563,88]],[[34599,11725],[172,19],[-149,129],[280,11],[-205,103],[-61,343],[-266,63],[9,110],[117,94],[485,-20],[246,224],[167,-79],[168,159],[362,44],[0,292],[-241,60],[410,174],[-235,212],[605,107],[-155,370]],[[36682,19299],[315,211],[622,-77],[-17,201],[247,75],[-193,569],[175,166],[365,70],[-67,125],[168,24],[14,105],[484,100],[395,-102],[189,108],[-37,91],[221,86],[-92,193],[350,100],[-68,121],[236,45],[-112,36],[115,212],[330,66],[-341,185],[292,586],[-169,110],[261,113],[-131,123],[655,331],[135,124],[-103,47],[315,19],[45,170],[292,-164],[247,41],[103,-72],[266,164],[625,518],[-176,520],[437,330]],[[43075,24969],[549,150]],[[43624,25119],[582,-89],[670,340]],[[34980,63560],[-146,176],[-154,-3],[-92,286],[262,197],[-72,390],[-429,262]],[[34349,64868],[272,-8],[362,-262],[725,41],[221,-149],[453,33],[218,113],[685,-104],[401,-249],[600,90],[502,335]],[[38788,64708],[169,-277],[27,110],[217,5],[-39,-155],[122,-14],[107,-292],[320,36],[-106,-66],[255,-244],[-59,-79],[508,-69],[-17,-199],[232,-115],[-88,-101]],[[40436,63248],[-1139,335],[-1918,-2883],[-1203,-796],[-59,-142],[174,-13],[42,-330],[236,-44],[-182,-118],[257,-40],[234,-337],[198,3],[-39,-77],[318,-123]],[[35818,57301],[-213,-29],[-81,201],[-389,-131],[-88,214],[-322,183],[-400,98],[-444,-27],[-736,321],[-498,30],[-423,-217],[-108,145]],[[32116,58089],[1429,1231],[-59,69],[323,100],[425,332],[562,157],[3,282],[232,180],[137,500],[-778,550],[323,128],[-18,138],[690,531],[2,430],[-394,191],[178,231],[-191,421]],[[35818,57301],[1537,1382]],[[37355,58683],[291,38],[62,-108],[382,137],[245,-122],[815,-65],[246,-135],[-36,-93],[283,17],[116,-113],[529,66],[147,-303],[252,16],[276,-162],[-11,-266]],[[40952,57590],[-347,-143],[-262,-274],[717,-321],[213,21],[141,-268],[671,293],[22,-129],[245,-74],[212,-802],[-326,-253],[-119,-330],[-310,-155],[306,-250],[-362,-135],[176,-235],[-175,-86],[-270,-502],[-154,-35]],[[41330,53912],[-129,-91],[158,-225],[-305,-103],[-30,-251],[-143,-31],[356,-91],[-231,-206],[361,-52],[-82,-397],[-498,-420],[-813,-261],[-116,-155]],[[39858,51629],[-102,-166]],[[39756,51463],[-194,377],[146,163],[-223,-7],[98,165],[-378,76],[-47,91],[22,131],[195,8],[-121,110],[38,193],[133,28],[68,715],[-199,35],[-205,364],[-140,-4],[167,131],[-279,173],[130,221],[-267,12],[-234,242],[-292,-26],[77,599],[-165,195],[175,97],[-124,98],[-330,-64],[158,152],[-59,148],[-105,76],[-262,-92],[-114,88],[135,16],[25,158],[-156,-35],[-112,64],[121,68],[-355,22],[88,86],[-187,-40],[-211,183],[139,166],[-203,64],[10,-61],[-29,-24],[-872,676]],[[67586,29678],[149,-627],[-276,-349],[442,-425],[74,-435],[-481,-242],[-353,-53],[-328,-352],[186,-58],[-249,-333],[-284,-203],[-460,-112]],[[66006,26489],[-889,298],[-265,-566],[-183,-72],[-25,-250],[-259,-224],[-751,-390],[-450,-75],[-412,73],[-11,-135],[-214,-28],[-175,-533],[-420,-241],[-98,64]],[[61854,24410],[515,734],[-32,177],[-279,-1],[130,344],[-260,211],[18,185],[-457,-9],[-788,-324],[-239,265],[-517,149],[176,197],[-661,-284],[-467,436],[-180,-31]],[[51891,82929],[133,-145],[-200,-307]],[[50721,77749],[-432,81],[-422,242],[-460,-41],[-442,209],[-153,-34],[-241,437]],[[48571,78643],[-216,199],[-251,-8]],[[48104,78834],[41,330],[-560,23],[8,139],[-369,-11],[179,133],[-57,94],[-634,175]],[[34951,37462],[54,-37]],[[35005,37425],[-440,-373],[-428,9],[-810,-526],[-116,-185],[350,-206],[-312,-426]],[[33249,35718],[-411,-401],[-389,6],[-353,-135],[-702,211],[-1412,-167],[-651,313],[-1054,273],[-430,-7],[-151,314],[-1535,376],[-850,-168],[-949,-440],[-295,149],[-311,-122],[-384,132],[-959,-409],[-299,69],[-171,-106],[-216,55],[-70,-101],[-440,-30],[-208,126],[-71,-90],[-197,47],[-141,-81],[-439,220],[-700,-145]],[[19461,35607],[-3557,-692],[-13153,-1078]],[[2751,33837],[412,189],[384,394],[432,24],[128,92],[18,206],[284,267],[71,706],[665,167],[-104,266],[280,759],[505,161],[595,425],[-95,348],[823,1307],[-156,530],[-185,131],[131,362],[649,476],[94,209],[1032,503],[761,1529],[770,657],[546,1146],[930,762],[262,853],[603,368],[1,262],[352,323],[-365,447],[130,101],[-78,299],[302,528],[739,710],[-52,458],[138,321],[213,224],[650,249],[217,418],[539,36]],[[15372,51050],[110,-312],[-272,-297],[266,-250],[-214,-247],[-11,-570],[-558,-235],[243,-230],[148,-386],[-87,-286],[177,-196],[-509,-281],[116,-42],[208,117],[81,-89],[-371,-365],[406,-386],[-214,-51],[167,-162],[-319,-198],[196,-435],[-8,-170],[-200,-111],[90,-158]],[[14817,45710],[-456,-329],[-237,1],[431,-431],[-48,-162],[-244,53],[8,-109],[-217,-54],[167,-50],[-7,-159],[228,41],[17,-239],[416,-124],[-23,-73],[189,62],[72,-104],[-161,-168],[398,-202],[-86,-80],[203,-45],[-46,-94],[329,-89],[254,-291],[218,-73],[63,114],[142,-94],[78,56],[190,-387],[609,130],[515,-138],[126,225],[542,114],[254,-42],[476,-582],[400,-31],[110,-180],[168,19],[280,-159],[188,62],[449,-192],[252,35],[145,-91],[408,97],[254,-169],[548,210],[202,-15],[279,253],[369,30],[250,146],[494,-162],[166,-167],[515,47],[197,-135],[255,39],[185,-223],[401,-106]],[[25732,41695],[854,-327],[631,-428],[371,-733],[949,-307],[986,-125],[970,-395],[4,-482],[165,-159],[402,-28],[84,-199],[719,-105],[909,74],[162,-204],[-249,-139],[29,-291],[-262,-140],[290,-56],[422,108],[316,-327],[437,-126],[697,13],[333,143]],[[75254,13148],[-426,-9],[-252,134]],[[76639,15043],[459,80],[679,706],[498,204],[907,1150]],[[79182,17183],[197,97],[452,9],[195,146],[449,21],[71,212],[440,201],[407,53],[311,237],[586,-25],[-161,267],[172,54],[70,261],[424,130],[656,540],[-145,152],[67,395],[581,408],[482,178],[908,121],[538,-154],[326,69],[197,-167],[534,-78],[85,-242],[317,-127]],[[87341,19941],[-418,7],[120,-322],[-378,112],[-187,-93],[-2,-355],[291,-302],[268,95],[547,-298],[742,-7],[115,-103],[419,89],[265,-103],[1044,183],[298,-35],[-229,-161],[-822,-194],[-1635,-66],[-978,-467],[25,-116],[-231,-26],[29,-75],[-266,18],[-259,-332],[-159,184],[-338,-104],[21,-148],[-410,52],[-666,-201],[-8,-76],[316,42],[276,-113],[536,42],[64,102],[589,-55],[82,-74],[-220,-94],[208,1],[58,-270],[-306,-67],[12,-80],[521,-43]],[[59485,30865],[-224,144],[-24,280],[-124,31],[94,106],[-245,146],[31,151],[-595,544],[176,38],[-118,150],[-233,27],[-42,146],[-321,149],[522,286],[-11,115],[189,-54],[81,121],[-156,74],[17,159],[-363,100],[129,182],[-318,143],[-223,306],[109,251],[-388,152],[-12,193],[-220,183],[270,60],[60,165],[-163,141],[160,434],[415,137],[-155,105],[-49,351],[-186,94],[114,166],[-185,233],[91,158]],[[60942,37051],[455,-150],[28,77],[262,-20],[291,-206],[678,109],[299,-143],[540,-48],[353,-198],[26,-131],[230,33],[-55,-83],[224,-12],[107,-183],[135,12],[23,-215],[609,-574],[265,187],[300,-40],[610,148],[1873,861]],[[68195,36475],[322,167],[-53,255],[567,39],[217,105],[421,54],[368,-208],[1258,122],[449,192],[136,311],[323,169],[282,-341]],[[72485,37340],[-19,-200],[-222,21],[-273,-261],[350,51],[-169,-341],[-159,49],[-284,-180],[100,-110],[388,180],[449,-241],[-284,-216],[-241,135],[-105,-195],[252,-67],[392,212],[231,-267],[-204,-87],[162,-84],[277,158],[47,-252],[328,80],[136,-65],[217,102],[373,-110],[-44,-248],[289,-254],[-167,-85],[84,-236],[282,-94],[195,107],[152,-123],[-110,-150],[149,-112],[-133,-72],[130,-329],[229,2],[-78,-233],[439,31],[-43,-223],[484,91],[125,-57],[-84,-152],[157,86],[160,-46],[64,-214],[-103,-189],[-247,-103],[138,-119],[-164,-44],[48,-210],[-183,-215],[308,6],[105,128],[112,-225],[-157,-156],[398,-75],[-25,-311],[-291,-58],[15,-219],[271,-47],[36,-103],[-375,-31],[129,-69],[-31,-294],[131,122],[541,92],[40,-161],[198,-56],[-102,-96],[105,-144],[56,166],[139,19],[121,-133],[179,58],[-104,-268],[365,-48],[122,-111],[-237,-415],[-435,-130],[52,-301],[-505,-95],[60,-89],[-333,-208],[189,-42],[89,-251],[689,41],[211,-88],[483,444],[133,-96],[-197,-375],[246,43],[-4,-119],[300,-12],[-232,-77],[85,-68],[444,-26],[49,-278],[599,15],[101,-148]],[[80069,28172],[-821,98],[-383,277],[-345,-27],[-289,136],[-307,-82],[-418,66],[-397,-259],[-1113,-115],[-236,-151],[-994,-219],[-214,-130],[-402,20],[-85,93],[-260,-92],[-702,357],[-240,-58],[-467,162],[-324,237],[-440,-1],[-344,473],[-238,83],[-18,179],[-669,62],[-76,147],[-466,12],[-8,215],[-202,-30],[-312,161],[-188,-93],[-132,307],[-643,-111],[-146,-124],[-308,110],[0,-123],[-174,40],[-122,-114]],[[67586,29678],[-262,133],[-179,-151],[-147,103],[-491,-120],[-241,69],[92,-95],[-125,-102],[-300,78],[-17,90],[-546,-250],[-207,-11],[-76,96],[-101,-116],[-277,161],[-793,-51],[-118,298],[-135,-185],[-163,-25],[-57,206],[-38,-177],[-294,-66],[-162,44],[-28,274],[-143,-106],[-176,65],[-14,-102],[-131,102],[-240,-86],[-573,349],[-297,-100],[-73,83],[156,32],[-196,46],[-145,-160],[-5,193],[-443,45],[-124,150],[-209,-107],[-139,133],[-138,-114],[-217,27]],[[71160,20725],[-31,161],[411,354],[-109,190],[-237,82],[119,160],[-129,232],[171,264],[-106,130],[1345,1091],[-202,137],[43,259],[-279,266],[-442,-18],[147,258],[658,167],[60,193],[-281,445],[-369,11],[-133,148],[1247,202],[818,22],[754,-515],[273,199],[-98,175],[200,167],[537,93],[215,-59]],[[75669,24886],[164,-782],[-225,38],[-132,169],[-310,-39],[-196,-186],[4,-488],[-605,-460],[-334,376],[-426,-12],[-145,-603],[-221,-264],[140,-560],[-371,-142],[-413,-484],[12,-149],[-267,-21],[38,-130],[-373,-298],[-514,-216],[-147,20],[-19,128],[-169,-58]],[[48214,28696],[-381,183],[33,393],[-1051,428],[-688,20],[-271,201],[-478,125],[-115,184],[-241,-10],[-14,174],[300,221]],[[45308,30615],[757,551],[443,627],[10,745],[-368,201],[-725,-133],[-426,-244],[-419,40],[-375,-165],[-626,-48],[-36,-144],[267,-105],[-39,-129],[-231,-29],[13,-290],[-573,-8],[-124,-198],[-236,50],[206,155],[-76,105],[-410,0],[-568,-295],[-190,456],[-146,-73],[-748,19],[-683,419],[-502,-100],[-213,98],[-314,-46],[-247,141]],[[38729,32215],[421,591],[-305,598]],[[38845,33404],[-508,609],[-356,127],[45,277],[257,152],[-245,159],[-87,281]],[[37951,35009],[408,213],[-112,170],[158,445]],[[40001,36882],[344,78],[14,108],[211,-16],[-41,151],[43,41],[33,-70],[273,149],[397,21],[42,183],[630,123],[105,212],[177,-72],[375,125],[-225,187],[137,232],[-416,131],[-122,198],[-269,41],[-83,139],[-408,-36],[-343,268],[-226,21],[21,308],[-170,86],[551,1203]],[[41051,40693],[332,124],[302,-42],[84,146],[227,-72],[183,182],[337,-11],[-19,157],[271,94],[155,210],[333,-175],[789,80],[258,-137],[456,188],[398,-48],[226,165],[301,12],[888,-399],[686,-30]],[[51265,36266],[-403,62],[-291,-165],[-471,-75],[-319,-273],[-616,-51],[-342,165],[-495,-161],[260,-208],[454,-122],[-781,-638],[317,-275],[470,-203],[881,-182],[456,-231],[8,-124],[458,5],[400,-200],[-438,-277],[-765,-190],[-1104,-929],[74,-361],[353,-329],[219,169],[637,-117],[100,-167],[556,-68],[22,-112],[-272,-16],[-202,-158],[-14,-314],[-544,5],[-549,-258],[291,-94],[390,-528]],[[57795,97370],[1651,78],[1266,-425]],[[57540,94776],[32,176],[-412,197],[-57,322],[152,157],[-233,216],[297,492],[-96,223],[186,122],[424,56],[-44,630]],[[41639,59612],[-240,331],[-384,220],[360,493],[-142,432],[549,-26]],[[41782,61062],[284,162],[-200,288],[174,353]],[[42040,61865],[478,-306],[557,-17],[-39,-148],[315,16],[0,-104],[249,-34],[238,-204],[169,56],[817,-338],[716,395],[315,-125],[316,110],[749,14],[321,129],[605,515],[716,-75],[213,68]],[[48561,59598],[-659,-109],[-600,-362],[-702,4],[-140,-108],[-896,-140],[-47,-114],[-274,-70],[-588,129],[25,270],[-1154,220],[15,213],[-449,92],[-1453,-11]],[[35126,37302],[46,693],[188,124],[861,86],[243,-184],[533,-76],[368,-354],[39,-298],[180,-151],[838,-189],[1377,146],[202,-217]],[[40001,36882],[-657,-78],[-137,-113],[151,-149],[-205,-280],[-817,-137],[69,-288]],[[38405,35837],[-617,-158],[-809,-409],[-524,-14],[-561,196],[-192,256],[114,112],[-87,211],[-806,295],[362,332],[5,164],[-398,386],[234,94]],[[66190,56306],[110,-6],[210,337],[562,-65],[1117,324],[-425,323],[179,431],[-296,572],[338,198],[100,349],[474,341],[-40,97],[269,29],[-97,139],[344,87],[-229,52],[102,206],[159,-17],[-59,221],[222,180]],[[69230,60104],[239,-75],[-48,137],[259,4],[189,172],[186,-2],[34,182],[-143,5],[350,214],[-152,54],[340,68],[415,283]],[[70899,61146],[322,-381],[451,-141],[59,-287],[342,-168],[54,90],[212,-119],[258,20],[310,133],[391,-363],[300,-103],[289,81],[1106,-46],[122,109],[147,-136],[1014,-175],[236,-149],[745,-62]],[[77257,59449],[-278,-136],[-54,-167],[-250,46],[-65,-207],[-91,69],[-113,-123],[-80,77],[-150,-261],[-262,68],[-48,-99],[367,-75],[-297,-237],[-73,-334],[273,-58],[-25,-102],[163,24],[173,-323],[-544,-266],[-57,-211],[-278,-8],[536,-624],[29,-433],[-216,-100],[127,-68],[-214,-135],[63,-161],[-529,-78],[-360,-192],[-246,107],[-412,-149],[129,-239],[320,-189],[-240,-67],[-31,-143],[-260,-9],[47,-155],[-468,-90],[58,-281],[-219,-166],[-185,134],[-51,-261]],[[73446,53827],[-454,555],[-282,34],[-95,-76],[-330,273],[-391,48],[-247,-92],[-207,198],[-305,-24],[25,78],[-218,-74],[75,-89],[-348,9],[-534,-218],[-83,146],[-249,-19],[96,-122],[-117,34],[-296,-155]],[[69486,54333],[143,81],[-19,689],[283,374],[-25,175],[-602,127],[-221,301],[-17,-392],[-502,218],[-262,-15],[-292,-182],[-385,24],[-150,-82],[115,-70],[-360,-35],[-337,72],[-665,688]],[[47718,85438],[331,-49],[545,82],[196,221],[2267,107],[705,-232],[74,-690],[499,-226],[683,135],[744,-81],[252,190],[818,56]],[[54832,84951],[250,-220],[-226,-442],[-746,-133],[-87,-97],[-156,-404],[271,-389],[-55,-148]],[[54083,83118],[-197,-109],[35,-109],[-218,-23],[-140,-139],[-361,-22],[-357,136],[-954,77]],[[51891,82929],[-190,140],[182,228],[-208,267],[-507,300],[-387,28],[-175,325],[-250,67],[-205,255],[-273,-200],[-320,144],[-86,183],[-290,-62],[-163,109],[-354,-146]],[[80069,28172],[375,-470],[-115,-313],[185,-224],[837,-168],[551,-269],[299,31],[868,-219]],[[83069,26540],[-467,-931],[-9,-223],[340,-126]],[[82933,25260],[-416,-208],[-619,-64],[-793,-279],[-301,-304],[-731,-278],[-443,16],[-448,-190],[-539,145],[-620,-52],[-260,93],[-268,-73],[-1395,905],[-431,-85]],[[75669,24886],[73,653]],[[75742,25539],[416,206],[292,399],[1445,469],[20,234],[231,170],[312,109],[489,-1],[348,259],[295,11],[294,-181],[185,958]],[[47099,49727],[-237,53],[-51,-307],[-596,66],[-674,-259],[-384,12],[-547,-147],[-616,-475],[-305,93],[-656,-3]],[[43033,48760],[-489,44],[352,369],[-177,125],[251,429],[-245,128],[489,130],[-460,47],[6,267],[-140,95],[433,387],[127,387]],[[43180,51168],[320,104],[92,-91],[195,1102],[200,-15],[261,147],[367,745],[303,74],[117,-167],[17,13],[91,16],[-18,-121],[236,115],[319,-77],[552,101],[-81,-129],[114,-58],[318,89],[204,-119],[292,39]],[[48770,52203],[-642,-663],[-67,-366],[-613,-804]],[[57530,43254],[-751,481],[-324,813]],[[56251,49746],[520,64],[549,-233],[514,234],[180,149],[-43,124],[570,-146],[485,19],[464,-153],[119,225],[236,-44]],[[59845,49985],[-20,-189],[747,31],[745,-274],[233,313],[373,-27],[421,353],[709,-166],[573,161],[304,166],[4,168],[-226,114],[157,117],[478,-82],[637,236],[184,-77],[462,221],[1027,-229],[112,-168],[343,-67],[-75,-197],[307,-14]],[[67340,50375],[193,-12],[225,-395],[234,-133],[246,58],[752,-124],[126,-247],[358,-206],[-48,-122],[271,-129],[546,-29],[411,-281],[521,-15],[155,-126],[521,-84],[37,-111],[486,-94],[-238,-140],[4,-143],[346,112],[81,-60],[-286,-466],[183,-852],[147,-54],[172,-432],[303,43],[-144,-246],[-401,-149],[11,-361],[-244,-32],[-87,-132],[274,-259],[-15,-271],[131,-12],[-186,-357],[402,-190],[-127,-53],[44,-221],[-388,-206],[-366,-54],[-233,-147],[111,-113],[-404,-120],[-91,-110],[180,-178],[-268,-146],[155,-155],[-320,42],[72,-281],[-371,-37],[-124,-207],[-139,61],[-324,-88],[-14,-130],[197,-23],[-301,-160],[268,-63],[-336,-167],[192,-109],[-79,-119]],[[70161,41540],[-999,-246],[-313,-181],[-576,86],[-185,119],[-1222,22],[-224,-134],[-623,101],[-167,184],[-661,317],[-491,91],[-60,125],[-423,-98],[-1821,129],[-326,-135],[-320,20],[-605,133],[-190,159],[-875,125],[-793,313],[-742,62],[-560,429],[-455,93]],[[54085,99160],[1566,-20],[993,-253],[301,-239],[55,-751],[795,-527]],[[57795,97370],[-6,-3]],[[57789,97367],[-830,-363],[-869,133],[-497,277],[50,-418],[240,-269],[-94,-104],[-996,310]],[[54793,96933],[663,492],[177,391],[-1548,1344]],[[10880,10896],[-171,135],[-183,-93],[-47,165],[-315,186],[219,197],[17,331],[277,143],[58,192],[371,72],[57,184],[407,93],[17,229],[316,195]],[[11903,12925],[243,127],[-166,173],[350,-62],[95,108],[-229,475],[440,92],[-163,195],[-36,491],[-314,90],[138,74],[-175,303],[577,-16],[159,100],[-102,194],[349,65],[-182,299],[106,346],[-220,114],[412,93],[175,-68],[348,285],[27,198],[466,108],[80,280],[160,-56],[7,-140],[5229,-553],[72,-100],[211,-8],[-98,-74],[145,-27],[-39,-251],[278,-213],[63,70],[187,-142],[153,112],[483,-106],[52,-231],[524,-292]],[[21708,14978],[62,-151],[192,-19],[-25,-95],[-260,-14],[-34,-254],[524,20],[528,-168],[-28,-135],[398,-210],[1,-170],[-637,-185],[394,-417],[286,-106],[-345,-101],[169,-170],[-77,-164],[305,108],[161,-162],[178,63]],[[23500,12648],[139,-26],[-111,-328],[302,-98],[-334,-115],[286,-89],[-69,-225],[252,-179],[294,-24],[-71,-275],[-393,-92],[-941,-607],[-472,-125],[-36,-144],[-484,24],[-329,-121],[-181,63],[-811,-208],[-824,-743],[-447,-147],[-361,14],[-104,-104],[8,206],[-295,146],[-586,-35],[-1131,334],[-407,-113],[-668,252],[-742,77],[43,-79],[-298,41],[-841,-208],[-308,307],[-907,315],[-608,-150],[-659,91],[-526,613]],[[30848,75561],[-106,1758],[-468,904],[16,452],[696,484],[1273,339],[1541,730]],[[33800,80228],[388,-218],[-187,-403],[286,-284],[-60,-317],[219,-492],[367,-206],[334,18],[271,-218],[260,30],[219,-117],[372,-452],[334,-66],[-44,-148],[2055,-749],[206,221],[398,135],[93,457],[875,-330],[338,-412],[295,16],[315,-174],[-346,-1985]],[[40788,74534],[-115,118],[-796,-22],[-426,128],[-720,-69],[-1263,101],[-177,192],[-396,-155],[-155,130],[-824,207],[-824,-41],[-838,-346],[-1109,416],[-665,48],[-301,180],[-1331,140]],[[51842,56956],[88,801],[-133,473]],[[51797,58230],[661,-339],[296,56],[2,-90],[269,34],[169,-127],[578,34],[257,239]],[[54029,58037],[105,51],[702,-332],[491,-51],[562,-664],[408,-70],[459,31],[446,-110],[879,129],[506,-97],[405,175],[456,-11],[1271,362],[25,-165],[-401,-279],[-50,-197],[332,-577],[439,36],[226,-139],[797,2],[1059,-356],[574,93],[176,217],[413,149],[508,41]],[[64817,56275],[-1371,-1689]],[[63446,54586],[-312,256],[-159,-4],[-112,353],[-306,36],[-455,-704],[-200,-109],[-529,6],[-144,-103],[-665,104],[-295,-177],[-370,125],[-497,-157],[-1016,271],[-39,-77],[-114,70],[-171,-117],[-249,53],[-132,-81],[-521,120],[-441,-132],[-597,5],[-191,46],[-50,199],[-334,200],[-342,37],[46,64],[-162,31],[139,76],[-416,127],[-28,171],[-200,-33],[33,122],[-519,-205],[-94,142],[-615,-47],[-176,145],[-271,-44],[-94,105],[-219,-6],[-1,-108],[-144,148],[-244,-78],[40,200],[-191,63],[-54,204],[-117,-72],[-33,178]],[[37462,30120],[-44,-281],[297,-161],[229,-543],[-581,-654]],[[37363,28481],[-370,102],[-1005,11],[-244,-202],[-615,-151],[-1605,-80],[-766,200],[-1199,51],[-411,694],[-361,-109],[-122,-331],[-225,-70],[-126,-199],[-448,108],[-548,-244],[-466,-46],[-474,172],[-139,196],[-565,-168],[-593,-19],[-729,-555],[-584,-192]],[[25768,27649],[-156,25],[-180,-162],[-346,124],[-514,-151],[-203,135],[-564,-70],[21,80],[-368,-1],[-65,127],[136,52],[-298,68],[-63,-69],[-137,103],[-109,-109],[-217,52],[-664,402],[-555,-57],[-92,217],[-597,121],[-574,494],[-336,56],[32,243],[-305,-14],[-407,358],[-385,-113],[-112,225]],[[18710,29785],[58,237],[357,324],[-84,178],[403,193],[-64,144],[130,71],[574,-73],[209,-174],[182,168],[336,-222],[520,144],[717,-156],[168,197],[350,11],[500,231],[16,292],[439,474]],[[23521,31824],[55,-93],[771,-44],[329,216],[641,56],[498,155],[295,237],[447,97],[402,237],[206,34],[93,-78],[157,129],[700,86],[4,69],[783,-254],[834,27],[351,-84],[443,-470],[350,-44],[631,137],[125,-207],[289,31],[361,-109],[259,122],[537,-105],[475,256],[251,18],[104,136],[342,52]],[[34254,32431],[319,-783],[2061,-20],[203,-94],[313,-428],[-60,-355],[406,-261],[-34,-370]],[[45272,26041],[98,533]],[[45370,26574],[123,48],[855,-225],[665,69],[116,-105],[98,69],[217,-176],[241,24],[45,-111],[112,55],[247,-209],[116,218],[537,-77],[139,130],[354,59]],[[58282,27222],[681,-417],[-150,-346]],[[58813,26459],[-663,-221],[121,-152],[-280,-483],[254,-88],[-791,-268],[-1234,-246],[-328,-269],[-110,-573],[-648,-549],[-279,-592],[-282,-18],[41,-265],[-231,-4],[-399,-233],[-292,250],[-603,-208],[-317,191],[-93,-125],[-352,22],[24,-109],[-184,84],[-330,-157],[-180,41],[-61,-216],[-222,37],[-118,145],[-328,-5]],[[58464,39807],[647,-33],[145,-208],[361,0],[415,-171],[750,40],[649,-314],[241,52],[177,-178],[1084,-172]],[[62933,38823],[-131,-66],[-457,43],[-426,-78],[-126,-121],[-365,-6],[-14,-214],[225,-127],[-175,-390],[446,-253],[-887,-389],[-81,-171]],[[60942,37051],[-540,-144],[-472,53],[-647,-254],[-17,78],[-366,-7],[-87,114],[-919,-19],[-306,160]],[[57588,37032],[-85,162],[-483,104],[-24,512],[242,234]],[[62633,84971],[-392,-209],[-364,27],[9,-147],[-185,7],[-81,-97]],[[61620,84552],[-205,-40],[-67,-196],[-754,-122],[-247,-246],[-381,-56],[-252,92],[-344,-129],[-412,-311],[56,-152],[-179,-150],[-1030,-114],[-693,333]],[[57112,83461],[763,1376]],[[57875,84837],[1005,183],[506,-169],[315,154],[891,103],[696,-113],[1098,82],[22,-100],[225,-6]],[[54555,88084],[-944,371],[-475,-76],[-268,116],[-284,-47],[-79,85],[-826,93],[-348,-106],[-449,246],[-409,-4],[9,129],[-152,-49],[-43,111],[188,77],[-217,49],[-71,288],[56,111],[207,-59],[-21,85],[-485,172],[80,110],[-201,-57],[109,206]],[[49932,89935],[135,65],[848,-129],[326,37],[823,391],[840,94],[-312,538],[246,477],[164,34],[9,-79],[249,59],[522,-209],[237,56],[-34,-115],[339,-82],[2,-280],[184,42],[603,-124],[595,-414],[581,120],[472,242],[-112,790],[241,-45],[432,165],[-256,1387],[364,-52],[487,95],[329,-184],[582,-116],[321,54]],[[59149,92752],[0,0]],[[59149,92752],[288,-103],[-102,-347],[292,-154],[-73,-409],[429,-192],[-295,-445],[636,-270]],[[60324,90832],[20,-668],[-180,-170],[315,-222]],[[60479,89772],[-1412,92],[-541,-165],[-744,40],[-665,-104],[-625,101],[-304,-635],[-1233,98],[291,-324],[-2,-493],[-322,-252],[-367,-46]],[[75223,39671],[-111,134],[-572,135],[-228,207],[-477,54],[-79,112],[-510,16],[-41,234],[-869,356]],[[72336,40919],[496,61],[-67,115],[540,183],[-68,47],[245,77],[-69,128],[167,-23],[-99,97],[235,96],[802,134],[-35,126],[105,-105],[550,91],[138,-105],[-15,117],[257,58]],[[75518,42016],[0,0]],[[75518,42016],[167,-47],[332,166],[180,-125],[399,150],[129,-40],[84,116],[75,-73],[213,79],[433,-201],[130,102],[270,-58],[575,223],[44,110],[328,6],[-13,96],[292,-60],[536,357],[966,-30],[218,87],[114,-109],[377,-6],[44,99],[238,-32],[544,199],[882,492],[873,-95],[666,-486]],[[84614,42936],[-69,-233],[255,-159],[-224,-189],[102,-252],[-113,-176],[406,-358],[-6,-353],[209,-326],[519,-79],[728,-473],[319,-586],[801,-179],[286,131],[795,-106],[1232,143],[317,-160]],[[90171,39581],[-302,-242],[-225,76],[-825,-8],[-323,-315],[-267,-84],[-734,281],[-795,-207],[-493,147],[-825,-66],[-1693,215],[-211,-74],[-342,42],[-690,-206],[-273,69],[-201,-170],[-183,192],[-166,-61],[-374,117],[-68,152],[-403,118],[-227,269],[-659,129],[-199,-93],[-693,137],[-230,-111],[-166,63],[-186,-128],[-582,31],[-442,-291],[-415,-107],[-696,-22],[-644,237],[-215,-91],[-201,91]],[[59365,95138],[436,691],[328,183],[79,628],[504,383]],[[60712,97023],[1481,-599],[571,-58],[331,81],[633,-355],[560,-397],[298,-384],[161,-962]],[[64747,94349],[-789,-20],[-245,-272],[-534,-208],[-738,35]],[[49990,7593],[-1788,253],[-304,119],[-1077,-57],[-208,76],[-25,-161],[-301,-100],[-12,-154],[-343,-59],[-557,369],[-290,21],[-89,157],[-275,-68],[-135,188],[-168,-12]],[[44418,8165],[-77,168],[-390,-43],[-162,78],[89,67],[-331,447],[173,274],[278,67],[19,936],[338,195],[596,18],[24,304],[338,156],[14,151],[-153,1],[-182,179],[405,562],[-174,169],[119,106],[-60,299],[233,130]],[[45515,12429],[160,132],[189,-11],[52,114],[375,-37],[-3,142],[231,63],[98,157],[-151,133],[256,69],[41,231],[-188,132],[-105,390],[254,83],[-179,56],[61,190],[-255,179],[236,95],[4,296],[394,-6],[1189,-393]],[[48174,14444],[1128,-518],[27,-536],[388,-203],[134,-208],[-652,-530],[-25,-322],[1006,-26],[92,-120],[-55,-137],[-484,-167],[30,-502],[-1206,-241],[824,-388],[-443,-87],[63,-392],[-395,-347],[287,-253],[719,12],[-77,-283],[-435,-218],[-79,-171],[188,-120],[298,83],[412,-87],[-332,-528],[403,-562]],[[46351,98474],[33,254],[384,41],[34,107],[-494,50],[-498,241],[-356,-107],[-186,38],[-245,395],[-309,199]],[[44714,99692],[2445,307],[853,-398],[545,-32],[2152,-638]],[[50709,98931],[274,-163],[-1591,-567]],[[49392,98201],[-445,143],[-868,49],[-265,253],[-744,6],[-719,-178]],[[52092,16638],[-610,200],[34,75],[-269,-7],[13,108],[-262,102],[-224,-221],[-583,109],[-81,135],[149,196],[-241,170],[122,147],[-919,302],[-446,281],[-313,5],[-93,145],[-335,42],[-458,336],[63,182],[-186,129],[4,174],[248,191],[-513,190],[-36,499],[-306,351],[102,503],[-205,258],[179,452],[-134,52],[-6,238],[-522,114],[112,171],[-202,141],[73,128],[-699,353],[-380,478],[113,374],[-340,257],[278,246],[-76,341],[-311,219],[208,522],[-164,44]],[[44876,25370],[396,671]],[[45272,26041],[650,-580],[551,-152],[234,26],[205,-344],[672,-380],[-334,-259],[466,-320],[674,-145],[173,-132],[111,-452],[708,-160],[640,-474],[525,92],[381,-313]],[[50928,22448],[329,-381],[50,-190],[-153,-43],[355,-89],[-172,-347],[307,-202],[960,-163]],[[52604,21033],[-211,-255],[390,-121],[57,-258],[352,29],[401,-122],[-44,-59],[413,141],[243,-55],[-93,-155],[362,-123],[-95,-186],[279,-156],[399,-42],[432,-228],[1205,-159],[307,-148],[333,-446],[-141,-251],[288,-170],[-571,-879],[252,-51],[91,-307],[320,-313],[154,-24],[344,216],[807,176],[162,118],[84,-512],[-879,-535],[106,-309]],[[58351,15849],[-267,-226],[42,-414],[-119,-115],[-780,-5],[-533,-288],[90,276],[465,125],[267,465],[-266,143],[154,422],[-493,38],[34,203],[-265,159],[-445,62],[-82,192],[-239,-21],[-391,213],[-204,-77],[-503,42],[-216,-100],[-309,206],[-565,84],[-90,-310],[-551,128],[-271,-235],[-722,-178]],[[49235,26343],[414,204],[412,660],[-235,184],[-623,14],[-294,391],[-844,329],[149,571]],[[48214,28696],[-98,315],[512,130],[841,600],[536,105]],[[50005,29846],[119,-330],[304,21],[559,-277],[315,-481],[505,-247],[341,-389],[524,28],[316,-281],[893,-232],[644,5],[605,233],[260,-7],[550,506],[526,-30],[396,151],[276,-28],[-456,1352],[81,254],[1046,288],[642,-38],[259,247],[775,274]],[[59485,30865],[148,-151],[-205,-229],[180,-155],[206,1]],[[59814,30331],[-70,-207],[121,-73],[-141,-111],[319,-130],[114,-467],[182,32],[172,-221],[-740,-615],[-4,-180],[-312,-36],[-1173,-1101]],[[58282,27222],[-836,-129],[-536,194],[-609,-368],[-291,-12],[-228,-145],[-748,-98],[-530,118],[-540,-251],[-996,-156],[-490,-475],[-757,128],[-202,273],[-395,215],[-1247,-201],[-642,28]],[[57540,94776],[1121,786],[62,-160],[554,-84],[88,-180]],[[59365,95138],[281,-46],[295,125],[847,-41],[389,354],[1335,-304],[-71,-1342]],[[62441,93884],[-3136,-1105]],[[59305,92779],[-55,631],[292,125],[231,583],[323,213],[355,51],[310,466],[-3221,-72]],[[34840,18390],[-72,218],[929,275],[366,502],[442,1],[177,-87]],[[36682,19299],[-55,-130],[204,-49],[576,-574],[305,-73],[208,-327],[627,-139],[431,54],[650,316],[-151,-298],[-270,-116],[190,-254],[-277,-645],[90,-109],[-164,-87],[-130,-801],[570,84],[425,-245],[487,75],[427,-49],[409,241],[418,-201],[-48,-271],[296,-127],[-155,-240],[207,-217],[-311,-227],[-761,-44],[-64,-181],[-610,-336],[-312,86],[-260,-87],[-134,-113],[86,-197],[-242,-75],[13,-106],[-587,52],[125,211],[-349,-170],[4,81],[-429,41],[-109,168],[-199,-99],[-404,181],[-313,-164],[-243,87],[-545,-85]],[[36308,14140],[-196,12]],[[36112,14152],[-37,174],[290,398],[-141,471],[105,124],[-1200,126],[-66,99],[-11,119],[199,19],[251,339],[508,225],[-332,549],[-470,283],[69,172],[-322,341],[202,681],[-317,118]],[[90105,11617],[-1386,-310],[-1164,-61],[-338,-187],[-239,8],[-315,-219],[-185,38],[-50,-128],[-239,-62],[-769,-30],[-462,201],[-556,13],[-660,-185],[-407,53],[-621,-245],[-408,175],[-232,-88],[-191,40],[-58,-123],[-944,0],[-185,223],[-227,67],[-429,-153]],[[80040,10644],[-144,-55],[-66,172],[-520,30],[-147,280],[-539,120],[-875,654],[-298,-2],[-351,153],[-50,-72],[-292,258],[-446,-69],[60,260],[-148,111],[-35,347],[-935,317]],[[75254,13148],[359,21],[117,165],[541,117],[173,159],[313,-189],[448,123],[-21,99],[209,22],[313,351],[299,46],[169,-135],[382,-20],[-91,82],[158,383],[470,8],[331,194],[758,-94],[214,-129],[231,113],[336,-30],[288,240],[706,275],[20,137],[242,102],[3,171],[726,175],[608,691],[871,289],[679,-211],[255,133],[392,-123],[922,175]],[[86675,16488],[-8,-285],[-237,-137],[-25,-189],[-430,-80],[503,-290],[-579,-202],[652,16],[86,-85],[-205,-108],[365,-54],[-111,-201],[-345,-131],[366,-275],[-321,-164],[18,-189],[798,-65],[-195,-55],[-38,-308],[-260,-63],[-157,-186],[745,17],[-462,-188],[986,119],[466,-234],[-202,-4],[86,-137],[-577,-231],[-51,-140],[-257,57],[209,-250],[-214,-205],[290,-150],[207,14],[56,182],[253,124],[-200,101],[227,-9],[-126,163],[165,-71],[123,74],[101,-187],[64,195],[94,-166],[149,-9],[-232,-130],[26,-222],[326,-6],[-173,-150],[229,-14],[-11,-276],[-220,-215],[395,63],[37,86],[727,47],[317,-68]],[[76639,15043],[-413,-604],[-912,-390],[-13,-260],[-329,-399],[-396,-117]],[[74576,13273],[-246,64],[-364,-138],[-652,32],[-792,236],[-642,-138]],[[71880,13329],[-11,172],[248,59],[370,416],[-379,208],[-294,389],[366,710],[-126,104],[197,180],[-82,166],[383,336],[-104,193],[342,421],[-1097,628],[-37,388],[-327,318],[370,384],[789,-200],[381,-26],[211,104]],[[73080,18279],[349,-43],[326,143],[684,-69],[321,134],[318,-22],[536,-395],[145,-11],[46,179],[133,2],[420,-88],[232,-196],[410,-124],[367,-1057],[-155,-206],[-370,-114],[103,-192],[-151,-291],[203,-295],[-378,-177],[20,-414]],[[29833,7041],[-213,165],[-135,-34],[64,174],[-208,227],[-342,44],[-249,266],[-537,-42],[-164,230],[-406,98],[113,113],[-235,208],[197,761],[-126,107],[188,30],[56,228],[131,11],[-75,268],[135,240],[-375,263],[-282,875]],[[27370,11273],[553,6]],[[27923,11279],[129,-91],[270,45],[115,-143],[446,87],[139,-123],[320,-15],[163,-164],[811,158],[371,-72],[711,66],[342,-167],[43,-165],[506,-304],[-39,-123],[410,-160],[66,-144],[767,290],[330,320],[211,1127],[565,24]],[[34599,11725],[1649,206],[1401,789],[842,293],[939,33],[818,-81],[31,-91]],[[40279,12874],[-94,-55],[-89,71],[-259,-148],[-45,-221],[-182,81],[-69,-150],[-319,85],[-362,-89],[-100,-236],[216,-189],[-49,-136],[-607,-162],[240,-195],[-621,-438],[355,62],[67,-132],[-501,-86],[-258,63],[119,-129],[-249,-340],[251,-495],[222,-69],[369,234],[7,-277],[332,-153],[262,48],[-205,-169],[219,-114],[-240,-87],[388,-632],[-633,22],[-190,207],[-133,-216],[-318,-79],[448,-334],[13,-289],[-154,-103],[-119,160],[-575,46],[-299,-219]],[[37117,8011],[-2101,-1863],[-903,621],[-223,49],[-311,-134],[-604,113],[-164,203],[460,495],[-801,129],[-282,553],[-1821,-1066],[-534,-70]],[[47258,41137],[526,150],[46,151],[-390,707],[-370,268],[3,295]],[[47073,42708],[514,-150],[525,30],[168,-152],[100,145],[267,55],[47,-449],[424,-203],[178,137],[654,111]],[[49950,42232],[374,-318],[82,-332],[514,-236],[252,-314],[-175,-201],[9,-315],[-212,-122],[223,-211],[435,14],[445,277],[1009,-57],[138,-78],[926,37],[173,-75],[-135,-261],[61,-330],[388,99],[153,-150],[168,69],[15,-132],[165,106],[179,-48],[-34,161],[259,-5],[-83,102],[279,-57],[511,200],[23,110],[329,-32],[-163,164],[54,191],[378,-39],[119,234],[612,158],[-4,187],[292,114],[-31,326],[279,94]],[[57957,41562],[10,-172],[309,-182],[-138,-607],[326,-794]],[[58464,39807],[-416,-518],[-101,-431],[-361,-366],[-401,-200],[53,-248]],[[57238,38044],[-314,40],[-82,-123],[-262,-24],[-554,111],[-184,182],[-198,-44],[-267,-219],[-667,-178],[-287,-400],[-599,-403],[-403,72],[-293,-559],[-336,-235],[-1527,2]],[[51265,36266],[-628,969],[-959,-125],[-557,-278],[-762,-43],[-1223,52],[-714,333],[-164,308],[109,704],[421,673],[-87,113],[-532,127],[-177,301],[747,1401],[519,336]],[[47099,49727],[349,643]],[[47448,50370],[256,-215],[585,-51],[127,-184],[234,3],[-56,-82],[375,-156],[471,240],[604,-102],[423,-617],[23,-448],[163,-206],[486,-179],[1674,406],[-18,528],[209,-156],[565,-100],[806,130],[239,186],[57,271],[986,514],[518,-207],[76,-199]],[[56251,49746],[175,-359],[-64,-347],[-555,-914],[50,-501],[-231,-295],[279,-247],[-26,-297],[251,-246],[-164,-267],[227,-311],[262,-1414]],[[56455,44548],[-744,-316],[-516,52],[-2864,-1230],[42,-149],[-653,-321],[-459,-105],[-538,112],[-861,-212]],[[49862,42379],[767,477],[-1168,819],[164,66],[-382,790],[42,250],[-453,133],[-305,-178],[-481,244],[-308,38],[-155,283],[-456,148]],[[47127,45449],[-787,889],[639,1200],[-86,1020],[383,539],[-177,630]],[[65672,84888],[-217,-8],[-176,-241],[-324,-101],[-460,203],[-839,53],[-277,-154],[-600,328]],[[62779,84968],[343,125],[-898,315],[-715,-142],[-218,364],[-546,357],[-167,275],[-505,73],[-180,167]],[[59893,86502],[-142,1271]],[[59751,87773],[395,47],[308,232],[775,-86],[1016,337],[771,113],[1433,883],[303,-46],[346,153],[394,431]],[[65492,89837],[225,-330],[-127,-649],[223,-809],[751,-845],[161,-439],[-623,-738],[-26,-501],[-404,-638]],[[50833,54376],[-268,-908],[-825,-460],[-970,-805]],[[48770,52203],[-231,31],[-120,-91],[-185,163],[-422,-39],[-187,168],[-161,-29],[-71,442],[-314,88]],[[47079,52936],[-113,105],[274,488],[-68,521],[-75,85],[-525,-2]],[[46572,54133],[14,381],[1026,445],[494,545],[-14,223],[365,463],[478,204],[-40,89],[312,94],[373,-133],[385,108],[320,-90],[498,170],[255,-134],[113,38],[-14,-81],[367,-43],[283,194],[-127,152],[182,198]],[[51842,56956],[312,-328],[-269,-639]],[[51885,55989],[-892,-915],[-160,-698]],[[48561,59598],[-124,89],[99,173],[388,316],[-425,187],[31,331],[417,363],[175,457],[-140,317],[-207,-14]],[[48775,61817],[-807,723],[-526,151],[-81,124],[414,167],[363,838],[365,306]],[[48503,64126],[210,107],[592,-8],[488,166],[388,-263],[408,-71],[137,-165],[335,20],[288,157]],[[51349,64069],[-182,-552],[336,-419],[245,-690],[86,-949],[931,-716],[-299,-1007],[-210,-145],[-464,-87],[-58,-176]],[[51734,59328],[-421,-454],[-411,-44],[-275,83],[24,95],[-162,-31],[-106,165],[-230,-7],[-90,175],[-307,-26],[-62,-88],[-650,46],[-483,356]],[[51824,82477],[440,-364],[897,-101],[-10,-97],[544,-292],[326,30],[42,-139],[686,-128],[-64,-134],[137,-125],[340,-11],[287,-282],[345,2],[282,-221],[290,-48],[-107,-293],[454,-315],[75,-380],[329,-31],[306,-339],[554,-161],[201,49],[283,-78],[550,109],[222,-68]],[[59233,79060],[406,-938],[-2698,-491],[-5326,-1179]],[[51615,76452],[-1159,-288],[336,234],[-262,212],[80,272],[-160,182],[271,685]],[[50721,77749],[1080,-226],[23,4954]],[[41810,84059],[406,454],[1440,637],[685,575],[1156,23],[1215,-349],[213,424]],[[46925,85823],[577,-139],[216,-246]],[[47718,85438],[-151,-83],[46,-137],[237,39],[165,-194],[315,67],[42,-212],[257,-95],[-124,-214],[160,-42]],[[48665,84567],[289,-201],[-220,-221],[176,-111],[-89,-164],[-267,-43],[66,-100],[-234,-274],[148,-109],[-133,54],[-146,-83],[-119,-261],[-121,59],[-660,-142],[-136,-92],[67,-215],[-198,-1],[-123,-223],[-266,-126],[377,-1834],[200,-239],[-564,-524]],[[46712,79717],[-288,148],[-291,-16],[-137,166],[-77,-134],[-411,337],[-342,-139],[124,435],[-234,181],[132,9],[-153,74],[107,42],[-275,117],[275,-12],[104,161],[-112,74],[333,239],[-174,87],[-100,413],[-92,-54],[-458,280],[-194,-182],[-494,25],[-621,352],[-312,-26],[31,157],[-306,-13],[-9,227],[-119,150],[-198,-54],[-37,193],[-634,18],[202,157],[-21,115],[-151,-86],[-130,105],[35,112],[195,32],[57,579],[-127,73]]]}